ROAD,TOWN,POSTCODE,USE,X,Y
SEACOAST ROAD,LIMAVADY,BT49 0JY,RESIDENTIAL,265611,431395
SEACOAST ROAD,LIMAVADY,BT49 0LA,UNKNOWN,265686,431787
SEACOAST ROAD,LIMAVADY,BT49 0LA,RESIDENTIAL,266101,432758
SEACOAST ROAD,LIMAVADY,BT49 0LA,RESIDENTIAL,266159,432326
SEACOAST ROAD,LIMAVADY,BT49 0LA,RESIDENTIAL,266323,432117
SEACOAST ROAD,LIMAVADY,BT49 0LD,RESIDENTIAL,266339,433659
SEACOAST ROAD,LIMAVADY,BT49 0LA,RESIDENTIAL,266420,432679
SEACOAST ROAD,LIMAVADY,BT49 0LA,RESIDENTIAL,266514,431956
SEACOAST ROAD,LIMAVADY,BT49 0LA,RESIDENTIAL,266560,432908
SEACOAST ROAD,LIMAVADY,BT49 0LA,RESIDENTIAL,266621,432587
SEACOAST ROAD,LIMAVADY,BT49 0LF,RESIDENTIAL,266642,434403
SEACOAST ROAD,LIMAVADY,BT49 0LD,UNKNOWN,266712,433139
SEACOAST ROAD,LIMAVADY,BT49 0JY,RESIDENTIAL,266717,431235
SEACOAST ROAD,LIMAVADY,BT49 0LA,RESIDENTIAL,266740,432186
OUGHTYMOYLE AVENUE,LIMAVADY,BT49 0JZ,RESIDENTIAL,266744,431720
OUGHTYMOYLE AVENUE,LIMAVADY,BT49 0JZ,RESIDENTIAL,266744,431731
SEACOAST ROAD,LIMAVADY,BT49 0LA,RESIDENTIAL,266748,432184
OUGHTYMOYLE AVENUE,LIMAVADY,BT49 0JZ,RESIDENTIAL,266757,431708
OUGHTYMOYLE AVENUE,LIMAVADY,BT49 0JZ,RESIDENTIAL,266757,431751
SEACOAST ROAD,LIMAVADY,BT49 0LA,RESIDENTIAL,266759,432182
OUGHTYMOYLE AVENUE,LIMAVADY,BT49 0JZ,RESIDENTIAL,266767,431708
OUGHTYMOYLE AVENUE,LIMAVADY,BT49 0JZ,RESIDENTIAL,266767,431751
SEACOAST ROAD,LIMAVADY,BT49 0LF,RESIDENTIAL,266780,434646
OUGHTYMOYLE AVENUE,LIMAVADY,BT49 0JZ,RESIDENTIAL,266782,431706
OUGHTYMOYLE AVENUE,LIMAVADY,BT49 0JZ,RESIDENTIAL,266794,431707
SEACOAST ROAD,LIMAVADY,BT49 0JY,RESIDENTIAL,266798,431229
OUGHTYMOYLE AVENUE,LIMAVADY,BT49 0JZ,RESIDENTIAL,266818,431762
OUGHTYMOYLE AVENUE,LIMAVADY,BT49 0JZ,RESIDENTIAL,266820,431707
SEACOAST ROAD,LIMAVADY,BT49 0LD,RESIDENTIAL,266823,433615
SEACOAST ROAD,LIMAVADY,BT49 0LD,RESIDENTIAL,266829,433608
OUGHTYMOYLE AVENUE,LIMAVADY,BT49 0JZ,RESIDENTIAL,266830,431705
OUGHTYMOYLE AVENUE,LIMAVADY,BT49 0JZ,RESIDENTIAL,266830,431761
SEACOAST ROAD,LIMAVADY,BT49 0JY,RESIDENTIAL,266838,431252
SEACOAST ROAD,LIMAVADY,BT49 0JY,RESIDENTIAL,266838,431437
OUGHTYMOYLE AVENUE,LIMAVADY,BT49 0JZ,RESIDENTIAL,266841,431760
OUGHTYMOYLE AVENUE,LIMAVADY,BT49 0JZ,RESIDENTIAL,266852,431760
SEACOAST ROAD,LIMAVADY,BT49 0JY,RESIDENTIAL,266854,431489
SEACOAST ROAD,LIMAVADY,BT49 0LD,RESIDENTIAL,266860,433614
OUGHTYMOYLE AVENUE,LIMAVADY,BT49 0JZ,RESIDENTIAL,266862,431759
SEACOAST ROAD,LIMAVADY,BT49 0JY,UNKNOWN,266864,431456
OUGHTYMOYLE AVENUE,LIMAVADY,BT49 0JZ,RESIDENTIAL,266869,431677
SEACOAST ROAD,LIMAVADY,BT49 0JY,COMMERCIAL,266870,431476
SEACOAST ROAD,LIMAVADY,BT49 0JY,RESIDENTIAL,266871,431502
OUGHTYMOYLE AVENUE,LIMAVADY,BT49 0JZ,RESIDENTIAL,266872,431684
OUGHTYMOYLE AVENUE,LIMAVADY,BT49 0JZ,RESIDENTIAL,266873,431691
OUGHTYMOYLE AVENUE,LIMAVADY,BT49 0JZ,RESIDENTIAL,266873,431759
SEACOAST ROAD,LIMAVADY,BT49 0JY,RESIDENTIAL,266875,431584
OUGHTYMOYLE AVENUE,LIMAVADY,BT49 0JZ,RESIDENTIAL,266875,431698
OUGHTYMOYLE AVENUE,LIMAVADY,BT49 0JZ,RESIDENTIAL,266885,431665
SEACOAST ROAD,LIMAVADY,BT49 0JY,RESIDENTIAL,266890,431452
OUGHTYMOYLE AVENUE,LIMAVADY,BT49 0JZ,RESIDENTIAL,266892,431664
OUGHTYMOYLE AVENUE,LIMAVADY,BT49 0JZ,RESIDENTIAL,266894,431734
OUGHTYMOYLE AVENUE,LIMAVADY,BT49 0JZ,RESIDENTIAL,266895,431725
OUGHTYMOYLE AVENUE,LIMAVADY,BT49 0JZ,RESIDENTIAL,266896,431766
OUGHTYMOYLE AVENUE,LIMAVADY,BT49 0JZ,RESIDENTIAL,266899,431662
OUGHTYMOYLE AVENUE,LIMAVADY,BT49 0JZ,RESIDENTIAL,266903,431767
OUGHTYMOYLE AVENUE,LIMAVADY,BT49 0JZ,RESIDENTIAL,266906,431660
SEACOAST ROAD,LIMAVADY,BT49 0JY,RESIDENTIAL,266910,431429
OUGHTYMOYLE AVENUE,LIMAVADY,BT49 0JZ,RESIDENTIAL,266914,431723
OUGHTYMOYLE AVENUE,LIMAVADY,BT49 0JZ,RESIDENTIAL,266920,431721
OUGHTYMOYLE AVENUE,LIMAVADY,BT49 0JZ,RESIDENTIAL,266926,431720
OUGHTYMOYLE AVENUE,LIMAVADY,BT49 0JZ,RESIDENTIAL,266926,431737
OUGHTYMOYLE AVENUE,LIMAVADY,BT49 0JZ,RESIDENTIAL,266927,431743
OUGHTYMOYLE AVENUE,LIMAVADY,BT49 0JZ,RESIDENTIAL,266929,431749
OUGHTYMOYLE AVENUE,LIMAVADY,BT49 0JZ,RESIDENTIAL,266932,431760
OUGHTYMOYLE AVENUE,LIMAVADY,BT49 0JZ,RESIDENTIAL,266934,431766
SEACOAST ROAD,LIMAVADY,BT49 0LA,RESIDENTIAL,266961,432118
SEACOAST ROAD,LIMAVADY,BT49 0LD,RESIDENTIAL,266964,433315
POINT ROAD,LIMAVADY,BT49 0LP,RESIDENTIAL,266987,434871
SEACOAST ROAD,LIMAVADY,BT49 0LA,RESIDENTIAL,267031,432175
DRUMAVALLY,LIMAVADY,BT49 0LT,RESIDENTIAL,267074,432866
DRUMAVALLY,LIMAVADY,BT49 0LT,RESIDENTIAL,267077,432872
DRUMAVALLY,LIMAVADY,BT49 0LT,RESIDENTIAL,267080,432877
DRUMAVALLY,LIMAVADY,BT49 0LT,RESIDENTIAL,267083,432883
DRUMAVALLY,LIMAVADY,BT49 0LT,RESIDENTIAL,267086,432888
DRUMAVALLY,LIMAVADY,BT49 0LT,RESIDENTIAL,267086,432902
DRUMAVALLY,LIMAVADY,BT49 0LT,RESIDENTIAL,267091,432911
SEACOAST ROAD,LIMAVADY,BT49 0LA,UNKNOWN,267092,432703
DRUMAVALLY,LIMAVADY,BT49 0LT,RESIDENTIAL,267097,432923
DRUMAVALLY,LIMAVADY,BT49 0LT,RESIDENTIAL,267101,432932
DRUMAVALLY,LIMAVADY,BT49 0LT,RESIDENTIAL,267108,432946
SEACOAST ROAD,LIMAVADY,BT49 0LA,RESIDENTIAL,267111,432164
DRUMAVALLY,LIMAVADY,BT49 0LT,RESIDENTIAL,267111,432871
DRUMAVALLY,LIMAVADY,BT49 0LT,RESIDENTIAL,267112,432955
DRUMAVALLY,LIMAVADY,BT49 0LT,RESIDENTIAL,267117,432868
DRUMAVALLY,LIMAVADY,BT49 0LT,RESIDENTIAL,267121,432892
DRUMAVALLY,LIMAVADY,BT49 0LT,RESIDENTIAL,267122,432962
DRUMAVALLY,LIMAVADY,BT49 0LT,RESIDENTIAL,267123,432865
DRUMAVALLY,LIMAVADY,BT49 0LT,RESIDENTIAL,267125,432968
DRUMAVALLY,LIMAVADY,BT49 0LT,RESIDENTIAL,267127,432889
DRUMAVALLY,LIMAVADY,BT49 0LT,RESIDENTIAL,267127,432974
DRUMAVALLY,LIMAVADY,BT49 0LT,RESIDENTIAL,267128,432862
DRUMAVALLY,LIMAVADY,BT49 0LT,RESIDENTIAL,267130,432979
DRUMAVALLY,LIMAVADY,BT49 0LT,RESIDENTIAL,267132,432906
DRUMAVALLY,LIMAVADY,BT49 0LT,RESIDENTIAL,267133,432886
DRUMAVALLY,LIMAVADY,BT49 0LT,RESIDENTIAL,267133,432986
DRUMAVALLY,LIMAVADY,BT49 0LT,RESIDENTIAL,267134,432912
SEACOAST ROAD,LIMAVADY,BT49 0LA,RESIDENTIAL,267135,432292
DRUMAVALLY,LIMAVADY,BT49 0LT,RESIDENTIAL,267136,432991
DRUMAVALLY,LIMAVADY,BT49 0LT,RESIDENTIAL,267137,432858
DRUMAVALLY,LIMAVADY,BT49 0LT,RESIDENTIAL,267137,432917
DRUMAVALLY,LIMAVADY,BT49 0LT,RESIDENTIAL,267138,432997
DRUMAVALLY,LIMAVADY,BT49 0LT,RESIDENTIAL,267139,432884
DRUMAVALLY,LIMAVADY,BT49 0LT,RESIDENTIAL,267140,432923
DRUMAVALLY,LIMAVADY,BT49 0LT,RESIDENTIAL,267143,432855
DRUMAVALLY,LIMAVADY,BT49 0LT,RESIDENTIAL,267143,432929
DRUMAVALLY,LIMAVADY,BT49 0LT,RESIDENTIAL,267145,432934
DRUMAVALLY,LIMAVADY,BT49 0LT,RESIDENTIAL,267147,432879
DRUMAVALLY,LIMAVADY,BT49 0LT,RESIDENTIAL,267148,432852
DRUMAVALLY,LIMAVADY,BT49 0LT,RESIDENTIAL,267148,432940
DRUMAVALLY,LIMAVADY,BT49 0LT,RESIDENTIAL,267152,432896
DRUMAVALLY,LIMAVADY,BT49 0LT,RESIDENTIAL,267153,432876
DRUMAVALLY,LIMAVADY,BT49 0LT,RESIDENTIAL,267154,432849
DRUMAVALLY,LIMAVADY,BT49 0LT,RESIDENTIAL,267154,432958
DRUMAVALLY,LIMAVADY,BT49 0LT,RESIDENTIAL,267155,432902
DRUMAVALLY,LIMAVADY,BT49 0LT,RESIDENTIAL,267158,432907
DRUMAVALLY,LIMAVADY,BT49 0LT,RESIDENTIAL,267159,432873
DRUMAVALLY,LIMAVADY,BT49 0LT,RESIDENTIAL,267159,432955
DRUMAVALLY,LIMAVADY,BT49 0LT,RESIDENTIAL,267160,432913
DRUMAVALLY,LIMAVADY,BT49 0LT,RESIDENTIAL,267163,432918
DRUMAVALLY,LIMAVADY,BT49 0LT,RESIDENTIAL,267164,432978
DRUMAVALLY,LIMAVADY,BT49 0LT,RESIDENTIAL,267165,432871
DRUMAVALLY,LIMAVADY,BT49 0LT,RESIDENTIAL,267165,432952
DRUMAVALLY,LIMAVADY,BT49 0LT,RESIDENTIAL,267166,432924
DRUMAVALLY,LIMAVADY,BT49 0LT,RESIDENTIAL,267169,432930
DRUMAVALLY,LIMAVADY,BT49 0LT,RESIDENTIAL,267169,432975
DRUMAVALLY,LIMAVADY,BT49 0LT,RESIDENTIAL,267171,432949
SEACOAST ROAD,LIMAVADY,BT49 0LA,RESIDENTIAL,267172,432608
SEACOAST ROAD,LIMAVADY,BT49 0LA,RESIDENTIAL,267175,432617
DRUMAVALLY,LIMAVADY,BT49 0LT,RESIDENTIAL,267175,432973
DRUMAVALLY,LIMAVADY,BT49 0LT,RESIDENTIAL,267179,432945
DRUMAVALLY,LIMAVADY,BT49 0LT,RESIDENTIAL,267181,432970
DRUMAVALLY,LIMAVADY,BT49 0LT,RESIDENTIAL,267185,432942
SEACOAST ROAD,LIMAVADY,BT49 0LA,RESIDENTIAL,267188,432700
DRUMAVALLY,LIMAVADY,BT49 0LT,RESIDENTIAL,267190,432966
DRUMAVALLY,LIMAVADY,BT49 0LT,RESIDENTIAL,267191,432939
DRUMAVALLY,LIMAVADY,BT49 0LT,RESIDENTIAL,267193,432817
DRUMAVALLY,LIMAVADY,BT49 0LT,RESIDENTIAL,267195,432962
DRUMAVALLY,LIMAVADY,BT49 0LT,RESIDENTIAL,267197,432825
DRUMAVALLY,LIMAVADY,BT49 0LT,RESIDENTIAL,267197,432936
DRUMAVALLY,LIMAVADY,BT49 0LT,RESIDENTIAL,267202,432961
DRUMAVALLY,LIMAVADY,BT49 0LT,RESIDENTIAL,267203,432934
DRUMAVALLY,LIMAVADY,BT49 0LT,RESIDENTIAL,267204,432840
CARRIAGE COURT,LIMAVADY,BT49 0LU,RESIDENTIAL,267204,432986
DRUMAVALLY,LIMAVADY,BT49 0LT,RESIDENTIAL,267206,432956
DRUMAVALLY,LIMAVADY,BT49 0LT,RESIDENTIAL,267208,432849
DRUMAVALLY,LIMAVADY,BT49 0LT,RESIDENTIAL,267208,432930
SEACOAST ROAD,LIMAVADY,BT49 0LD,RESIDENTIAL,267208,433110
DRUMAVALLY,LIMAVADY,BT49 0LT,RESIDENTIAL,267211,432803
DRUMAVALLY,LIMAVADY,BT49 0LT,RESIDENTIAL,267212,432954
DRUMAVALLY,LIMAVADY,BT49 0LT,RESIDENTIAL,267218,432817
DRUMAVALLY,LIMAVADY,BT49 0LT,RESIDENTIAL,267218,432951
CARRIAGE COURT,LIMAVADY,BT49 0LU,RESIDENTIAL,267221,432979
DRUMAVALLY,LIMAVADY,BT49 0LT,RESIDENTIAL,267222,432825
DRUMAVALLY,LIMAVADY,BT49 0LT,RESIDENTIAL,267224,432881
CARRIAGE COURT,LIMAVADY,BT49 0LU,RESIDENTIAL,267228,433016
DRUMAVALLY,LIMAVADY,BT49 0LT,RESIDENTIAL,267229,432839
DRUMAVALLY,LIMAVADY,BT49 0LT,RESIDENTIAL,267230,432892
DRUMAVALLY,LIMAVADY,BT49 0LT,RESIDENTIAL,267235,432902
CARRIAGE COURT,LIMAVADY,BT49 0LU,RESIDENTIAL,267235,432973
DRUMAVALLY,LIMAVADY,BT49 0LT,RESIDENTIAL,267241,432915
SEACOAST ROAD,LIMAVADY,BT49 0LA,RESIDENTIAL,267243,431976
DRUMAVALLY,LIMAVADY,BT49 0LT,RESIDENTIAL,267244,432871
DRUMAVALLY,LIMAVADY,BT49 0LT,RESIDENTIAL,267245,432924
CARRIAGE COURT,LIMAVADY,BT49 0LU,RESIDENTIAL,267246,432966
LIMESTONE ROAD,LIMAVADY,BT49 0LB,RESIDENTIAL,267248,432748
DRUMAVALLY,LIMAVADY,BT49 0LT,RESIDENTIAL,267250,432934
DRUMAVALLY,LIMAVADY,BT49 0LT,RESIDENTIAL,267252,432886
LIMESTONE ROAD,LIMAVADY,BT49 0LB,RESIDENTIAL,267253,432748
DRUMAVALLY,LIMAVADY,BT49 0LT,RESIDENTIAL,267258,432898
CARRIAGE COURT,LIMAVADY,BT49 0LU,RESIDENTIAL,267261,432963
DRUMAVALLY,LIMAVADY,BT49 0LT,RESIDENTIAL,267264,432912
DRUMAVALLY,LIMAVADY,BT49 0LT,RESIDENTIAL,267268,432919
SEACOAST ROAD,LIMAVADY,BT49 0LA,RESIDENTIAL,267269,431986
CARRIAGE COURT,LIMAVADY,BT49 0LU,RESIDENTIAL,267269,432997
CARRIAGE COURT,LIMAVADY,BT49 0LU,RESIDENTIAL,267281,432991
SEACOAST ROAD,LIMAVADY,BT49 0LD,RESIDENTIAL,267284,433067
LIMESTONE ROAD,LIMAVADY,BT49 0LB,RESIDENTIAL,267292,432732
LIMESTONE ROAD,LIMAVADY,BT49 0LB,RESIDENTIAL,267295,432727
SEACOAST ROAD,LIMAVADY,BT49 0LD,RESIDENTIAL,267300,433175
CARRIAGE COURT,LIMAVADY,BT49 0LU,RESIDENTIAL,267301,432989
CARRIAGE COURT,LIMAVADY,BT49 0LU,RESIDENTIAL,267308,432996
CARRIAGE COURT,LIMAVADY,BT49 0LU,RESIDENTIAL,267313,433004
CARRIAGE COURT,LIMAVADY,BT49 0LU,RESIDENTIAL,267320,433008
SEACOAST ROAD,LIMAVADY,BT49 0LD,RESIDENTIAL,267337,432922
SEACOAST ROAD,LIMAVADY,BT49 0LD,UNKNOWN,267347,433047
SEACOAST ROAD,LIMAVADY,BT49 0LD,COMMERCIAL,267354,433104
SEACOAST ROAD,LIMAVADY,BT49 0LD,COMMERCIAL,267354,433104
SEACOAST ROAD,LIMAVADY,BT49 0LD,RESIDENTIAL,267361,433067
SEACOAST ROAD,LIMAVADY,BT49 0LD,RESIDENTIAL,267361,433085
SEACOAST ROAD,LIMAVADY,BT49 0LD,COMMERCIAL,267369,433125
SEACOAST ROAD,LIMAVADY,BT49 0LD,COMMERCIAL,267369,433125
SEACOAST ROAD,LIMAVADY,BT49 0LD,COMMERCIAL,267369,433125
SEACOAST ROAD,LIMAVADY,BT49 0LD,RESIDENTIAL,267409,433180
SEACOAST ROAD,LIMAVADY,BT49 0LD,RESIDENTIAL,267409,433180
SEACOAST ROAD,LIMAVADY,BT49 0LF,RESIDENTIAL,267526,434183
SEACOAST ROAD,LIMAVADY,BT49 0LD,RESIDENTIAL,267527,433399
SEACOAST ROAD,LIMAVADY,BT49 0LD,RESIDENTIAL,267531,433407
LIMESTONE ROAD,LIMAVADY,BT49 0LB,RESIDENTIAL,267565,432706
SEACOAST ROAD,LIMAVADY,BT49 0LD,RESIDENTIAL,267590,433428
DUNCRUN ROAD,LIMAVADY,BT49 0JD,RESIDENTIAL,267601,431513
DUNCRUN ROAD,LIMAVADY,BT49 0JD,RESIDENTIAL,267611,431523
SEACOAST ROAD,LIMAVADY,BT49 0LF,UNKNOWN,267614,433575
DUNCRUN ROAD,LIMAVADY,BT49 0JD,RESIDENTIAL,267628,431554
SEACOAST ROAD,LIMAVADY,BT49 0LF,RESIDENTIAL,267642,433688
SEACOAST ROAD,LIMAVADY,BT49 0LF,RESIDENTIAL,267643,433654
SEACOAST ROAD,LIMAVADY,BT49 0LF,COMMERCIAL,267653,433550
DUNCRUN ROAD,LIMAVADY,BT49 0JD,COMMERCIAL,267654,431548
LIMESTONE ROAD,LIMAVADY,BT49 0LB,RESIDENTIAL,267733,432715
LIMESTONE ROAD,LIMAVADY,BT49 0LB,RESIDENTIAL,267742,432713
LIMESTONE ROAD,LIMAVADY,BT49 0LB,RESIDENTIAL,267742,432713
DUNCRUN ROAD,LIMAVADY,BT49 0JD,RESIDENTIAL,267747,431635
LIMESTONE ROAD,LIMAVADY,BT49 0LB,RESIDENTIAL,267783,432710
LIMESTONE ROAD,LIMAVADY,BT49 0LB,RESIDENTIAL,267783,432710
LIMESTONE ROAD,LIMAVADY,BT49 0LB,RESIDENTIAL,267788,432712
CURRAGH ROAD,LIMAVADY,BT49 0LE,RESIDENTIAL,267834,433475
DUNCRUN ROAD,LIMAVADY,BT49 0JD,RESIDENTIAL,267863,431764
POINT ROAD,LIMAVADY,BT49 0LP,RESIDENTIAL,267875,434576
DUNCRUN ROAD,LIMAVADY,BT49 0JD,RESIDENTIAL,267938,431867
POINT ROAD,LIMAVADY,BT49 0LP,RESIDENTIAL,267991,434307
POINT ROAD,LIMAVADY,BT49 0LP,RESIDENTIAL,267991,435759
DUNCRUN ROAD,LIMAVADY,BT49 0JD,RESIDENTIAL,268015,431844
POINT ROAD,LIMAVADY,BT49 0LP,RESIDENTIAL,268038,434456
SEACOAST ROAD,LIMAVADY,BT49 0LW,RESIDENTIAL,268041,433899
DUNCRUN ROAD,LIMAVADY,BT49 0JD,RESIDENTIAL,268053,431908
POINT ROAD,LIMAVADY,BT49 0LP,RESIDENTIAL,268060,434530
POINT ROAD,LIMAVADY,BT49 0LP,RESIDENTIAL,268062,434621
CURRAGH ROAD,LIMAVADY,BT49 0LE,RESIDENTIAL,268096,432939
DUNCRUN ROAD,LIMAVADY,BT49 0JD,RESIDENTIAL,268153,432036
POINT ROAD,LIMAVADY,BT49 0LP,MIXED,268230,434169
POINT ROAD,LIMAVADY,BT49 0LP,MIXED,268230,434169
DUNCRUN ROAD,LIMAVADY,BT49 0JD,RESIDENTIAL,268232,432080
SEACOAST ROAD,LIMAVADY,BT49 0LW,COMMERCIAL,268280,433940
POINT ROAD,LIMAVADY,BT49 0LP,RESIDENTIAL,268343,434689
DUNCRUN ROAD,LIMAVADY,BT49 0JD,RESIDENTIAL,268363,432141
CURRAGH ROAD,LIMAVADY,BT49 0LE,RESIDENTIAL,268365,433063
CURRAGH ROAD,LIMAVADY,BT49 0LE,RESIDENTIAL,268367,433090
DUNCRUN ROAD,LIMAVADY,BT49 0JD,RESIDENTIAL,268388,432169
POINT ROAD,LIMAVADY,BT49 0LP,RESIDENTIAL,268420,435248
SEACOAST ROAD,LIMAVADY,BT49 0LW,RESIDENTIAL,268460,434009
POINT ROAD,LIMAVADY,BT49 0LP,RESIDENTIAL,268465,435938
SEACOAST ROAD,LIMAVADY,BT49 0LW,RESIDENTIAL,268467,434012
POINT ROAD,LIMAVADY,BT49 0LP,UNKNOWN,268469,435207
SEACOAST ROAD,LIMAVADY,BT49 0LW,RESIDENTIAL,268523,434020
SEACOAST ROAD,LIMAVADY,BT49 0LW,RESIDENTIAL,268528,434022
CURRAGH ROAD,LIMAVADY,BT49 0JE,RESIDENTIAL,268543,432534
DUNCRUN ROAD,LIMAVADY,BT49 0JD,RESIDENTIAL,268573,432161
SEACOAST ROAD,LIMAVADY,BT49 0LW,RESIDENTIAL,268576,434031
SEACOAST ROAD,LIMAVADY,BT49 0LW,RESIDENTIAL,268581,434032
SEACOAST ROAD,LIMAVADY,BT49 0LW,RESIDENTIAL,268614,434030
POINT ROAD,LIMAVADY,BT49 0LP,RESIDENTIAL,268624,435471
CURRAGH ROAD,LIMAVADY,BT49 0JE,RESIDENTIAL,268636,432589
SEACOAST ROAD,LIMAVADY,BT49 0LW,RESIDENTIAL,268640,433777
SEACOAST ROAD,LIMAVADY,BT49 0LW,RESIDENTIAL,268646,434041
SEACOAST ROAD,LIMAVADY,BT49 0LW,RESIDENTIAL,268654,434037
SEACOAST ROAD,LIMAVADY,BT49 0LW,RESIDENTIAL,268672,433761
SEACOAST ROAD,LIMAVADY,BT49 0LW,RESIDENTIAL,268696,434045
SEACOAST ROAD,LIMAVADY,BT49 0LW,RESIDENTIAL,268704,434046
DUNCRUN ROAD,LIMAVADY,BT49 0JF,COMMERCIAL,268708,432321
SEACOAST ROAD,LIMAVADY,BT49 0LW,RESIDENTIAL,268761,433747
DUNCRUN ROAD,LIMAVADY,BT49 0JF,RESIDENTIAL,268822,432223
DUNCRUN ROAD,LIMAVADY,BT49 0JF,RESIDENTIAL,268827,432225
POINT ROAD,LIMAVADY,BT49 0LP,RESIDENTIAL,268839,435902
POINT ROAD,LIMAVADY,BT49 0LP,RESIDENTIAL,268857,435911
DUNCRUN ROAD,LIMAVADY,BT49 0JF,RESIDENTIAL,268864,432229
SEACOAST ROAD,LIMAVADY,BT49 0LW,RESIDENTIAL,268909,433688
DUNCRUN ROAD,LIMAVADY,BT49 0JF,RESIDENTIAL,268922,432210
SEACOAST ROAD,LIMAVADY,BT49 0LW,RESIDENTIAL,268947,433701
DUNCRUN ROAD,LIMAVADY,BT49 0JF,RESIDENTIAL,268951,432242
DUNCRUN ROAD,LIMAVADY,BT49 0JF,RESIDENTIAL,268959,432243
SEACOAST ROAD,LIMAVADY,BT49 0LL,RESIDENTIAL,269293,434754
TIRCREVEN ROAD,LIMAVADY,BT49 0LN,RESIDENTIAL,269390,433888
TIRCREVEN ROAD,LIMAVADY,BT49 0LN,RESIDENTIAL,269438,433526
SEACOAST ROAD,LIMAVADY,BT49 0LL,COMMERCIAL,269440,434410
TIRCREVEN ROAD,LIMAVADY,BT49 0LN,RESIDENTIAL,269444,433530
SEACOAST ROAD,LIMAVADY,BT49 0LL,RESIDENTIAL,269449,434226
SEACOAST ROAD,LIMAVADY,BT49 0LL,RESIDENTIAL,269449,434237
SEACOAST ROAD,LIMAVADY,BT49 0LL,RESIDENTIAL,269452,434209
SEACOAST ROAD,LIMAVADY,BT49 0LL,RESIDENTIAL,269456,434202
SEACOAST ROAD,LIMAVADY,BT49 0LL,RESIDENTIAL,269470,434194
SEACOAST ROAD,LIMAVADY,BT49 0LL,RESIDENTIAL,269481,434193
TIRCREVEN ROAD,LIMAVADY,BT49 0LN,RESIDENTIAL,269488,433381
SEACOAST ROAD,LIMAVADY,BT49 0LL,RESIDENTIAL,269497,434194
SEACOAST ROAD,LIMAVADY,BT49 0LL,RESIDENTIAL,269534,434365
SEACOAST ROAD,LIMAVADY,BT49 0LL,RESIDENTIAL,269573,434769
SEACOAST ROAD,LIMAVADY,BT49 0LL,RESIDENTIAL,269575,434460
SEACOAST ROAD,LIMAVADY,BT49 0LL,RESIDENTIAL,269618,434755
SEACOAST ROAD,LIMAVADY,BT49 0LL,RESIDENTIAL,269652,434237
SEACOAST ROAD,LIMAVADY,BT49 0LL,RESIDENTIAL,269673,434339
SEACOAST ROAD,LIMAVADY,BT49 0LL,RESIDENTIAL,269681,434297
TIRCREVEN ROAD,LIMAVADY,BT49 0LN,RESIDENTIAL,269689,433270
LEIGHERY ROAD,LIMAVADY,BT49 0JG,RESIDENTIAL,269701,432310
LEIGHERY ROAD,LIMAVADY,BT49 0JG,RESIDENTIAL,269706,432298
DUNCRUN ROAD,LIMAVADY,BT49 0JQ,RESIDENTIAL,269900,432774
DUNCRUN ROAD,LIMAVADY,BT49 0JQ,RESIDENTIAL,269931,432818
DUNCRUN ROAD,LIMAVADY,BT49 0JQ,UNKNOWN,269937,432853
DUNCRUN ROAD,LIMAVADY,BT49 0JQ,RESIDENTIAL,269992,432803
TIRCREVEN ROAD,LIMAVADY,BT49 0JH,RESIDENTIAL,270002,433121
SEACOAST ROAD,LIMAVADY,BT49 0LL,RESIDENTIAL,270039,434273
SEACOAST ROAD,LIMAVADY,BT49 0LL,RESIDENTIAL,270043,434277
TIRCREVEN ROAD,LIMAVADY,BT49 0JH,UNKNOWN,270070,432921
TIRCREVEN ROAD,LIMAVADY,BT49 0JH,UNKNOWN,270074,432918
SEACOAST ROAD,LIMAVADY,BT49 0LL,RESIDENTIAL,270076,434284
SEACOAST ROAD,LIMAVADY,BT49 0LL,RESIDENTIAL,270081,434284
DUNCRUN ROAD,LIMAVADY,BT49 0JQ,RESIDENTIAL,270098,432883
SEACOAST ROAD,LIMAVADY,BT49 0LG,RESIDENTIAL,270102,435247
SEACOAST ROAD,LIMAVADY,BT49 0LL,RESIDENTIAL,270113,434289
SEACOAST ROAD,LIMAVADY,BT49 0LL,RESIDENTIAL,270118,434290
DUNCRUN ROAD,LIMAVADY,BT49 0JJ,MIXED,270285,433156
DUNCRUN ROAD,LIMAVADY,UNKNOWN,MIXED,270285,433156
DUNCRUN ROAD,LIMAVADY,UNKNOWN,MIXED,270285,433156
DUNCRUN ROAD,LIMAVADY,BT49 0JJ,RESIDENTIAL,270334,433220
SEACOAST ROAD,LIMAVADY,BT49 0LG,UNKNOWN,270376,435147
LEIGHERY ROAD,LIMAVADY,BT49 0JG,RESIDENTIAL,270404,431604
SEACOAST ROAD,LIMAVADY,BT49 0LG,RESIDENTIAL,270456,434697
SEACOAST ROAD,LIMAVADY,BT49 0LL,RESIDENTIAL,270510,434311
SEACOAST ROAD,LIMAVADY,BT49 0LL,RESIDENTIAL,270518,434311
DUNCRUN ROAD,LIMAVADY,BT49 0JJ,RESIDENTIAL,270537,433526
DUNCRUN ROAD,LIMAVADY,BT49 0JJ,RESIDENTIAL,270539,433877
DUNCRUN ROAD,LIMAVADY,BT49 0JJ,RESIDENTIAL,270564,433122
SEACOAST ROAD,LIMAVADY,BT49 0LG,RESIDENTIAL,270604,435604
DUNCRUN ROAD,LIMAVADY,BT49 0LJ,RESIDENTIAL,270678,434259
TIRCREVEN ROAD,LIMAVADY,BT49 0JH,RESIDENTIAL,270681,432646
SEACOAST ROAD,LIMAVADY,BT49 0LG,RESIDENTIAL,270713,435203
SEACOAST ROAD,LIMAVADY,BT49 0LG,RESIDENTIAL,270713,435180
DUNCRUN ROAD,LIMAVADY,BT49 0LJ,RESIDENTIAL,270727,434326
SEACOAST ROAD,LIMAVADY,BT49 0LL,RESIDENTIAL,270741,434425
DUNCRUN ROAD,LIMAVADY,BT49 0LJ,RESIDENTIAL,270744,434199
SEACOAST ROAD,LIMAVADY,BT49 0LG,RESIDENTIAL,270778,434676
SEACOAST ROAD,LIMAVADY,BT49 0LG,RESIDENTIAL,270875,434619
SEACOAST ROAD,LIMAVADY,BT49 0LG,UNKNOWN,270878,434625
SEACOAST ROAD,LIMAVADY,BT49 0LG,RESIDENTIAL,270890,434691
SEACOAST ROAD,LIMAVADY,BT49 0LG,RESIDENTIAL,270979,434714
SEACOAST ROAD,LIMAVADY,BT49 0LG,RESIDENTIAL,271031,434825
SEACOAST ROAD,LIMAVADY,BT49 0LG,RESIDENTIAL,271031,434825
BENONE AVENUE,LIMAVADY,BT49 0LQ,UNKNOWN,271042,436111
BENONE AVENUE,LIMAVADY,BT49 0LQ,UNKNOWN,271085,436241
SEACOAST ROAD,LIMAVADY,BT49 0LG,COMMERCIAL,271090,435062
SEACOAST ROAD,LIMAVADY,BT49 0LG,RESIDENTIAL,271155,435197
SEACOAST ROAD,LIMAVADY,BT49 0LG,RESIDENTIAL,271158,435205
SEACOAST ROAD,LIMAVADY,BT49 0LG,RESIDENTIAL,271162,435312
SEACOAST ROAD,LIMAVADY,BT49 0LG,RESIDENTIAL,271172,435236
SEACOAST ROAD,LIMAVADY,BT49 0LG,RESIDENTIAL,271186,435265
SEACOAST ROAD,LIMAVADY,BT49 0LG,UNKNOWN,271223,435364
SEACOAST ROAD,LIMAVADY,BT49 0LH,RESIDENTIAL,271278,435370
BENONE AVENUE,LIMAVADY,BT49 0LQ,UNKNOWN,271279,435506
BENONE AVENUE,LIMAVADY,BT49 0LQ,UNKNOWN,271283,435456
BENONE AVENUE,LIMAVADY,BT49 0LQ,UNKNOWN,271289,435486
BENONE AVENUE,LIMAVADY,BT49 0LQ,UNKNOWN,271292,435922
BENONE AVENUE,LIMAVADY,BTXX XXX,UNKNOWN,271293,435967
BENONE AVENUE,LIMAVADY,BT49 0LQ,RESIDENTIAL,271296,435421
SEACOAST ROAD,LIMAVADY,BT49 0LH,COMMERCIAL,271297,435338
BENONE AVENUE,LIMAVADY,BT49 0LQ,RESIDENTIAL,271315,435898
BENONE AVENUE,LIMAVADY,BT49 0LQ,UNKNOWN,271336,435713
SEACOAST ROAD,LIMAVADY,BT49 0LH,RESIDENTIAL,271348,435330
BENONE AVENUE,LIMAVADY,BT49 0LQ,RESIDENTIAL,271366,435548
BENONE AVENUE,LIMAVADY,BT49 0LQ,RESIDENTIAL,271367,435507
SEACOAST ROAD,LIMAVADY,BT49 0LH,RESIDENTIAL,271374,435343
BENONE AVENUE,LIMAVADY,BT49 0LQ,RESIDENTIAL,271374,435840
BENONE AVENUE,LIMAVADY,BT49 0LQ,RESIDENTIAL,271381,435573
BENONE AVENUE,LIMAVADY,BT49 0LQ,RESIDENTIAL,271395,435612
BENONE AVENUE,LIMAVADY,BT49 0LQ,COMMERCIAL,271413,435738
BENONE AVENUE,LIMAVADY,BT49 0LQ,RESIDENTIAL,271421,435817
BENONE AVENUE,LIMAVADY,BT49 0LQ,RESIDENTIAL,271430,435676
BENONE AVENUE,LIMAVADY,BT49 0LQ,RESIDENTIAL,271500,435836
BENONE AVENUE,LIMAVADY,BT49 0LQ,RESIDENTIAL,271572,435879
SEACOAST ROAD,LIMAVADY,BT49 0LH,RESIDENTIAL,271631,435428
BENONE AVENUE,LIMAVADY,BT49 0LQ,RESIDENTIAL,271649,435720
BENONE AVENUE,LIMAVADY,BT49 0LQ,RESIDENTIAL,271690,435771
BENONE AVENUE,LIMAVADY,BT49 0LQ,RESIDENTIAL,271705,435981
BENONE AVENUE,LIMAVADY,BT49 0LQ,RESIDENTIAL,271714,435888
SEACOAST ROAD,LIMAVADY,BT49 0LH,RESIDENTIAL,271722,435374
SEACOAST ROAD,LIMAVADY,BT49 0LH,UNKNOWN,271815,435384
BENONE AVENUE,LIMAVADY,BT49 0LQ,COMMERCIAL,272017,435768
SEACOAST ROAD,LIMAVADY,BT49 0LH,RESIDENTIAL,272307,435846
SEACOAST ROAD,LIMAVADY,BT49 0LH,RESIDENTIAL,272365,435311
SEACOAST ROAD,LIMAVADY,BT49 0LH,RESIDENTIAL,272454,435571
SEACOAST ROAD,LIMAVADY,BT49 0LH,RESIDENTIAL,272539,435507
SEACOAST ROAD,LIMAVADY,BT49 0LH,RESIDENTIAL,272567,435518
SEACOAST ROAD,LIMAVADY,BT49 0LH,RESIDENTIAL,273269,435800
SEACOAST ROAD,LIMAVADY,BT49 0LH,RESIDENTIAL,273319,435818
SEACOAST ROAD,LIMAVADY,BT49 0LH,RESIDENTIAL,273363,435828
SEACOAST ROAD,LIMAVADY,BT49 0LH,RESIDENTIAL,273378,435831
BISHOPS ROAD,CASTLEROCK,BT51 4SE,RESIDENTIAL,273400,435233
SEACOAST ROAD,LIMAVADY,BT49 0LH,RESIDENTIAL,273474,435854
SHORE AVENUE,LIMAVADY,BT49 9EE,RESIDENTIAL,263344,427822
SHORE AVENUE,LIMAVADY,BT49 9EE,RESIDENTIAL,263464,427594
SHORE AVENUE,LIMAVADY,BT49 9EE,RESIDENTIAL,263482,427728
CARSE ROAD,LIMAVADY,BT49 9DX,RESIDENTIAL,263501,424878
SHORE AVENUE,LIMAVADY,BT49 9EE,RESIDENTIAL,263502,427827
SHORE AVENUE,LIMAVADY,BT49 9EE,RESIDENTIAL,263546,427015
SHORE AVENUE,LIMAVADY,BT49 9EE,RESIDENTIAL,263549,427097
SHORE AVENUE,LIMAVADY,BT49 9EE,RESIDENTIAL,263553,427090
SHORE AVENUE,LIMAVADY,BT49 9EE,RESIDENTIAL,263561,427073
SHORE AVENUE,LIMAVADY,BT49 9EE,RESIDENTIAL,263564,427066
SHORE AVENUE,LIMAVADY,BT49 9EE,RESIDENTIAL,263571,427048
SHORE AVENUE,LIMAVADY,BT49 9EE,RESIDENTIAL,263575,427042
CARROWCLARE ROAD,LIMAVADY,BT49 9EB,RESIDENTIAL,263595,426954
CARROWCLARE ROAD,LIMAVADY,BT49 9EB,RESIDENTIAL,263613,427066
CARROWCLARE ROAD,LIMAVADY,BT49 9EB,RESIDENTIAL,263615,427074
CARROWCLARE ROAD,LIMAVADY,BT49 9EB,RESIDENTIAL,263617,427082
CARROWCLARE ROAD,LIMAVADY,BT49 9EB,RESIDENTIAL,263619,427089
CARROWCLARE ROAD,LIMAVADY,BT49 9EB,RESIDENTIAL,263621,426931
CARROWCLARE ROAD,LIMAVADY,BT49 9EB,RESIDENTIAL,263623,426980
CARROWCLARE ROAD,LIMAVADY,BT49 9EB,RESIDENTIAL,263625,426923
CARROWCLARE ROAD,LIMAVADY,BT49 9EB,RESIDENTIAL,263636,426886
CARROWCLARE ROAD,LIMAVADY,BT49 9EB,RESIDENTIAL,263638,426853
CARROWCLARE ROAD,LIMAVADY,BT49 9EB,RESIDENTIAL,263638,426879
CARROWCLARE ROAD,LIMAVADY,BT49 9EB,RESIDENTIAL,263638,427008
CARROWCLARE ROAD,LIMAVADY,BT49 9EB,RESIDENTIAL,263639,427012
CARROWCLARE ROAD,LIMAVADY,BT49 9EB,RESIDENTIAL,263641,426845
RAILWAY COTTAGES,LIMAVADY,BT49 9NU,RESIDENTIAL,263646,427049
RAILWAY COTTAGES,LIMAVADY,BT49 9NU,RESIDENTIAL,263657,427082
RAILWAY COTTAGES,LIMAVADY,BT49 9NU,RESIDENTIAL,263667,427044
RAILWAY COTTAGES,LIMAVADY,BT49 9NU,RESIDENTIAL,263676,427078
RAILWAY COTTAGES,LIMAVADY,BT49 9NU,RESIDENTIAL,263680,427038
RAILWAY COTTAGES,LIMAVADY,BT49 9NU,RESIDENTIAL,263697,427076
RAILWAY COTTAGES,LIMAVADY,BT49 9NU,RESIDENTIAL,263707,427063
CARROWCLARE ROAD,LIMAVADY,BT49 9EB,RESIDENTIAL,263724,427248
CARROWCLARE ROAD,LIMAVADY,BT49 9EB,COMMERCIAL,263730,427300
CARROWCLARE ROAD,LIMAVADY,BT49 9EB,COMMERCIAL,263730,427300
CARROWCLARE ROAD,LIMAVADY,BT49 9EB,RESIDENTIAL,263734,427318
CARROWCLARE ROAD,LIMAVADY,BT49 9EB,RESIDENTIAL,263738,427324
CARROWCLARE ROAD,LIMAVADY,BT49 9EA,RESIDENTIAL,263753,426311
CARROWCLARE ROAD,LIMAVADY,BT49 9EB,RESIDENTIAL,263754,426588
LOMOND ROAD,LIMAVADY,BT49 9DZ,RESIDENTIAL,263776,426559
CARROWCLARE ROAD,LIMAVADY,BT49 9EA,RESIDENTIAL,263803,426476
LOMOND ROAD,LIMAVADY,BT49 9DZ,RESIDENTIAL,263803,426570
CARROWCLARE ROAD,LIMAVADY,BT49 9EB,RESIDENTIAL,263822,427539
LOMOND ROAD,LIMAVADY,BT49 9DZ,RESIDENTIAL,263833,426507
LOMOND ROAD,LIMAVADY,BT49 9DZ,RESIDENTIAL,263852,426580
LOMOND ROAD,LIMAVADY,BT49 9DZ,RESIDENTIAL,263870,426505
CARROWCLARE ROAD,LIMAVADY,BT49 9EA,RESIDENTIAL,263893,426299
LOMOND ROAD,LIMAVADY,BT49 9DZ,RESIDENTIAL,263904,426508
CARROWCLARE ROAD,LIMAVADY,BT49 9EB,COMMERCIAL,263922,427609
CARROWCLARE ROAD,LIMAVADY,BT49 9EB,COMMERCIAL,263922,427609
CARROWCLARE ROAD,LIMAVADY,BT49 9EB,RESIDENTIAL,263922,427637
CARROWCLARE ROAD,LIMAVADY,BT49 9EB,RESIDENTIAL,263925,427822
CARROWCLARE ROAD,LIMAVADY,BT49 9EB,RESIDENTIAL,263928,427647
CARROWCLARE ROAD,LIMAVADY,BT49 9EA,RESIDENTIAL,263932,425899
CARROWCLARE ROAD,LIMAVADY,BT49 9EA,RESIDENTIAL,263958,426104
CARROWCLARE ROAD,LIMAVADY,BT49 9EB,RESIDENTIAL,264012,427825
CARROWCLARE ROAD,LIMAVADY,BT49 9EB,RESIDENTIAL,264064,427848
CARROWCLARE ROAD,LIMAVADY,BT49 9EB,RESIDENTIAL,264089,427919
LOMOND ROAD,LIMAVADY,BT49 9DZ,RESIDENTIAL,264113,426540
CARROWCLARE ROAD,LIMAVADY,BT49 9EB,RESIDENTIAL,264120,427954
LOMOND ROAD,LIMAVADY,BT49 9DZ,RESIDENTIAL,264133,426532
LOMOND ROAD,LIMAVADY,BT49 9DZ,RESIDENTIAL,264143,426535
LOMOND ROAD,LIMAVADY,BT49 9DZ,RESIDENTIAL,264148,426537
CARROWCLARE ROAD,LIMAVADY,BT49 9EB,RESIDENTIAL,264153,428063
CARROWCLARE ROAD,LIMAVADY,BT49 9EB,RESIDENTIAL,264244,428218
CARROWCLARE ROAD,LIMAVADY,BT49 9EB,RESIDENTIAL,264247,428149
CARROWCLARE ROAD,LIMAVADY,BT49 9EB,RESIDENTIAL,264268,428205
CARROWCLARE ROAD,LIMAVADY,BT49 9EB,RESIDENTIAL,264328,428335
CARROWCLARE ROAD,LIMAVADY,BT49 9EB,RESIDENTIAL,264439,428403
CARROWCLARE ROAD,LIMAVADY,BT49 9EB,RESIDENTIAL,264603,428628
CARROWCLARE ROAD,LIMAVADY,BT49 9EB,RESIDENTIAL,264645,428688
BROIGHTER ROAD,LIMAVADY,BT49 9DY,UNKNOWN,264740,425679
LOMOND ROAD,LIMAVADY,BT49 9DZ,RESIDENTIAL,264839,426328
BROIGHTER ROAD,LIMAVADY,BT49 9DY,RESIDENTIAL,264852,425476
BROIGHTER ROAD,LIMAVADY,BT49 9DY,RESIDENTIAL,264950,425845
SCOTCHTOWN ROAD,LIMAVADY,BT49 0JA,RESIDENTIAL,265085,430253
LOMOND ROAD,LIMAVADY,BT49 9DZ,UNKNOWN,265162,426137
LOMOND ROAD,LIMAVADY,BT49 9DZ,RESIDENTIAL,265181,426166
LOMOND ROAD,LIMAVADY,BT49 9DZ,RESIDENTIAL,265258,426146
SCOTCHTOWN ROAD,LIMAVADY,BT49 0JA,RESIDENTIAL,265385,430285
SEACOAST ROAD,LIMAVADY,BT49 0JY,RESIDENTIAL,265667,431004
SCOTCHTOWN ROAD,LIMAVADY,BT49 0JA,RESIDENTIAL,265905,430292
SCOTCHTOWN ROAD,LIMAVADY,BT49 0JA,RESIDENTIAL,265974,430310
CARROWCLARE ROAD,LIMAVADY,BT49 9ED,UNKNOWN,266017,427892
CARROWCLARE ROAD,LIMAVADY,BT49 9ED,RESIDENTIAL,266023,427882
BURNALLY ROAD,LIMAVADY,BT49 9DP,UNKNOWN,266078,425400
SEACOAST ROAD,LIMAVADY,BT49 9EG,COMMERCIAL,266086,426103
SEACOAST ROAD,LIMAVADY,BT49 9EG,RESIDENTIAL,266097,425693
SEACOAST ROAD,LIMAVADY,BT49 9EG,RESIDENTIAL,266099,427165
SEACOAST ROAD,LIMAVADY,BT49 9EG,RESIDENTIAL,266103,427491
SEACOAST ROAD,LIMAVADY,BT49 9EG,RESIDENTIAL,266110,425926
SEACOAST ROAD,LIMAVADY,BT49 9EG,RESIDENTIAL,266110,427632
SEACOAST ROAD,LIMAVADY,BT49 9DW,RESIDENTIAL,266111,425425
CHERRYVALE PARK,LIMAVADY,BT49 9AH,RESIDENTIAL,266111,425996
SEACOAST ROAD,LIMAVADY,BT49 9EG,RESIDENTIAL,266113,426021
SEACOAST ROAD,LIMAVADY,BT49 9EG,RESIDENTIAL,266113,426040
SEACOAST ROAD,LIMAVADY,BT49 9EG,RESIDENTIAL,266119,427471
SEACOAST ROAD,LIMAVADY,BT49 9EG,COMMERCIAL,266133,426112
CARROWCLARE ROAD,LIMAVADY,BT49 9ED,RESIDENTIAL,266137,427836
SEACOAST ROAD,LIMAVADY,BT49 9EG,RESIDENTIAL,266144,426493
SEACOAST ROAD,LIMAVADY,BT49 9EG,RESIDENTIAL,266148,427467
SEACOAST ROAD,LIMAVADY,BT49 9EG,RESIDENTIAL,266151,427019
SEACOAST ROAD,LIMAVADY,BT49 9EG,RESIDENTIAL,266152,426529
SEACOAST ROAD,LIMAVADY,BT49 9EG,RESIDENTIAL,266152,427461
SEACOAST ROAD,LIMAVADY,BT49 9EG,RESIDENTIAL,266155,426550
SEACOAST ROAD,LIMAVADY,BT49 9EG,RESIDENTIAL,266165,427438
SEACOAST ROAD,LIMAVADY,BT49 9EG,RESIDENTIAL,266169,427431
SEACOAST ROAD,LIMAVADY,BT49 9EG,RESIDENTIAL,266203,427450
LOMOND PARK,LIMAVADY,BT49 9EQ,RESIDENTIAL,266176,426007
LOMOND PARK,LIMAVADY,BT49 9EQ,RESIDENTIAL,266176,426016
LOMOND PARK,LIMAVADY,BT49 9EQ,RESIDENTIAL,266177,426025
LOMOND PARK,LIMAVADY,BT49 9EQ,RESIDENTIAL,266177,426043
LOMOND PARK,LIMAVADY,BT49 9EQ,RESIDENTIAL,266178,426037
LOMOND PARK,LIMAVADY,BT49 9EQ,RESIDENTIAL,266178,426049
LOMOND PARK,LIMAVADY,BT49 9EQ,RESIDENTIAL,266178,426055
LOMOND PARK,LIMAVADY,BT49 9EQ,RESIDENTIAL,266179,426061
LOMOND PARK,LIMAVADY,BT49 9EQ,RESIDENTIAL,266184,426090
LOMOND PARK,LIMAVADY,BT49 9EQ,RESIDENTIAL,266185,426072
LOMOND PARK,LIMAVADY,BT49 9EQ,RESIDENTIAL,266185,426078
LOMOND PARK,LIMAVADY,BT49 9EQ,RESIDENTIAL,266185,426084
SEACOAST ROAD,LIMAVADY,BT49 9EG,RESIDENTIAL,266187,427359
SEACOAST ROAD,LIMAVADY,BT49 9EG,RESIDENTIAL,266187,427359
SEACOAST ROAD,LIMAVADY,BT49 9EG,RESIDENTIAL,266187,427389
SEACOAST ROAD,LIMAVADY,BT49 9EG,RESIDENTIAL,266190,427380
SEACOAST ROAD,LIMAVADY,BT49 9DW,RESIDENTIAL,266206,425248
SEACOAST ROAD,LIMAVADY,BT49 9DW,RESIDENTIAL,266211,425199
SEACOAST ROAD,LIMAVADY,BT49 9EG,RESIDENTIAL,266221,426224
SEACOAST ROAD,LIMAVADY,BT49 9EG,RESIDENTIAL,266221,427040
SEACOAST ROAD,LIMAVADY,BT49 9EG,RESIDENTIAL,266238,426559
SEACOAST ROAD,LIMAVADY,BT49 9DW,RESIDENTIAL,266241,425153
SEACOAST ROAD,LIMAVADY,BT49 9EG,RESIDENTIAL,266241,426594
SEACOAST ROAD,LIMAVADY,BT49 9DW,RESIDENTIAL,266242,425103
SEACOAST ROAD,LIMAVADY,BT49 9EG,RESIDENTIAL,266242,427078
SEACOAST ROAD,LIMAVADY,BT49 9EG,RESIDENTIAL,266244,427296
SEACOAST ROAD,LIMAVADY,BT49 9DW,RESIDENTIAL,266249,425078
SEACOAST ROAD,LIMAVADY,BT49 9EG,RESIDENTIAL,266249,427342
SEACOAST ROAD,LIMAVADY,BT49 9EG,RESIDENTIAL,266252,426702
SEACOAST ROAD,LIMAVADY,BT49 9DW,RESIDENTIAL,266257,425053
SCOTCHTOWN ROAD,LIMAVADY,BT49 0JA,RESIDENTIAL,266289,430475
SCOTCHTOWN ROAD,LIMAVADY,BT49 0JA,RESIDENTIAL,266294,430347
SCOTCHTOWN ROAD,LIMAVADY,BT49 0JA,RESIDENTIAL,266295,430612
SCOTCHTOWN ROAD,LIMAVADY,BT49 0JA,RESIDENTIAL,266340,430146
SEACOAST ROAD,LIMAVADY,BT49 9DW,COMMERCIAL,266341,424967
SEACOAST ROAD,LIMAVADY,BT49 9EG,RESIDENTIAL,266341,427039
SCOTCHTOWN ROAD,LIMAVADY,BT49 0JA,UNKNOWN,266343,430140
SEACOAST ROAD,LIMAVADY,BT49 0JY,RESIDENTIAL,266369,430856
SEACOAST ROAD,LIMAVADY,BT49 0HZ,RESIDENTIAL,266391,429886
SCOTCHTOWN ROAD,LIMAVADY,BT49 0JA,UNKNOWN,266404,429977
SEACOAST ROAD,LIMAVADY,BT49 9EF,RESIDENTIAL,266417,427864
SCOTCHTOWN ROAD,LIMAVADY,BT49 0JA,RESIDENTIAL,266420,430470
SCOTCHTOWN ROAD,LIMAVADY,BT49 0JA,RESIDENTIAL,266460,430473
SEACOAST ROAD,LIMAVADY,BT49 9DW,RESIDENTIAL,266464,425006
SEACOAST ROAD,LIMAVADY,BT49 9DW,RESIDENTIAL,266557,424904
SCOTCHTOWN ROAD,LIMAVADY,BT49 0JA,RESIDENTIAL,266578,430535
SCOTCHTOWN ROAD,LIMAVADY,BT49 0JA,RESIDENTIAL,266588,430663
SEACOAST ROAD,LIMAVADY,BT49 9EF,RESIDENTIAL,266593,427869
SEACOAST ROAD,LIMAVADY,BT49 0JY,RESIDENTIAL,266599,430884
SCOTCHTOWN ROAD,LIMAVADY,BT49 0JA,RESIDENTIAL,266618,430596
SEACOAST ROAD,LIMAVADY,BT49 0JY,RESIDENTIAL,266716,430915
SEACOAST ROAD,LIMAVADY,BT49 9DW,RESIDENTIAL,266727,424891
SEACOAST ROAD,LIMAVADY,BT49 0JB,RESIDENTIAL,266745,430617
SEACOAST ROAD,LIMAVADY,BT49 9EF,RESIDENTIAL,266746,427985
SEACOAST ROAD,LIMAVADY,BT49 0JB,COMMERCIAL,266806,430541
DUNCRUN ROAD,LIMAVADY,BT49 0JD,RESIDENTIAL,266876,430702
SEACOAST ROAD,LIMAVADY,BT49 9EF,RESIDENTIAL,266886,428393
SEACOAST ROAD,LIMAVADY,BT49 9EF,RESIDENTIAL,266891,428416
SEACOAST ROAD,LIMAVADY,BT49 0HZ,RESIDENTIAL,266901,430166
SEACOAST ROAD,LIMAVADY,BT49 9EF,RESIDENTIAL,266983,428621
SEACOAST ROAD,LIMAVADY,BT49 0HZ,COMMERCIAL,267027,429939
DOWLAND ROAD,LIMAVADY,BT49 0HR,RESIDENTIAL,267029,425935
SEACOAST ROAD,LIMAVADY,BT49 0HZ,RESIDENTIAL,267029,429950
SEACOAST ROAD,LIMAVADY,BT49 0JX,RESIDENTIAL,267034,430434
SEACOAST ROAD,LIMAVADY,BT49 9EF,RESIDENTIAL,267036,429592
SEACOAST ROAD,LIMAVADY,BT49 9EF,RESIDENTIAL,267045,429091
DUNCRUN ROAD,LIMAVADY,BT49 0JD,RESIDENTIAL,267048,430804
SEACOAST ROAD,LIMAVADY,BT49 0HZ,RESIDENTIAL,267058,430015
SEACOAST ROAD,LIMAVADY,BT49 0HZ,RESIDENTIAL,267058,430015
DUNCRUN ROAD,LIMAVADY,BT49 0JD,RESIDENTIAL,267093,430830
DUNCRUN ROAD,LIMAVADY,BT49 0JD,RESIDENTIAL,267100,430827
SEACOAST ROAD,LIMAVADY,BT49 9EF,RESIDENTIAL,267117,428825
DUNCRUN ROAD,LIMAVADY,BT49 0JD,RESIDENTIAL,267162,431036
DUNCRUN ROAD,LIMAVADY,BT49 0JD,RESIDENTIAL,267176,431057
DOWLAND ROAD,LIMAVADY,BT49 0HR,COMMERCIAL,267182,425366
DUNCRUN ROAD,LIMAVADY,BT49 0JD,RESIDENTIAL,267186,431072
DUNCRUN ROAD,LIMAVADY,BT49 0JD,RESIDENTIAL,267197,431089
DOWLAND ROAD,LIMAVADY,BT49 0HR,RESIDENTIAL,267208,425571
DUNCRUN ROAD,LIMAVADY,BTXX XXX,UNKNOWN,267226,431125
DOWLAND ROAD,LIMAVADY,BT49 0HR,RESIDENTIAL,267231,425818
SEACOAST ROAD,LIMAVADY,BT49 9EF,RESIDENTIAL,267306,429073
DOWLAND PARK,LIMAVADY,BT49 0EJ,RESIDENTIAL,267364,425236
DOWLAND ROAD,LIMAVADY,BT49 0HR,COMMERCIAL,267370,425283
DOWLAND PARK,LIMAVADY,BT49 0EJ,RESIDENTIAL,267372,425219
DOWLAND PARK,LIMAVADY,BT49 0EJ,RESIDENTIAL,267378,425196
DOWLAND PARK,LIMAVADY,BT49 0EJ,RESIDENTIAL,267383,425168
DOWLAND ROAD,LIMAVADY,BT49 0HR,RESIDENTIAL,267391,425248
DOWLAND ROAD,LIMAVADY,BT49 0HR,RESIDENTIAL,267403,425222
DOWLAND ROAD,LIMAVADY,BT49 0HR,RESIDENTIAL,267421,425201
DOWLAND ROAD,LIMAVADY,BT49 0HR,RESIDENTIAL,267439,425082
DOWLAND ROAD,LIMAVADY,BT49 0HT,RESIDENTIAL,267443,426679
DOWLAND ROAD,LIMAVADY,BT49 0HT,RESIDENTIAL,267446,426685
DOWLAND ROAD,LIMAVADY,BT49 0HT,RESIDENTIAL,267471,426701
DOWLAND ROAD,LIMAVADY,BT49 0HT,RESIDENTIAL,267472,426706
DOWLAND ROAD,LIMAVADY,BT49 0HT,RESIDENTIAL,267487,426724
DOWLAND ROAD,LIMAVADY,BT49 0HT,RESIDENTIAL,267489,426729
DOWLAND ROAD,LIMAVADY,BT49 0HT,RESIDENTIAL,267503,426749
DOWLAND ROAD,LIMAVADY,BT49 0HT,RESIDENTIAL,267504,426757
DOWLAND ROAD,LIMAVADY,BT49 0HT,RESIDENTIAL,267516,426776
DOWLAND ROAD,LIMAVADY,BT49 0HT,RESIDENTIAL,267520,426782
DOWLAND ROAD,LIMAVADY,BT49 0HT,RESIDENTIAL,267613,426991
DOWLAND ROAD,LIMAVADY,BT49 0HR,UNKNOWN,267630,425363
DOWLAND ROAD,LIMAVADY,BT49 0HR,RESIDENTIAL,267646,424958
DOWLAND ROAD,LIMAVADY,BT49 0HR,UNKNOWN,267646,425040
DOWLAND ROAD,LIMAVADY,BT49 0HT,RESIDENTIAL,267675,427069
AGHANLOO ROAD,LIMAVADY,BT49 0HY,RESIDENTIAL,267677,429376
DOWLAND ROAD,LIMAVADY,BT49 0HT,UNKNOWN,267757,427073
AGHANLOO ROAD,LIMAVADY,BT49 0HY,RESIDENTIAL,267785,428996
GRANNAGH PARK,LIMAVADY,BT49 0JR,RESIDENTIAL,267851,425116
AGHANLOO ROAD,LIMAVADY,BT49 0HX,RESIDENTIAL,267853,426689
GRANNAGH PARK,LIMAVADY,BT49 0JR,RESIDENTIAL,267855,425138
GRANNAGH PARK,LIMAVADY,BT49 0JR,RESIDENTIAL,267855,425148
AGHANLOO ROAD,LIMAVADY,BT49 0HX,RESIDENTIAL,267862,426668
GRANNAGH PARK,LIMAVADY,BT49 0JR,RESIDENTIAL,267866,425117
AGHANLOO ROAD,LIMAVADY,BT49 0HY,RESIDENTIAL,267868,429416
AGHANLOO ROAD,LIMAVADY,BT49 0HY,UNKNOWN,267870,428432
GRANNAGH PARK,LIMAVADY,BT49 0JR,RESIDENTIAL,267876,425179
AGHANLOO ROAD,LIMAVADY,BT49 0HY,RESIDENTIAL,267881,428071
AGHANLOO ROAD,LIMAVADY,BT49 0HY,UNKNOWN,267881,428378
AGHANLOO ROAD,LIMAVADY,BT49 0HY,COMMERCIAL,267882,428365
AGHANLOO ROAD,LIMAVADY,BT49 0HY,COMMERCIAL,267882,428365
GRANNAGH PARK,LIMAVADY,BT49 0JR,RESIDENTIAL,267887,425180
AGHANLOO ROAD,LIMAVADY,BT49 0HY,RESIDENTIAL,267890,428583
GRANNAGH PARK,LIMAVADY,BT49 0JR,RESIDENTIAL,267894,425088
GRANNAGH PARK,LIMAVADY,BT49 0JR,RESIDENTIAL,267894,425116
GRANNAGH PARK,LIMAVADY,BT49 0JR,RESIDENTIAL,267894,425126
GRANNAGH PARK,LIMAVADY,BT49 0JR,RESIDENTIAL,267895,425099
GRANNAGH PARK,LIMAVADY,BT49 0JR,RESIDENTIAL,267896,425143
AGHANLOO ROAD,LIMAVADY,BT49 0HY,RESIDENTIAL,267896,428276
AGHANLOO ROAD,LIMAVADY,BT49 0HY,RESIDENTIAL,267896,428282
GRANNAGH PARK,LIMAVADY,BT49 0JR,RESIDENTIAL,267897,425153
LILAC AVENUE,LIMAVADY,BT49 0HS,RESIDENTIAL,267921,425130
LILAC AVENUE,LIMAVADY,BT49 0HS,RESIDENTIAL,267924,425124
LILAC AVENUE,LIMAVADY,BT49 0HS,RESIDENTIAL,267924,425141
AGHANLOO ROAD,LIMAVADY,BT49 0HY,RESIDENTIAL,267925,429089
AGHANLOO ROAD,LIMAVADY,BT49 0HX,UNKNOWN,267926,426613
LILAC AVENUE,LIMAVADY,BT49 0HS,RESIDENTIAL,267927,425068
LILAC AVENUE,LIMAVADY,BT49 0HS,RESIDENTIAL,267928,425118
DOWLAND ROAD,LIMAVADY,BT49 0HR,RESIDENTIAL,267928,425188
LILAC AVENUE,LIMAVADY,BT49 0HS,RESIDENTIAL,267929,425145
LILAC AVENUE,LIMAVADY,BT49 0HS,RESIDENTIAL,267931,425112
AGHANLOO ROAD,LIMAVADY,BT49 0HY,RESIDENTIAL,267933,427567
LILAC AVENUE,LIMAVADY,BT49 0HS,RESIDENTIAL,267934,425106
LILAC AVENUE,LIMAVADY,BT49 0HS,RESIDENTIAL,267935,425148
LILAC AVENUE,LIMAVADY,BT49 0HS,RESIDENTIAL,267936,425063
LILAC AVENUE,LIMAVADY,BT49 0HS,RESIDENTIAL,267937,425099
AGHANLOO ROAD,LIMAVADY,BT49 0HY,COMMERCIAL,267939,428745
LILAC AVENUE,LIMAVADY,BT49 0HS,RESIDENTIAL,267940,425094
LILAC AVENUE,LIMAVADY,BT49 0HS,RESIDENTIAL,267940,425152
LILAC AVENUE,LIMAVADY,BT49 0HS,RESIDENTIAL,267943,425088
AGHANLOO ROAD,LIMAVADY,BT49 0HY,RESIDENTIAL,267943,427817
LILAC AVENUE,LIMAVADY,BT49 0HS,RESIDENTIAL,267946,425082
LILAC AVENUE,LIMAVADY,BT49 0HS,RESIDENTIAL,267950,425067
LILAC AVENUE,LIMAVADY,BT49 0HS,RESIDENTIAL,267950,425156
THE LONGLANDS,LIMAVADY,BT49 0LX,RESIDENTIAL,267950,428494
AGHANLOO ROAD,LIMAVADY,BT49 0HY,COMMERCIAL,267954,427521
LILAC AVENUE,LIMAVADY,BT49 0HS,RESIDENTIAL,267956,425155
AGHANLOO ROAD,LIMAVADY,BT49 0HY,RESIDENTIAL,267960,427713
LILAC AVENUE,LIMAVADY,BT49 0HS,RESIDENTIAL,267963,425154
LILAC AVENUE,LIMAVADY,BT49 0HS,RESIDENTIAL,267963,425154
LILAC AVENUE,LIMAVADY,BT49 0HS,RESIDENTIAL,267963,425154
LILAC AVENUE,LIMAVADY,BT49 0HS,RESIDENTIAL,267963,425154
LILAC AVENUE,LIMAVADY,BT49 0HS,RESIDENTIAL,267963,425154
LILAC AVENUE,LIMAVADY,BT49 0HS,RESIDENTIAL,267963,425154
LILAC AVENUE,LIMAVADY,BT49 0HS,RESIDENTIAL,267963,425154
THE LONGLANDS,LIMAVADY,BT49 0LX,RESIDENTIAL,267964,428431
AGHANLOO ROAD,LIMAVADY,BT49 0HY,RESIDENTIAL,267968,428391
LILAC AVENUE,LIMAVADY,BT49 0HS,RESIDENTIAL,267979,425060
LILAC AVENUE,LIMAVADY,BT49 0HS,RESIDENTIAL,267980,425041
LILAC AVENUE,LIMAVADY,BT49 0HS,RESIDENTIAL,267988,425092
THE LONGLANDS,LIMAVADY,BT49 0LX,RESIDENTIAL,267988,428501
LILAC AVENUE,LIMAVADY,BT49 0HS,RESIDENTIAL,267989,425036
DOWLAND ROAD,LIMAVADY,BT49 0HR,UNKNOWN,267989,425245
LILAC AVENUE,LIMAVADY,BT49 0HS,RESIDENTIAL,267990,425099
LILAC AVENUE,LIMAVADY,BT49 0HS,RESIDENTIAL,267993,425105
LILAC AVENUE,LIMAVADY,BT49 0JU,RESIDENTIAL,267996,425060
LILAC AVENUE,LIMAVADY,BT49 0HS,RESIDENTIAL,267997,425110
AGHANLOO ROAD,LIMAVADY,BT49 0HY,RESIDENTIAL,267999,427664
LILAC AVENUE,LIMAVADY,BT49 0HS,RESIDENTIAL,268000,425031
LILAC AVENUE,LIMAVADY,BT49 0JU,RESIDENTIAL,268002,425056
LILAC AVENUE,LIMAVADY,BT49 0HS,RESIDENTIAL,268006,425120
LILAC AVENUE,LIMAVADY,BT49 0HS,RESIDENTIAL,268006,425120
LILAC AVENUE,LIMAVADY,BT49 0HS,RESIDENTIAL,268006,425120
LILAC AVENUE,LIMAVADY,BT49 0HS,RESIDENTIAL,268006,425120
LILAC AVENUE,LIMAVADY,BT49 0HS,RESIDENTIAL,268009,425026
LILAC AVENUE,LIMAVADY,BT49 0JU,RESIDENTIAL,268009,425053
LILAC AVENUE,LIMAVADY,BT49 0HS,RESIDENTIAL,268009,425126
LILAC AVENUE,LIMAVADY,BT49 0HS,RESIDENTIAL,268013,425131
LILAC AVENUE,LIMAVADY,BT49 0JU,RESIDENTIAL,268014,425080
LILAC AVENUE,LIMAVADY,BT49 0JU,RESIDENTIAL,268015,425050
LILAC AVENUE,LIMAVADY,BT49 0HS,RESIDENTIAL,268015,425136
LILAC AVENUE,LIMAVADY,BT49 0HS,RESIDENTIAL,268017,425142
LILAC AVENUE,LIMAVADY,BT49 0JU,RESIDENTIAL,268019,425077
LILAC AVENUE,LIMAVADY,BT49 0JU,RESIDENTIAL,268020,425048
LILAC AVENUE,LIMAVADY,BT49 0HS,RESIDENTIAL,268020,425146
LILAC AVENUE,LIMAVADY,BT49 0HS,RESIDENTIAL,268024,425020
LILAC AVENUE,LIMAVADY,BT49 0JU,RESIDENTIAL,268026,425044
LILAC AVENUE,LIMAVADY,BT49 0JU,RESIDENTIAL,268032,425076
AGHANLOO ROAD,LIMAVADY,BT49 0HY,RESIDENTIAL,268032,427543
LILAC AVENUE,LIMAVADY,BT49 0HS,RESIDENTIAL,268033,425016
LILAC AVENUE,LIMAVADY,BT49 0JU,RESIDENTIAL,268033,425041
LILAC AVENUE,LIMAVADY,BT49 0JU,RESIDENTIAL,268035,425082
LILAC AVENUE,LIMAVADY,BT49 0HS,RESIDENTIAL,268036,425140
LILAC AVENUE,LIMAVADY,BT49 0JU,RESIDENTIAL,268038,425039
LILAC AVENUE,LIMAVADY,BT49 0HS,RESIDENTIAL,268041,425136
LILAC AVENUE,LIMAVADY,BT49 0JU,RESIDENTIAL,268043,425098
LILAC AVENUE,LIMAVADY,BT49 0JU,RESIDENTIAL,268044,425035
LILAC AVENUE,LIMAVADY,BT49 0HS,RESIDENTIAL,268046,425134
LILAC AVENUE,LIMAVADY,BT49 0JU,RESIDENTIAL,268047,425103
LILAC AVENUE,LIMAVADY,BT49 0JU,RESIDENTIAL,268049,425108
LILAC AVENUE,LIMAVADY,BT49 0HS,RESIDENTIAL,268050,425010
LILAC AVENUE,LIMAVADY,BT49 0JU,RESIDENTIAL,268051,425114
LILAC AVENUE,LIMAVADY,BT49 0JU,RESIDENTIAL,268052,425060
LILAC AVENUE,LIMAVADY,BT49 0HS,RESIDENTIAL,268052,425131
LILAC AVENUE,LIMAVADY,BT49 0HS,RESIDENTIAL,268057,425022
LILAC AVENUE,LIMAVADY,BT49 0JU,RESIDENTIAL,268058,425057
LILAC AVENUE,LIMAVADY,BT49 0JU,RESIDENTIAL,268064,425085
LILAC AVENUE,LIMAVADY,BT49 0JU,RESIDENTIAL,268069,425082
LILAC AVENUE,LIMAVADY,BT49 0JU,RESIDENTIAL,268074,425048
LILAC AVENUE,LIMAVADY,BT49 0JU,RESIDENTIAL,268074,425080
LILAC AVENUE,LIMAVADY,BT49 0HS,RESIDENTIAL,268075,424995
LILAC AVENUE,LIMAVADY,BT49 0JU,RESIDENTIAL,268079,425077
LILAC AVENUE,LIMAVADY,BT49 0HS,RESIDENTIAL,268082,425008
LILAC AVENUE,LIMAVADY,BT49 0JU,RESIDENTIAL,268085,425075
LILAC AVENUE,LIMAVADY,BT49 0JU,RESIDENTIAL,268086,425044
LILAC AVENUE,LIMAVADY,BT49 0JU,RESIDENTIAL,268090,425071
LILAC AVENUE,LIMAVADY,BT49 0HS,RESIDENTIAL,268094,424983
LILAC AVENUE,LIMAVADY,BT49 0JU,RESIDENTIAL,268095,425069
DOWLAND ROAD,LIMAVADY,BT49 0HR,UNKNOWN,268096,424938
DOWLAND ROAD,LIMAVADY,BT49 0HR,UNKNOWN,268096,424938
LILAC AVENUE,LIMAVADY,BT49 0JU,RESIDENTIAL,268101,425066
LILAC AVENUE,LIMAVADY,BT49 0HS,RESIDENTIAL,268105,424979
AGHANLOO ROAD,LIMAVADY,BT49 0HY,RESIDENTIAL,268115,427554
AGHANLOO ROAD,LIMAVADY,BT49 0HY,UNKNOWN,268115,428407
AGHANLOO ROAD,LIMAVADY,BT49 0HX,UNKNOWN,268161,425257
AGHANLOO ROAD,LIMAVADY,BT49 0HX,RESIDENTIAL,268201,425905
DOWLAND ROAD,LIMAVADY,BT49 0HR,RESIDENTIAL,268218,424874
AGHANLOO ROAD,LIMAVADY,BT49 0HX,RESIDENTIAL,268220,426028
DOWLAND ROAD,LIMAVADY,BT49 0HR,RESIDENTIAL,268228,424849
DOWLAND ROAD,LIMAVADY,BT49 0HR,RESIDENTIAL,268234,424847
DOWLAND ROAD,LIMAVADY,BT49 0HR,RESIDENTIAL,268242,424832
DOWLAND ROAD,LIMAVADY,BT49 0HR,RESIDENTIAL,268246,424828
DOWLAND ROAD,LIMAVADY,BT49 0HR,RESIDENTIAL,268255,424817
DOWLAND ROAD,LIMAVADY,BT49 0HR,RESIDENTIAL,268259,424813
WINDYHILL ROAD,ARTIKELLY,BT49 0RA,RESIDENTIAL,268295,424831
AGHANLOO ROAD,LIMAVADY,BT49 0HX,UNKNOWN,268304,425616
AGHANLOO ROAD,LIMAVADY,BT49 0HX,UNKNOWN,268304,425616
AGHANLOO ROAD,LIMAVADY,BT49 0HX,UNKNOWN,268304,425616
AGHANLOO ROAD,LIMAVADY,BT49 0HX,UNKNOWN,268304,425616
AGHANLOO ROAD,LIMAVADY,BT49 0HX,UNKNOWN,268311,425661
WINDYHILL ROAD,ARTIKELLY,BT49 0RA,UNKNOWN,268314,425036
WINDYHILL ROAD,ARTIKELLY,BT49 0RA,RESIDENTIAL,268320,424842
WINDYHILL ROAD,ARTIKELLY,BT49 0RA,RESIDENTIAL,268327,424861
FREEHALL ROAD,LIMAVADY,BT49 0HU,RESIDENTIAL,268351,426997
WINDYHILL ROAD,ARTIKELLY,BT49 0RA,RESIDENTIAL,268363,424884
AGHANLOO ROAD,LIMAVADY,BT49 0HX,UNKNOWN,268375,425609
AGHANLOO ROAD,LIMAVADY,BT49 0HX,UNKNOWN,268375,425609
AGHANLOO ROAD,LIMAVADY,BT49 0HX,UNKNOWN,268375,425609
WINDYHILL ROAD,ARTIKELLY,BT49 0RA,RESIDENTIAL,268383,424843
FREEHALL ROAD,LIMAVADY,BT49 0HU,RESIDENTIAL,268399,426960
WINDYHILL ROAD,ARTIKELLY,BT49 0RA,UNKNOWN,268402,425030
WINDYHILL ROAD,ARTIKELLY,BT49 0RA,COMMERCIAL,268406,424996
WINDYHILL ROAD,ARTIKELLY,BT49 0RA,COMMERCIAL,268406,424996
WINDYHILL ROAD,ARTIKELLY,BT49 0RA,COMMERCIAL,268406,424996
WINDYHILL ROAD,ARTIKELLY,BT49 0RA,COMMERCIAL,268406,424996
WINDYHILL ROAD,ARTIKELLY,BT49 0RA,COMMERCIAL,268423,424978
FREEHALL ROAD,LIMAVADY,BT49 0HU,RESIDENTIAL,268424,426962
WINDYHILL ROAD,ARTIKELLY,BT49 0RA,RESIDENTIAL,268464,425006
AGHANLOO ROAD,LIMAVADY,BT49 0HY,RESIDENTIAL,268465,427542
WINDYHILL ROAD,ARTIKELLY,BT49 0RA,RESIDENTIAL,268477,425035
WINDYHILL ROAD,ARTIKELLY,BT49 0JW,COMMERCIAL,268532,425154
FREEHALL ROAD,LIMAVADY,BT49 0HU,RESIDENTIAL,268538,426973
WINDYHILL ROAD,ARTIKELLY,BT49 0RA,RESIDENTIAL,268582,425135
WINDYHILL ROAD,ARTIKELLY,BT49 0RA,COMMERCIAL,268677,425171
AGHANLOO ROAD,LIMAVADY,BT49 0HX,RESIDENTIAL,268746,426410
WINDYHILL ROAD,ARTIKELLY,BT49 0QZ,RESIDENTIAL,268764,425222
WINDYHILL ROAD,ARTIKELLY,BT49 0QZ,RESIDENTIAL,268768,425222
WINDYHILL ROAD,ARTIKELLY,BT49 0QZ,RESIDENTIAL,268800,425233
WINDYHILL ROAD,ARTIKELLY,BT49 0QZ,RESIDENTIAL,268891,425199
WINDYHILL ROAD,ARTIKELLY,BT49 0QZ,RESIDENTIAL,268979,425336
FREEHALL ROAD,LIMAVADY,BT49 0HU,RESIDENTIAL,268984,427019
WINDYHILL ROAD,ARTIKELLY,BT49 0QZ,RESIDENTIAL,269006,425363
WINDYHILL ROAD,ARTIKELLY,BT49 0QZ,RESIDENTIAL,269016,425328
WINDYHILL ROAD,ARTIKELLY,BT49 0QZ,RESIDENTIAL,269046,425413
WINDYHILL ROAD,ARTIKELLY,BT49 0QZ,RESIDENTIAL,269074,425369
WINDYHILL ROAD,ARTIKELLY,BT49 0QZ,RESIDENTIAL,269081,425460
WINDYHILL ROAD,ARTIKELLY,BT49 0QZ,RESIDENTIAL,269204,425521
WINDYHILL ROAD,ARTIKELLY,BT49 0QZ,RESIDENTIAL,269211,425587
FREEHALL ROAD,LIMAVADY,BT49 0HU,RESIDENTIAL,269266,426941
FREEHALL ROAD,LIMAVADY,BT49 0HU,RESIDENTIAL,269272,426967
WINDYHILL ROAD,ARTIKELLY,BT49 0QZ,RESIDENTIAL,269319,425650
WINDYHILL ROAD,ARTIKELLY,BT49 0QZ,RESIDENTIAL,269309,426458
WINDYHILL ROAD,ARTIKELLY,BT49 0QZ,RESIDENTIAL,269500,425925
WINDYHILL ROAD,ARTIKELLY,BT49 0QZ,RESIDENTIAL,269318,425636
WINDYHILL ROAD,ARTIKELLY,BT49 0QZ,UNKNOWN,269319,425650
WINDYHILL ROAD,ARTIKELLY,BT49 0QZ,RESIDENTIAL,269323,425592
WINDYHILL ROAD,ARTIKELLY,BT49 0QZ,RESIDENTIAL,269375,425810
WINDYHILL ROAD,ARTIKELLY,BT49 0QZ,UNKNOWN,269598,426043
WINDYHILL ROAD,ARTIKELLY,BT49 0QZ,RESIDENTIAL,269618,426044
WINDYHILL ROAD,ARTIKELLY,BT49 0QZ,RESIDENTIAL,269618,426044
WINDYHILL ROAD,ARTIKELLY,BT49 0QZ,RESIDENTIAL,269645,425793
FREEHALL ROAD,LIMAVADY,BT49 0HU,RESIDENTIAL,269646,427344
WINDYHILL ROAD,ARTIKELLY,BT49 0QZ,RESIDENTIAL,269649,425217
BOLEA ROAD,LIMAVADY,BT49 0QT,RESIDENTIAL,269770,424858
WINDYHILL ROAD,ARTIKELLY,BT49 0QZ,RESIDENTIAL,269823,426203
WINDYHILL ROAD,ARTIKELLY,BT49 0QZ,RESIDENTIAL,269869,426118
BISHOPS ROAD,LIMAVADY,BT49 0JN,RESIDENTIAL,269897,426277
WINDYHILL ROAD,ARTIKELLY,BT49 0QY,RESIDENTIAL,269908,426190
FREEHALL ROAD,LIMAVADY,BT49 0HU,RESIDENTIAL,269932,427073
WINDYHILL ROAD,ARTIKELLY,BT49 0QY,RESIDENTIAL,269997,426185
WINDYHILL ROAD,ARTIKELLY,BT49 0QY,RESIDENTIAL,270021,426190
BISHOPS ROAD,LIMAVADY,BT49 0JN,RESIDENTIAL,270108,426582
BISHOPS ROAD,LIMAVADY,BT49 0JN,RESIDENTIAL,270115,426527
BISHOPS ROAD,LIMAVADY,BT49 0JN,RESIDENTIAL,270170,426590
WINDYHILL ROAD,ARTIKELLY,BT49 0QY,RESIDENTIAL,270224,426274
BOLEA ROAD,LIMAVADY,BT49 0QT,RESIDENTIAL,270246,424813
BISHOPS ROAD,LIMAVADY,BT49 0JN,RESIDENTIAL,270246,426980
BISHOPS ROAD,LIMAVADY,BT49 0JN,RESIDENTIAL,270276,427023
DRUMALIEF ROAD,LIMAVADY,BT49 0QX,RESIDENTIAL,270277,425972
BOLEA ROAD,LIMAVADY,BT49 0QU,UNKNOWN,270304,424802
DRUMALIEF ROAD,LIMAVADY,BT49 0QX,RESIDENTIAL,270327,425936
WINDYHILL ROAD,ARTIKELLY,BT49 0QY,RESIDENTIAL,270385,426235
DRUMALIEF ROAD,LIMAVADY,BT49 0QX,RESIDENTIAL,270392,425989
WINDYHILL ROAD,ARTIKELLY,BT49 0QY,RESIDENTIAL,270396,426403
BISHOPS ROAD,LIMAVADY,BT49 0JL,RESIDENTIAL,270397,427911
DRUMALIEF ROAD,LIMAVADY,BT49 0QX,RESIDENTIAL,270499,426342
DRUMALIEF ROAD,LIMAVADY,BT49 0QX,RESIDENTIAL,270532,426330
BOLEA ROAD,LIMAVADY,BT49 0QT,RESIDENTIAL,270546,425035
DRUMALIEF ROAD,LIMAVADY,BT49 0QX,RESIDENTIAL,270554,426089
DRUMALIEF ROAD,LIMAVADY,BT49 0QX,RESIDENTIAL,270567,426304
DRUMALIEF ROAD,LIMAVADY,BT49 0QX,RESIDENTIAL,270620,426055
WINDYHILL ROAD,ARTIKELLY,BT49 0QY,RESIDENTIAL,270623,426513
BOLEA ROAD,LIMAVADY,BT49 0QT,RESIDENTIAL,270679,424934
WINDYHILL ROAD,ARTIKELLY,BT49 0QY,RESIDENTIAL,270863,426623
BOLEA ROAD,LIMAVADY,BT49 0QT,UNKNOWN,271187,425608
BOLEA ROAD,LIMAVADY,BT49 0QT,RESIDENTIAL,271197,425613
BOLEA ROAD,LIMAVADY,BT49 0QU,RESIDENTIAL,271292,425699
BOLEA ROAD,LIMAVADY,BT49 0QU,RESIDENTIAL,271321,425738
BOLEA ROAD,LIMAVADY,BT49 0QU,RESIDENTIAL,271335,425710
BOLEA PARK,LIMAVADY,BT49 0SH,RESIDENTIAL,271349,425789
BOLEA PARK,LIMAVADY,BT49 0SH,RESIDENTIAL,271354,425740
BOLEA PARK,LIMAVADY,BT49 0SH,RESIDENTIAL,271356,425785
BOLEA PARK,LIMAVADY,BT49 0SH,RESIDENTIAL,271359,425711
BOLEA PARK,LIMAVADY,BT49 0SH,RESIDENTIAL,271359,425733
WINDYHILL ROAD,ARTIKELLY,BT49 0QY,RESIDENTIAL,271361,426966
BOLEA PARK,LIMAVADY,BT49 0SH,RESIDENTIAL,271369,425770
BOLEA PARK,LIMAVADY,BT49 0SH,RESIDENTIAL,271370,425762
WINDYHILL ROAD,ARTIKELLY,BT49 0QY,RESIDENTIAL,271386,427032
BOLEA ROAD,LIMAVADY,BT49 0QU,RESIDENTIAL,271387,425678
BOLEA ROAD,LIMAVADY,BT49 0QU,RESIDENTIAL,271406,425717
BOLEA ROAD,LIMAVADY,BT49 0QU,RESIDENTIAL,271425,425691
BOLEA ROAD,LIMAVADY,BT49 0QU,RESIDENTIAL,271425,425691
WINDYHILL ROAD,ARTIKELLY,BT49 0QY,RESIDENTIAL,271426,426995
BOLEA ROAD,LIMAVADY,BT49 0QU,RESIDENTIAL,271502,425657
BOLEA ROAD,LIMAVADY,BT49 0QU,RESIDENTIAL,271509,426212
WINDYHILL ROAD,ARTIKELLY,BT49 0QY,RESIDENTIAL,271593,427153
DRUMALIEF ROAD,LIMAVADY,BT49 0QS,RESIDENTIAL,271607,425249
DRUMALIEF ROAD,LIMAVADY,BT49 0QS,RESIDENTIAL,271623,425270
WINDYHILL ROAD,ARTIKELLY,BT49 0QY,RESIDENTIAL,271627,427210
WINDYHILL ROAD,ARTIKELLY,BT49 0QY,RESIDENTIAL,271654,427849
WINDYHILL ROAD,ARTIKELLY,BT49 0QY,RESIDENTIAL,271864,427635
BISHOPS ROAD,COLERAINE,BTXX XXX,UNKNOWN,271966,430296
WINDYHILL ROAD,ARTIKELLY,BT49 0QY,RESIDENTIAL,271968,427555
WINDYHILL ROAD,ARTIKELLY,BT49 0QY,RESIDENTIAL,271973,427257
WINDYHILL ROAD,ARTIKELLY,BT49 0QY,RESIDENTIAL,271986,427515
BOLEA ROAD,LIMAVADY,BT49 0QU,RESIDENTIAL,272443,426348
BOLEA ROAD,LIMAVADY,BT49 0QU,RESIDENTIAL,273009,426729
BOLEA ROAD,LIMAVADY,BT49 0QU,RESIDENTIAL,273191,426602
BROIGHTER ROAD,LIMAVADY,BT49 9DY,UNKNOWN,264542,424207
BROIGHTER ROAD,LIMAVADY,BT49 9HG,RESIDENTIAL,264568,424578
BROIGHTER ROAD,LIMAVADY,BT49 9HG,RESIDENTIAL,264573,424559
BROIGHTER ROAD,LIMAVADY,BT49 9HG,RESIDENTIAL,264583,424593
BROIGHTER ROAD,LIMAVADY,BT49 9HG,RESIDENTIAL,264591,424557
BROIGHTER ROAD,LIMAVADY,BT49 9DY,COMMERCIAL,264749,424245
FARLOW ROAD,LIMAVADY,BT49 9DR,RESIDENTIAL,265071,424168
BURNALLY ROAD,LIMAVADY,BT49 9DP,RESIDENTIAL,265135,424277
BURNALLY ROAD,LIMAVADY,BT49 9DP,RESIDENTIAL,265139,424202
BURNALLY ROAD,LIMAVADY,BT49 9DP,RESIDENTIAL,265165,424285
BURNALLY ROAD,LIMAVADY,BT49 9DP,RESIDENTIAL,265663,424433
BURNALLY ROAD,LIMAVADY,BT49 9DP,RESIDENTIAL,265790,424578
SEACOAST ROAD,LIMAVADY,BT49 9DW,RESIDENTIAL,266372,424287
SEACOAST ROAD,LIMAVADY,BT49 9DW,RESIDENTIAL,266407,424529
SEACOAST ROAD,LIMAVADY,BT49 9DW,RESIDENTIAL,266414,424175
SEACOAST ROAD,LIMAVADY,BT49 9DW,RESIDENTIAL,266425,424132
SEACOAST ROAD,LIMAVADY,BT49 9DW,RESIDENTIAL,266576,424689
SEACOAST ROAD,LIMAVADY,BT49 9DW,RESIDENTIAL,266716,424103
SEACOAST ROAD,LIMAVADY,BT49 9DW,RESIDENTIAL,266794,424052
SEACOAST ROAD,LIMAVADY,BT49 9DW,COMMERCIAL,266841,424691
DOWLAND ROAD,LIMAVADY,BT49 0HR,RESIDENTIAL,268277,424783
DOWLAND ROAD,LIMAVADY,BT49 0HP,RESIDENTIAL,268295,424117
DOWLAND ROAD,LIMAVADY,BT49 0HP,RESIDENTIAL,268598,424317
DOWLAND ROAD,LIMAVADY,BT49 0HP,RESIDENTIAL,268625,424249
BOLEA ROAD,LIMAVADY,BT49 0QT,RESIDENTIAL,269493,424642
BOLEA ROAD,LIMAVADY,BT49 0QT,RESIDENTIAL,269629,424625
BOLEA ROAD,LIMAVADY,BT49 0QT,RESIDENTIAL,269727,424759
BOLEA ROAD,LIMAVADY,BT49 0QT,RESIDENTIAL,269818,424608
BOLEA ROAD,LIMAVADY,BT49 0QT,RESIDENTIAL,269824,424700
BOLEA ROAD,LIMAVADY,BT49 0QT,RESIDENTIAL,269845,424604
BOLEA ROAD,LIMAVADY,BT49 0QT,RESIDENTIAL,269861,424595
BOLEA ROAD,LIMAVADY,BT49 0QT,RESIDENTIAL,270264,424737
BOLEA ROAD,LIMAVADY,BT49 0QT,RESIDENTIAL,270265,424700
BOLEA ROAD,LIMAVADY,BT49 0QT,RESIDENTIAL,270278,424746
BOLEA ROAD,LIMAVADY,BT49 0QT,RESIDENTIAL,270286,424751
BOLEA ROAD,LIMAVADY,BT49 0QT,COMMERCIAL,270298,424796
BOLEA ROAD,LIMAVADY,BT49 0QT,RESIDENTIAL,270300,424679
BOLEA ROAD,LIMAVADY,BT49 0QT,RESIDENTIAL,270316,424787
BOLEA ROAD,LIMAVADY,BT49 0QT,RESIDENTIAL,270324,424724
BOLEA ROAD,LIMAVADY,BT49 0QT,RESIDENTIAL,270328,424697
BOLEA ROAD,LIMAVADY,BT49 0QT,RESIDENTIAL,270346,424760
BROAD ROAD,LIMAVADY,BT49 0QH,RESIDENTIAL,270563,423993
BROAD ROAD,LIMAVADY,BT49 0QP,RESIDENTIAL,270906,424059
BROAD ROAD,LIMAVADY,BT49 0QP,COMMERCIAL,271405,424702
BROAD ROAD,LIMAVADY,BT49 0QP,RESIDENTIAL,271413,424414
BROAD ROAD,LIMAVADY,BT49 0QP,RESIDENTIAL,271437,424374
BROAD ROAD,LIMAVADY,BT49 0QP,RESIDENTIAL,271450,424688
BROAD ROAD,LIMAVADY,BT49 0QP,RESIDENTIAL,271472,424551
BROAD ROAD,LIMAVADY,BT49 0QP,RESIDENTIAL,271778,424682
DOWLAND PARK,LIMAVADY,BT49 0EJ,RESIDENTIAL,267374,425205
DOWLAND PARK,LIMAVADY,BT49 0EJ,UNKNOWN,267374,425205
AGHANLOO ROAD,LIMAVADY,BT49 0HE,UNKNOWN,268194,425692
AGHANLOO ROAD,LIMAVADY,BT49 0HE,COMMERCIAL,268279,425797
AGHANLOO ROAD,LIMAVADY,BT49 0HE,UNKNOWN,268194,425692
AGHANLOO ROAD,LIMAVADY,BT49 0HE,UNKNOWN,268194,425692
AGHANLOO ROAD,LIMAVADY,BT49 0HE,UNKNOWN,268194,425692
AGHANLOO ROAD,LIMAVADY,BT49 0HE,UNKNOWN,268194,425692
AGHANLOO ROAD,LIMAVADY,BT49 0HE,UNKNOWN,268194,425692
AGHANLOO ROAD,LIMAVADY,BT49 0HE,UNKNOWN,268194,425692
AGHANLOO ROAD,LIMAVADY,BT49 0HE,UNKNOWN,268194,425692
AGHANLOO ROAD,LIMAVADY,BT49 0HE,UNKNOWN,268188,425679
AGHANLOO ROAD,LIMAVADY,BT49 0HE,UNKNOWN,268188,425679
AGHANLOO ROAD,LIMAVADY,BT49 0HE,UNKNOWN,268188,425679
AGHANLOO ROAD,LIMAVADY,BT49 0HE,UNKNOWN,268188,425679
AGHANLOO ROAD,LIMAVADY,BT49 0HE,UNKNOWN,268188,425679
AGHANLOO ROAD,LIMAVADY,BT49 0HE,UNKNOWN,268194,425692
AGHANLOO ROAD,LIMAVADY,BT49 0HE,UNKNOWN,268194,425692
DOWLAND ROAD,LIMAVADY,BT49 0HP,RESIDENTIAL,268288,424054
DOWLAND ROAD,LIMAVADY,BT49 0HP,UNKNOWN,268288,424054
DOWLAND ROAD,LIMAVADY,BT49 0HP,RESIDENTIAL,268288,424054
DOWLAND ROAD,LIMAVADY,BT49 0HP,UNKNOWN,268288,424054
DOWLAND ROAD,LIMAVADY,BT49 0HP,UNKNOWN,268288,424054
DOWLAND ROAD,LIMAVADY,BT49 0HP,RESIDENTIAL,268288,424054
DOWLAND ROAD,LIMAVADY,BT49 0HP,UNKNOWN,268288,424054
DOWLAND ROAD,LIMAVADY,BT49 0HP,UNKNOWN,268288,424054
DOWLAND ROAD,LIMAVADY,BT49 0HR,RESIDENTIAL,267722,425200
DOWLAND ROAD,LIMAVADY,BT49 0HR,COMMERCIAL,267181,426052
DOWLAND ROAD,LIMAVADY,BT49 0HR,UNKNOWN,267387,425834
DOWLAND ROAD,LIMAVADY,BT49 0HL,UNKNOWN,267387,425834
DOWLAND ROAD,LIMAVADY,BT49 0HR,COMMERCIAL,267722,425200
DOWLAND ROAD,LIMAVADY,BT49 0HR,COMMERCIAL,267722,425200
DOWLAND ROAD,LIMAVADY,BT49 0HR,RESIDENTIAL,267917,426622
DOWLAND ROAD,LIMAVADY,BT49 0HR,RESIDENTIAL,267917,426622
FREEHALL ROAD,LIMAVADY,BT49 0HU,RESIDENTIAL,268896,426987
FREEHALL ROAD,LIMAVADY,BT49 0HU,RESIDENTIAL,268896,426987
AGHANLOO ROAD,LIMAVADY,BT49 0HX,UNKNOWN,268275,425582
AGHANLOO ROAD,LIMAVADY,BT49 0HY,RESIDENTIAL,267639,429289
AGHANLOO ROAD,LIMAVADY,BT49 0HY,RESIDENTIAL,267867,427977
AGHANLOO ROAD,LIMAVADY,BT49 0HY,RESIDENTIAL,267909,428324
SEACOAST ROAD,LIMAVADY,BT49 0HZ,RESIDENTIAL,267086,429996
SCOTCHTOWN ROAD,LIMAVADY,BT49 0JA,RESIDENTIAL,266268,430411
DUNCRUN ROAD,LIMAVADY,BT49 0JD,RESIDENTIAL,267588,431400
DUNCRUN ROAD,LIMAVADY,BT49 0JD,UNKNOWN,267588,431400
DUNCRUN ROAD,LIMAVADY,BT49 0JD,RESIDENTIAL,267588,431400
DUNCRUN ROAD,LIMAVADY,BT49 0JD,UNKNOWN,267588,431400
DUNCRUN ROAD,LIMAVADY,BT49 0JD,RESIDENTIAL,267874,431793
CURRAGH ROAD,LIMAVADY,BT49 0JE,RESIDENTIAL,268590,432562
DUNCRUN ROAD,LIMAVADY,BT49 0JF,RESIDENTIAL,269528,432405
TIRCREVEN ROAD,LIMAVADY,BT49 0JH,RESIDENTIAL,270207,432902
TIRCREVEN ROAD,LIMAVADY,BT49 0JH,RESIDENTIAL,270207,432902
BISHOPS ROAD,LIMAVADY,BT49 0JL,UNKNOWN,270397,427911
DUNCRUN ROAD,LIMAVADY,BT49 0JQ,RESIDENTIAL,269972,432826
SEACOAST ROAD,LIMAVADY,BT49 0JY,RESIDENTIAL,266756,431273
SEACOAST ROAD,LIMAVADY,BT49 0JY,RESIDENTIAL,266756,431273
SEACOAST ROAD,LIMAVADY,BT49 0LA,RESIDENTIAL,266898,432413
SEACOAST ROAD,LIMAVADY,BT49 0LA,RESIDENTIAL,267325,431982
SEACOAST ROAD,LIMAVADY,BT49 0LA,RESIDENTIAL,266898,432413
SEACOAST ROAD,LIMAVADY,BT49 0LA,RESIDENTIAL,267111,432731
SEACOAST ROAD,LIMAVADY,BT49 0LA,RESIDENTIAL,267140,432720
SEACOAST ROAD,LIMAVADY,BT49 0LA,UNKNOWN,266898,432413
LIMESTONE ROAD,LIMAVADY,BT49 0LB,RESIDENTIAL,267522,432723
SEACOAST ROAD,LIMAVADY,BT49 0LD,COMMERCIAL,267239,433239
SEACOAST ROAD,LIMAVADY,BT49 0LD,RESIDENTIAL,267239,433239
SEACOAST ROAD,LIMAVADY,BT49 0LD,RESIDENTIAL,267239,433239
SEACOAST ROAD,LIMAVADY,BT49 0LD,RESIDENTIAL,267239,433239
SEACOAST ROAD,LIMAVADY,BT49 0LF,RESIDENTIAL,267311,434071
SEACOAST ROAD,LIMAVADY,BT49 0LG,RESIDENTIAL,270915,435051
SEACOAST ROAD,LIMAVADY,BT49 0LG,COMMERCIAL,271155,435197
SEACOAST ROAD,LIMAVADY,BT49 0LH,RESIDENTIAL,272324,435556
SEACOAST ROAD,LIMAVADY,BT49 0LH,RESIDENTIAL,272324,435556
SEACOAST ROAD,LIMAVADY,BT49 0LL,RESIDENTIAL,269777,434280
SEACOAST ROAD,LIMAVADY,BT49 0LL,UNKNOWN,269777,434280
SEACOAST ROAD,LIMAVADY,BT49 0LL,UNKNOWN,269777,434280
POINT ROAD,LIMAVADY,BT49 0LP,COMMERCIAL,268185,435021
POINT ROAD,LIMAVADY,BT49 0LP,COMMERCIAL,268185,435021
POINT ROAD,LIMAVADY,BT49 0LP,UNKNOWN,268185,435021
POINT ROAD,LIMAVADY,BT49 0LP,UNKNOWN,268185,435021
BENONE AVENUE,LIMAVADY,BT49 0LQ,RESIDENTIAL,271476,435713
BENONE AVENUE,LIMAVADY,BT49 0LQ,RESIDENTIAL,271410,435722
BENONE AVENUE,LIMAVADY,BT49 0LQ,RESIDENTIAL,271410,435722
BENONE AVENUE,LIMAVADY,BT49 0LQ,RESIDENTIAL,271410,435722
POINT ROAD,LIMAVADY,BT49 0LR,UNKNOWN,266837,437279
CARRIAGE COURT,LIMAVADY,BT49 0LU,RESIDENTIAL,267264,433002
CARRIAGE COURT,LIMAVADY,BT49 0LU,RESIDENTIAL,267286,433008
CARRIAGE COURT,LIMAVADY,BT49 0LU,RESIDENTIAL,267237,433034
CARRIAGE COURT,LIMAVADY,BT49 0LU,RESIDENTIAL,267279,432939
CARRIAGE COURT,LIMAVADY,BT49 0LU,RESIDENTIAL,267280,432952
CARRIAGE COURT,LIMAVADY,BT49 0LU,RESIDENTIAL,267285,432961
CARRIAGE COURT,LIMAVADY,BT49 0LU,RESIDENTIAL,267252,433004
CARRIAGE COURT,LIMAVADY,BT49 0LU,RESIDENTIAL,267278,433028
CARRIAGE COURT,LIMAVADY,BT49 0LU,RESIDENTIAL,267263,433038
CARRIAGE COURT,LIMAVADY,BT49 0LU,RESIDENTIAL,267247,433049
CARRIAGE COURT,LIMAVADY,BT49 0LU,RESIDENTIAL,267234,433027
CARRIAGE COURT,LIMAVADY,BT49 0LU,RESIDENTIAL,267224,433010
SEACOAST ROAD,LIMAVADY,BT49 0LW,RESIDENTIAL,268627,433938
THE LONGLANDS,LIMAVADY,BT49 0LX,RESIDENTIAL,267967,428475
OASIS COTTAGES,LIMAVADY,BT49 0LZ,RESIDENTIAL,267185,432672
OASIS COTTAGES,LIMAVADY,BT49 0LZ,RESIDENTIAL,267164,432667
OASIS COTTAGES,LIMAVADY,BT49 0LZ,RESIDENTIAL,267155,432668
OASIS COTTAGES,LIMAVADY,BT49 0LZ,RESIDENTIAL,267154,432689
MILL PARK,LIMAVADY,BT49 0QD,RESIDENTIAL,271615,425260
DRUMALIEF ROAD,LIMAVADY,BT49 0QS,RESIDENTIAL,271615,425260
DRUMALIEF ROAD,LIMAVADY,BT49 0QS,RESIDENTIAL,271615,425260
DRUMALIEF ROAD,LIMAVADY,BT49 0QS,RESIDENTIAL,271615,425260
DRUMALIEF ROAD,LIMAVADY,BT49 0QS,RESIDENTIAL,271615,425260
DRUMALIEF ROAD,LIMAVADY,BT49 0QS,RESIDENTIAL,271615,425260
DRUMALIEF ROAD,LIMAVADY,BT49 0QS,RESIDENTIAL,271615,425260
DRUMALIEF ROAD,LIMAVADY,BT49 0QS,RESIDENTIAL,271615,425260
DRUMALIEF ROAD,LIMAVADY,BT49 0QS,RESIDENTIAL,271615,425260
DRUMALIEF ROAD,LIMAVADY,BT49 0QS,RESIDENTIAL,271615,425260
DRUMALIEF ROAD,LIMAVADY,BT49 0QS,RESIDENTIAL,271615,425260
DRUMALIEF ROAD,LIMAVADY,BT49 0QS,RESIDENTIAL,271615,425260
BOLEA ROAD,LIMAVADY,BT49 0QT,RESIDENTIAL,270072,424734
BOLEA ROAD,LIMAVADY,BT49 0QT,RESIDENTIAL,269399,424624
BOLEA ROAD,LIMAVADY,BT49 0QT,RESIDENTIAL,269824,424700
BOLEA ROAD,LIMAVADY,BT49 0QT,RESIDENTIAL,270072,424734
BOLEA ROAD,LIMAVADY,BT49 0QU,RESIDENTIAL,271802,425980
BOLEA ROAD,LIMAVADY,BT49 0QU,RESIDENTIAL,271802,425980
BOLEA ROAD,LIMAVADY,BT49 0QU,RESIDENTIAL,271802,425980
BOLEA ROAD,LIMAVADY,BT49 0QU,UNKNOWN,271802,425980
BOLEA ROAD,LIMAVADY,BT49 0QU,RESIDENTIAL,271802,425980
BOLEA ROAD,LIMAVADY,BT49 0QU,RESIDENTIAL,271802,425980
BOLEA ROAD,LIMAVADY,BT49 0QU,RESIDENTIAL,271802,425980
BOLEA ROAD,LIMAVADY,BT49 0QU,RESIDENTIAL,271802,425980
BOLEA ROAD,LIMAVADY,BT49 0QU,RESIDENTIAL,271802,425980
BOLEA ROAD,LIMAVADY,BT49 0QU,RESIDENTIAL,271802,425980
DRUMALIEF ROAD,LIMAVADY,BT49 0QX,RESIDENTIAL,270471,426127
DRUMALIEF ROAD,LIMAVADY,BT49 0QX,RESIDENTIAL,270471,426127
DRUMALIEF ROAD,LIMAVADY,BT49 0QX,UNKNOWN,270471,426127
WINDYHILL ROAD,ARTIKELLY,BT49 0QY,RESIDENTIAL,271331,427166
WINDYHILL ROAD,ARTIKELLY,BT49 0QY,RESIDENTIAL,271143,426960
WINDYHILL ROAD,ARTIKELLY,BT49 0QY,RESIDENTIAL,271143,426960
WINDYHILL ROAD,ARTIKELLY,BT49 0QY,RESIDENTIAL,271143,426960
WINDYHILL ROAD,ARTIKELLY,BT49 0QY,RESIDENTIAL,271143,426960
WINDYHILL ROAD,ARTIKELLY,BT49 0QY,UNKNOWN,271947,427281
WINDYHILL ROAD,ARTIKELLY,BT49 0QY,RESIDENTIAL,271143,426960
WINDYHILL ROAD,ARTIKELLY,BT49 0QY,RESIDENTIAL,271143,426960
WINDYHILL ROAD,ARTIKELLY,BT49 0QY,RESIDENTIAL,271143,426960
WINDYHILL ROAD,ARTIKELLY,BT49 0QY,RESIDENTIAL,271143,426960
WINDYHILL ROAD,ARTIKELLY,BT49 0QZ,RESIDENTIAL,269302,425615
WINDYHILL ROAD,ARTIKELLY,BT49 0QZ,RESIDENTIAL,269500,425925
WINDYHILL ROAD,ARTIKELLY,BT49 0QZ,RESIDENTIAL,269289,425651
WINDYHILL ROAD,ARTIKELLY,BT49 0QZ,RESIDENTIAL,269598,426043
WINDYHILL ROAD,ARTIKELLY,BT49 0QZ,RESIDENTIAL,269932,427073
WINDYHILL ROAD,ARTIKELLY,BT49 0QZ,RESIDENTIAL,269932,427073
WINDYHILL ROAD,ARTIKELLY,BT49 0RA,UNKNOWN,268683,425161
CHERRYVALE PARK,LIMAVADY,BT49 9AH,RESIDENTIAL,266126,425950
CHERRYVALE PARK,LIMAVADY,BT49 9AH,RESIDENTIAL,266065,425977
BURNALLY ROAD,LIMAVADY,BT49 9DP,RESIDENTIAL,264823,424171
BURNALLY ROAD,LIMAVADY,BT49 9DP,RESIDENTIAL,265318,424343
BURNALLY ROAD,LIMAVADY,BT49 9DP,RESIDENTIAL,265382,424367
SEACOAST ROAD,LIMAVADY,BT49 9DW,RESIDENTIAL,266841,424691
SEACOAST ROAD,LIMAVADY,BT49 9DW,RESIDENTIAL,266346,424677
SEACOAST ROAD,LIMAVADY,BT49 9DW,RESIDENTIAL,266461,424375
SEACOAST ROAD,LIMAVADY,BT49 9DW,COMMERCIAL,266461,424375
SEACOAST ROAD,LIMAVADY,BT49 9DW,UNKNOWN,266841,424691
SEACOAST ROAD,LIMAVADY,BT49 9DW,UNKNOWN,266841,424691
SEACOAST ROAD,LIMAVADY,BT49 9DW,UNKNOWN,266461,424375
SEACOAST ROAD,LIMAVADY,BT49 9DW,RESIDENTIAL,266461,424375
SEACOAST ROAD,LIMAVADY,BT49 9DW,UNKNOWN,266841,424691
SEACOAST ROAD,LIMAVADY,BT49 9DW,UNKNOWN,266841,424691
CARSE ROAD,LIMAVADY,BT49 9DX,UNKNOWN,263501,424878
CARSE ROAD,LIMAVADY,BT49 9DX,RESIDENTIAL,263501,424878
CARSE ROAD,LIMAVADY,BT49 9DX,RESIDENTIAL,264375,424387
BROIGHTER ROAD,LIMAVADY,BT49 9DY,RESIDENTIAL,264780,425155
BROIGHTER ROAD,LIMAVADY,BT49 9DY,RESIDENTIAL,264780,425155
BROIGHTER ROAD,LIMAVADY,BT49 9DY,RESIDENTIAL,264780,425155
LOMOND ROAD,LIMAVADY,BT49 9DZ,RESIDENTIAL,264367,426415
CARROWCLARE ROAD,LIMAVADY,BT49 9EB,RESIDENTIAL,264360,429007
CARROWCLARE ROAD,LIMAVADY,BT49 9EB,RESIDENTIAL,263856,427455
CARROWCLARE ROAD,LIMAVADY,BT49 9EB,RESIDENTIAL,263856,427455
CARROWCLARE ROAD,LIMAVADY,BT49 9EB,RESIDENTIAL,263856,427455
CARROWCLARE ROAD,LIMAVADY,BT49 9EB,RESIDENTIAL,264512,428543
CARROWCLARE ROAD,LIMAVADY,BT49 9EB,RESIDENTIAL,263856,427455
CARROWCLARE ROAD,LIMAVADY,BT49 9EB,RESIDENTIAL,263856,427455
CARROWCLARE ROAD,LIMAVADY,BT49 9ED,RESIDENTIAL,266059,427870
SEACOAST ROAD,LIMAVADY,BT49 9EF,RESIDENTIAL,266870,428605
SEACOAST ROAD,LIMAVADY,BT49 9EF,RESIDENTIAL,266870,428605
SEACOAST ROAD,LIMAVADY,BT49 9EF,RESIDENTIAL,267023,429140
SEACOAST ROAD,LIMAVADY,BT49 9EG,RESIDENTIAL,266162,426830
SEACOAST ROAD,LIMAVADY,BT49 9EG,RESIDENTIAL,266136,426433
SEACOAST ROAD,LIMAVADY,BT49 9EG,RESIDENTIAL,266144,426471
SEACOAST ROAD,LIMAVADY,BT49 9EG,RESIDENTIAL,266162,426830
SEACOAST ROAD,LIMAVADY,BT49 9EG,RESIDENTIAL,266162,426830
SEACOAST ROAD,LIMAVADY,BT49 9EG,RESIDENTIAL,266162,426830
SEACOAST ROAD,LIMAVADY,BT49 9EG,RESIDENTIAL,266162,426830
SEACOAST ROAD,LIMAVADY,BT49 9EG,RESIDENTIAL,266162,426830
RAILWAY COTTAGES,LIMAVADY,BT49 9NU,RESIDENTIAL,263700,427041
AGHANLOO ROAD,LIMAVADY,BT49 0HE,COMMERCIAL,268194,425692
AGHANLOO ROAD,LIMAVADY,BT49 0HE,COMMERCIAL,268194,425692
BISHOPS ROAD,LIMAVADY,BT49 0JN,COMMERCIAL,270135,426663
BISHOPS ROAD,LIMAVADY,BT49 0JL,RESIDENTIAL,270397,427911
BISHOPS ROAD,LIMAVADY,BT49 0JL,RESIDENTIAL,270397,427911
BISHOPS ROAD,LIMAVADY,BT49 0JL,COMMERCIAL,270397,427911
BISHOPS ROAD,LIMAVADY,BT49 0JL,COMMERCIAL,270397,427911
BISHOPS ROAD,LIMAVADY,BT49 0JL,COMMERCIAL,270397,427911
BOLEA ROAD,LIMAVADY,BT49 0QT,RESIDENTIAL,270072,424734
BROAD ROAD,LIMAVADY,BT49 0QP,COMMERCIAL,271457,424528
BROAD ROAD,LIMAVADY,BT49 0QP,COMMERCIAL,271457,424528
DOWLAND ROAD,LIMAVADY,BT49 0HP,RESIDENTIAL,268288,424054
DOWLAND ROAD,LIMAVADY,BT49 0HP,RESIDENTIAL,268288,424054
DOWLAND ROAD,LIMAVADY,BT49 0HP,RESIDENTIAL,268288,424054
DOWLAND ROAD,LIMAVADY,BT49 0HP,RESIDENTIAL,268288,424054
DOWLAND ROAD,LIMAVADY,BT49 0HP,RESIDENTIAL,268288,424054
DOWLAND ROAD,LIMAVADY,BT49 0HR,COMMERCIAL,267722,425200
DOWLAND ROAD,LIMAVADY,BT49 0HR,RESIDENTIAL,267722,425200
DOWLAND ROAD,LIMAVADY,BT49 0HR,RESIDENTIAL,267722,425200
DOWLAND ROAD,LIMAVADY,BT49 0HR,COMMERCIAL,267722,425200
DOWLAND ROAD,LIMAVADY,BT49 0HR,COMMERCIAL,267722,425200
DOWLAND ROAD,LIMAVADY,BT49 0HR,COMMERCIAL,267722,425200
DOWLAND ROAD,,BT49 0HR,COMMERCIAL,267722,425200
DRUMALIEF ROAD,LIMAVADY,BTXX XXX,COMMERCIAL,270973,425929
DRUMALIEF ROAD,LIMAVADY,BT49 0QX,RESIDENTIAL,270471,426127
AGHANLOO ROAD,LIMAVADY,BT49 0HE,COMMERCIAL,268194,425692
LIMAVADY SMALL BUSINESS AGENC,LIMAVADY,BT49 0HE,COMMERCIAL,268194,425692
AGHANLOO ROAD,LIMAVADY,BT49 0HE,COMMERCIAL,268194,425692
AGHANLOO ROAD,LIMAVADY,BT49 0HE,COMMERCIAL,268194,425692
AGHANLOO ROAD,LIMAVADY,BT49 0HE,COMMERCIAL,268194,425692
AGHANLOO ROAD,LIMAVADY,BT49 0HE,COMMERCIAL,268194,425692
AGHANLOO ROAD,LIMAVADY,BT49 0HE,COMMERCIAL,268194,425692
AGHANLOO ROAD,LIMAVADY,BT49 0HE,COMMERCIAL,268194,425692
AGHANLOO ROAD,LIMAVADY,BT49 0HE,COMMERCIAL,268194,425692
AGHANLOO ROAD,LIMAVADY,BT49 0HE,COMMERCIAL,268194,425692
AGHANLOO ROAD,LIMAVADY,BT49 0HE,COMMERCIAL,268194,425692
AGHANLOO ROAD,LIMAVADY,BT49 0HE,COMMERCIAL,268194,425692
AGHANLOO ROAD,LIMAVADY,BT49 0HE,COMMERCIAL,268194,425692
AGHANLOO ROAD,LIMAVADY,BT49 0HE,COMMERCIAL,268194,425692
AGHANLOO ROAD,LIMAVADY,BT49 0HE,COMMERCIAL,268194,425692
AGHANLOO ROAD,LIMAVADY,BT49 0HE,COMMERCIAL,268194,425692
AGHANLOO ROAD,LIMAVADY,BT49 0HE,COMMERCIAL,268194,425692
LIMAVADY SMALL BUSINESS AGENC,LIMAVADY,BT49 0HE,COMMERCIAL,268194,425692
AGHANLOO ROAD,LIMAVADY,BTXX XXX,COMMERCIAL,268194,425692
AGHANLOO ROAD,LIMAVADY,BTXX XXX,COMMERCIAL,268194,425692
AGHANLOO ROAD,LIMAVADY,BTXX XXX,COMMERCIAL,268194,425692
AGHANLOO ROAD,LIMAVADY,BTXX XXX,COMMERCIAL,268194,425692
AGHANLOO ROAD,LIMAVADY,BTXX XXX,COMMERCIAL,268194,425692
AGHANLOO ROAD,LIMAVADY,BTXX XXX,COMMERCIAL,268194,425692
WINDYHILL ROAD,ARTIKELLY,BT49 0RA,RESIDENTIAL,268398,424977
WINDYHILL ROAD,ARTIKELLY,BT49 0RA,RESIDENTIAL,268402,425104
WINDYHILL ROAD,ARTIKELLY,BT49 0JW,COMMERCIAL,268402,425104
WINDYHILL ROAD,ARTIKELLY,BT49 0JW,COMMERCIAL,268402,425104
WINDYHILL ROAD,ARTIKELLY,BT49 0JW,COMMERCIAL,268402,425104
WINDYHILL ROAD,ARTIKELLY,BT49 0JW,COMMERCIAL,268402,425104
WINDYHILL ROAD,ARTIKELLY,BT49 0JW,COMMERCIAL,268402,425104
WINDYHILL ROAD,ARTIKELLY,BT49 0JW,COMMERCIAL,268402,425104
WINDYHILL ROAD,ARTIKELLY,BT49 0JW,COMMERCIAL,268402,425104
WINDYHILL ROAD,ARTIKELLY,BT49 0JW,COMMERCIAL,268402,425104
WINDYHILL ROAD,ARTIKELLY,BT49 0JW,COMMERCIAL,268532,425154
WINDYHILL ROAD,ARTIKELLY,BT49 0JW,COMMERCIAL,268532,425154
WINDYHILL ROAD,ARTIKELLY,BT49 0JW,COMMERCIAL,268532,425154
WINDYHILL ROAD,ARTIKELLY,BT49 0QY,RESIDENTIAL,271143,426960
WINDYHILL ROAD,ARTIKELLY,BT49 0QY,RESIDENTIAL,271143,426960
WINDYHILL ROAD,ARTIKELLY,BT49 0QY,COMMERCIAL,271143,426960
WINDYHILL ROAD,ARTIKELLY,BT49 0QY,RESIDENTIAL,271472,427942
CARROWCLARE ROAD,LIMAVADY,BT49 9EA,RESIDENTIAL,263868,426218
SEACOAST ROAD,LIMAVADY,BT49 9DW,COMMERCIAL,266461,424375
AGHANLOO ROAD,LIMAVADY,BT49 0HY,COMMERCIAL,267909,428324
AGHANLOO ROAD,LIMAVADY,BT49 0HY,COMMERCIAL,267909,428324
AGHANLOO ROAD,LIMAVADY,BT49 0HY,COMMERCIAL,267909,428324
BEACH SITE,LIMAVADY,BT49 0LQ,RESIDENTIAL,271410,435722
BENONE AVENUE,LIMAVADY,BT49 0LQ,COMMERCIAL,271410,435722
BENONE AVENUE,LIMAVADY,BT49 0LQ,RESIDENTIAL,271410,435722
BENONE AVENUE,LIMAVADY,BT49 0LQ,COMMERCIAL,271410,435722
BENONE AVENUE,LIMAVADY,BT49 0LQ,COMMERCIAL,271410,435722
BENONE AVENUE,LIMAVADY,BT49 0LQ,COMMERCIAL,271410,435722
BROIGHTER ROAD,LIMAVADY,BT49 9DY,RESIDENTIAL,264780,425155
BROIGHTER ROAD,LIMAVADY,BT49 9DY,COMMERCIAL,264780,425155
BURNALLY ROAD,LIMAVADY,BT49 9DP,RESIDENTIAL,265302,424332
CARROWCLARE ROAD,LIMAVADY,BT49 9EB,RESIDENTIAL,263856,427455
CARROWCLARE ROAD,LIMAVADY,BT49 9EB,RESIDENTIAL,263856,427455
CARROWCLARE ROAD,LIMAVADY,BT49 9EB,RESIDENTIAL,263856,427455
CURRAGH ROAD,LIMAVADY,BT49 0LE,RESIDENTIAL,268166,433142
DUNCRUN ROAD,LIMAVADY,BT49 0JD,RESIDENTIAL,267588,431400
DUNCRUN ROAD,LIMAVADY,BT49 0JD,RESIDENTIAL,267588,431400
DUNCRUN ROAD,LIMAVADY,BT49 0JD,RESIDENTIAL,267588,431400
DUNCRUN ROAD,LIMAVADY,BT49 0JD,COMMERCIAL,267805,431379
DUNCRUN ROAD,LIMAVADY,BT49 0JQ,RESIDENTIAL,269972,432826
DUNCRUN ROAD,LIMAVADY,BT49 0JJ,RESIDENTIAL,270452,433380
LOMOND ROAD,LIMAVADY,BT49 9DZ,COMMERCIAL,264367,426415
POINT ROAD,LIMAVADY,BT49 0LP,RESIDENTIAL,268185,435021
POINT ROAD,LIMAVADY,BT49 0LP,RESIDENTIAL,268185,435021
POINT ROAD,LIMAVADY,BT49 0LP,RESIDENTIAL,268185,435021
POINT ROAD,LIMAVADY,BT49 0LP,COMMERCIAL,268185,435021
POINT ROAD,LIMAVADY,BT49 0LP,COMMERCIAL,268185,435021
SCOTCHTOWN ROAD,LIMAVADY,BT49 0JA,RESIDENTIAL,266268,430411
SEACOAST ROAD,LIMAVADY,BT49 9DW,COMMERCIAL,266461,424375
SEACOAST ROAD,LIMAVADY,BT49 9DW,COMMERCIAL,266418,424972
SEACOAST ROAD,LIMAVADY,BT49 9DW,COMMERCIAL,266418,424972
SEACOAST ROAD,LIMAVADY,BT49 9DW,COMMERCIAL,266418,424972
SEACOAST ROAD,LIMAVADY,BT49 9DW,COMMERCIAL,266461,424375
SEACOAST ROAD,LIMAVADY,BT49 9DW,COMMERCIAL,266461,424375
SEACOAST ROAD,LIMAVADY,BT49 9EG,COMMERCIAL,266162,426830
SEACOAST ROAD,LIMAVADY,BT49 9EF,COMMERCIAL,266417,427864
SEACOAST ROAD,LIMAVADY,BT49 9EF,COMMERCIAL,266870,428605
SEACOAST ROAD,LIMAVADY,BT49 9EF,COMMERCIAL,266870,428605
SEACOAST ROAD,LIMAVADY,BT49 0LA,COMMERCIAL,266898,432413
SEACOAST ROAD,LIMAVADY,BT49 0HZ,RESIDENTIAL,266915,429992
SEACOAST ROAD,LIMAVADY,BT49 0HZ,MIXED,266915,429992
SEACOAST ROAD,LIMAVADY,BT49 0JY,RESIDENTIAL,266333,430895
SEACOAST ROAD,LIMAVADY,BT49 0LA,RESIDENTIAL,266898,432413
SEACOAST ROAD,LIMAVADY,BT49 0LA,RESIDENTIAL,266898,432413
SEACOAST ROAD,LIMAVADY,BT49 0LA,RESIDENTIAL,266898,432413
SEACOAST ROAD,LIMAVADY,BT49 0LA,RESIDENTIAL,266898,432413
SEACOAST ROAD,,UNKNOWN,COMMERCIAL,267188,432768
SEACOAST ROAD,LIMAVADY,BT49 0LA,COMMERCIAL,267167,432743
SEACOAST ROAD,LIMAVADY,BT49 0LA,COMMERCIAL,267167,432743
SEACOAST ROAD,LIMAVADY,BT49 0LD,RESIDENTIAL,267239,433239
SEACOAST ROAD,LIMAVADY,BT49 0LD,RESIDENTIAL,267239,433239
SEACOAST ROAD,LIMAVADY,BT49 0LD,COMMERCIAL,267239,433239
SEACOAST ROAD,LIMAVADY,BT49 0LD,COMMERCIAL,267239,433239
SEACOAST ROAD,LIMAVADY,BT49 0LD,COMMERCIAL,267239,433239
SEACOAST ROAD,LIMAVADY,BT49 0LD,COMMERCIAL,267239,433239
SEACOAST ROAD,LIMAVADY,BT49 0LD,COMMERCIAL,267239,433239
SEACOAST ROAD,LIMAVADY,BT49 0LD,COMMERCIAL,267239,433239
SEACOAST ROAD,LIMAVADY,BT49 0LD,COMMERCIAL,267239,433239
SEACOAST ROAD,LIMAVADY,BT49 0LD,COMMERCIAL,267239,433239
SEACOAST ROAD,LIMAVADY,BT49 0LD,RESIDENTIAL,267239,433239
SEACOAST ROAD,LIMAVADY,BT49 0LF,COMMERCIAL,267311,434071
SEACOAST ROAD,LIMAVADY,BT49 0LG,RESIDENTIAL,270915,435051
SEACOAST ROAD,LIMAVADY,BT49 0LG,RESIDENTIAL,270915,435051
SEACOAST ROAD,LIMAVADY,BT49 0LG,RESIDENTIAL,270915,435051
BENONE AVENUE,LIMAVADY,BTXX XXX,COMMERCIAL,271396,435633
BROAD ROAD,LIMAVADY,BT49 0QP,UNKNOWN,271457,424528
CARROWCLARE ROAD,LIMAVADY,BT49 9EB,UNKNOWN,263856,427455
SEACOAST ROAD,LIMAVADY,BT49 0LA,UNKNOWN,267184,432657
POINT ROAD,LIMAVADY,BT49 0LP,UNKNOWN,268185,435021
SEACOAST ROAD,LIMAVADY,BT49 9DW,UNKNOWN,266461,424375
SEACOAST ROAD,LIMAVADY,BT49 9EG,RESIDENTIAL,266164,426874
AGHANLOO ROAD,LIMAVADY,BT49 0HE,UNKNOWN,268225,425759
BOLEA ROAD,LIMAVADY,BT49 0QU,RESIDENTIAL,271802,425980
CARROWCLARE ROAD,LIMAVADY,BT49 9EB,UNKNOWN,263856,427455
DRUMALIEF ROAD,LIMAVADY,BT49 0QS,RESIDENTIAL,271615,425260
SEACOAST ROAD,LIMAVADY,BT49 0LW,UNKNOWN,268627,433938
SEACOAST ROAD,LIMAVADY,BT49 0LF,UNKNOWN,267311,434071
AGHANLOO ROAD,LIMAVADY,BT49 0HY,RESIDENTIAL,267909,428324
AGHANLOO ROAD,LIMAVADY,BT49 0HY,RESIDENTIAL,267909,428324
THE LONGLANDS,LIMAVADY,BT49 0HY,UNKNOWN,267909,428324
CARROWCLARE ROAD,LIMAVADY,BT49 9ED,RESIDENTIAL,266059,427870
CARROWCLARE ROAD,LIMAVADY,BT49 9ED,RESIDENTIAL,266059,427870
AGHANLOO ROAD,LIMAVADY,BT49 9EF,UNKNOWN,266870,428605
AGHANLOO ROAD,LIMAVADY,BTXX XXX,UNKNOWN,268239,425635
WINDYHILL ROAD,ARTIKELLY,BT49 0QX,RESIDENTIAL,270471,426127
WINDYHILL ROAD,ARTIKELLY,BT49 0QY,RESIDENTIAL,270471,426127
BOLEA ROAD,LIMAVADY,BT49 0QT,UNKNOWN,270072,424734
BOLEA ROAD,LIMAVADY,BT49 0QT,UNKNOWN,270072,424734
AGHANLOO ROAD,LIMAVADY,BT49 0HY,UNKNOWN,267909,428324
BENONE AVENUE,LIMAVADY,BT49 0LQ,UNKNOWN,271410,435722
BENONE AVENUE,LIMAVADY,BT49 0LQ,UNKNOWN,271410,435722
BROAD ROAD,LIMAVADY,BT49 0QP,RESIDENTIAL,271457,424528
BROAD ROAD,LIMAVADY,BT49 0QP,RESIDENTIAL,271457,424528
CARROWCLARE ROAD,LIMAVADY,BT49 9EB,UNKNOWN,263856,427455
SEACOAST ROAD,LIMAVADY,BT49 0LF,UNKNOWN,266987,434871
DUNCRUN ROAD,LIMAVADY,BT49 0JD,RESIDENTIAL,267588,431400
POINT ROAD,LIMAVADY,BT49 0LP,UNKNOWN,268239,435035
POINT ROAD,LIMAVADY,BT49 0LP,UNKNOWN,268239,435035
BISHOPS ROAD,CASTLEROCK,BT51 4SE,RESIDENTIAL,273685,435348
BISHOPS ROAD,CASTLEROCK,BT51 4SE,RESIDENTIAL,273704,435440
BISHOPS ROAD,CASTLEROCK,BT51 4SE,RESIDENTIAL,273706,435268
BISHOPS ROAD,CASTLEROCK,BT51 4SE,RESIDENTIAL,273707,435302
BISHOPS ROAD,CASTLEROCK,BT51 4SE,RESIDENTIAL,273720,435473
SEACOAST ROAD,CASTLEROCK,BT51 4SD,UNKNOWN,273839,435937
SEACOAST ROAD,CASTLEROCK,BT51 4SD,RESIDENTIAL,273922,435950
SEACOAST ROAD,CASTLEROCK,BT51 4SD,RESIDENTIAL,273943,435962
SEACOAST ROAD,CASTLEROCK,BT51 4SD,RESIDENTIAL,273964,435969
SEACOAST ROAD,CASTLEROCK,BT51 4SD,COMMERCIAL,273995,435977
SEACOAST ROAD,CASTLEROCK,BT51 4SD,RESIDENTIAL,274014,435980
SEACOAST ROAD,CASTLEROCK,BT51 4SD,RESIDENTIAL,274031,435984
SEACOAST ROAD,CASTLEROCK,BT51 4SD,RESIDENTIAL,274058,435986
SEACOAST ROAD,CASTLEROCK,BT51 4SD,RESIDENTIAL,274078,435989
SEACOAST ROAD,CASTLEROCK,BT51 4SD,RESIDENTIAL,274112,435998
DRUMAGULLY ROAD,CASTLEROCK,BT51 4SF,RESIDENTIAL,274186,434835
BURRENMORE ROAD,CASTLEROCK,BT51 4SG,RESIDENTIAL,274259,433997
BURRENMORE ROAD,CASTLEROCK,BT51 4SG,RESIDENTIAL,274267,434024
BURRENMORE ROAD,CASTLEROCK,BT51 4SG,RESIDENTIAL,274272,433884
BURRENMORE ROAD,CASTLEROCK,BT51 4SG,RESIDENTIAL,274272,433884
BURRENMORE ROAD,CASTLEROCK,BT51 4SG,RESIDENTIAL,274315,434226
SEACOAST ROAD,CASTLEROCK,BT51 4SD,RESIDENTIAL,274342,436043
SEACOAST ROAD,CASTLEROCK,BT51 4SD,RESIDENTIAL,274360,436041
BISHOPS ROAD,CASTLEROCK,BT51 4SE,RESIDENTIAL,274382,435733
SEACOAST ROAD,CASTLEROCK,BT51 4SD,RESIDENTIAL,274387,436048
BURRENMORE ROAD,CASTLEROCK,BT51 4SG,UNKNOWN,274526,434492
SEACOAST ROAD,CASTLEROCK,BT51 4SD,RESIDENTIAL,274528,436066
BALLYHACKETT LANE,CASTLEROCK,BT51 4SU,RESIDENTIAL,274541,432969
SEACOAST ROAD,CASTLEROCK,BT51 4SD,RESIDENTIAL,274547,436066
SEACOAST ROAD,CASTLEROCK,BT51 4SD,UNKNOWN,274607,436072
BALLYHACKETT ROAD,CASTLEROCK,BT51 4SQ,RESIDENTIAL,274713,433986
BALLYHACKETT ROAD,CASTLEROCK,BT51 4SQ,RESIDENTIAL,274727,434028
BURRENMORE ROAD,CASTLEROCK,BT51 4SG,RESIDENTIAL,274739,434525
BALLYHACKETT ROAD,CASTLEROCK,BT51 4SQ,RESIDENTIAL,274745,434001
BURRENMORE ROAD,CASTLEROCK,BT51 4SG,RESIDENTIAL,274748,434528
MUSSENDEN ROAD,CASTLEROCK,BT51 4TU,RESIDENTIAL,277051,434875
FREEHALL ROAD,CASTLEROCK,BT51 4RL,RESIDENTIAL,277056,435638
NORWELL PARK,CASTLEROCK,BT51 4TS,RESIDENTIAL,277060,435863
WARKE PLACE,CASTLEROCK,BT51 4TF,RESIDENTIAL,277061,436119
FREEHALL ROAD,CASTLEROCK,BT51 4RL,RESIDENTIAL,277064,435634
GORTREE PARK,CASTLEROCK,BT51 4RN,RESIDENTIAL,277070,435713
GORTREE PARK,CASTLEROCK,BT51 4RN,RESIDENTIAL,277074,435718
NORWELL PARK,CASTLEROCK,BT51 4TS,RESIDENTIAL,277075,435894
GORTREE PARK,CASTLEROCK,BT51 4RN,RESIDENTIAL,277078,435725
WARKE PLACE,CASTLEROCK,BT51 4TF,RESIDENTIAL,277078,436112
GORTREE PARK,CASTLEROCK,BT51 4RN,RESIDENTIAL,277081,435730
NORWELL PARK,CASTLEROCK,BT51 4TS,RESIDENTIAL,277086,435864
GORTREE PARK,CASTLEROCK,BT51 4RN,RESIDENTIAL,277088,435740
GORTREE PARK,CASTLEROCK,BT51 4TT,RESIDENTIAL,277090,435746
FREEHALL ROAD,CASTLEROCK,BT51 4RL,RESIDENTIAL,277092,435688
FREEHALL ROAD,CASTLEROCK,BT51 4TR,RESIDENTIAL,277092,435841
FREEHALL ROAD,CASTLEROCK,BT51 4TR,RESIDENTIAL,277092,435892
GORTREE PARK,CASTLEROCK,BT51 4TT,RESIDENTIAL,277094,435758
GORTREE PARK,CASTLEROCK,BT51 4TT,RESIDENTIAL,277096,435764
FREEHALL ROAD,CASTLEROCK,BT51 4TR,RESIDENTIAL,277096,435915
BELVEDERE PARK,CASTLEROCK,BT51 4XW,RESIDENTIAL,277097,435619
GORTREE PARK,CASTLEROCK,BT51 4TT,RESIDENTIAL,277097,435772
FREEHALL ROAD,CASTLEROCK,BT51 4TR,RESIDENTIAL,277097,435931
FREEHALL ROAD,CASTLEROCK,BT51 4TR,RESIDENTIAL,277098,435824
FREEHALL ROAD,CASTLEROCK,BT51 4RL,RESIDENTIAL,277099,435700
GORTREE PARK,CASTLEROCK,BT51 4TT,RESIDENTIAL,277099,435778
FREEHALL ROAD,CASTLEROCK,BT51 4TR,RESIDENTIAL,277099,435945
MAIN STREET,CASTLEROCK,BT51 4RF,RESIDENTIAL,277099,436276
MAIN STREET,CASTLEROCK,BT51 4RF,RESIDENTIAL,277100,436241
FREEHALL ROAD,CASTLEROCK,BT51 4TR,RESIDENTIAL,277101,435968
DUNBOE ROAD,COLERAINE,BT51 4JR,UNKNOWN,277103,433598
FREEHALL ROAD,CASTLEROCK,BT51 4RL,RESIDENTIAL,277104,435707
FREEHALL ROAD,CASTLEROCK,BT51 4TR,RESIDENTIAL,277104,435987
FREEHALL ROAD,CASTLEROCK,BT51 4TR,RESIDENTIAL,277106,436004
FREEHALL ROAD,CASTLEROCK,BT51 4TR,RESIDENTIAL,277107,436026
BELVEDERE PARK,CASTLEROCK,BT51 4XW,RESIDENTIAL,277108,435639
FREEHALL ROAD,CASTLEROCK,BT51 4TR,RESIDENTIAL,277108,436053
FREEHALL ROAD,CASTLEROCK,BT51 4TR,RESIDENTIAL,277109,436089
FREEHALL ROAD,CASTLEROCK,BT51 4TR,RESIDENTIAL,277110,436072
MAIN STREET,CASTLEROCK,BT51 4RF,RESIDENTIAL,277110,436236
KNOCKNOUGHER ROAD,COLERAINE,BT51 4JZ,RESIDENTIAL,277114,431967
BELVEDERE AVENUE,CASTLEROCK,BT51 4XD,RESIDENTIAL,277117,435597
BELVEDERE PARK,CASTLEROCK,BT51 4XW,RESIDENTIAL,277117,435653
BELVEDERE PARK,CASTLEROCK,BT51 4XW,RESIDENTIAL,277123,435674
BELVEDERE PARK,CASTLEROCK,BT51 4XW,RESIDENTIAL,277124,435526
MAIN STREET,CASTLEROCK,BT51 4RB,RESIDENTIAL,277125,436158
MAIN STREET,CASTLEROCK,BT51 4RF,RESIDENTIAL,277126,436230
BELVEDERE PARK,CASTLEROCK,BT51 4XW,RESIDENTIAL,277127,435544
BELVEDERE PARK,CASTLEROCK,BT51 4XW,RESIDENTIAL,277131,435588
MAIN STREET,CASTLEROCK,BT51 4RB,RESIDENTIAL,277131,436156
DUNBOE ROAD,CASTLEROCK,BT51 4TB,RESIDENTIAL,277132,434637
DUNBOE ROAD,COLERAINE,BT51 4JR,RESIDENTIAL,277133,432627
DUNBOE ROAD,COLERAINE,BT51 4JR,RESIDENTIAL,277136,433510
BELVEDERE PARK,CASTLEROCK,BT51 4XW,RESIDENTIAL,277136,435620
MAIN STREET,CASTLEROCK,BT51 4RB,RESIDENTIAL,277136,436153
MAIN STREET,CASTLEROCK,BT51 4RB,RESIDENTIAL,277136,436153
MAIN STREET,CASTLEROCK,BT51 4RB,RESIDENTIAL,277136,436153
MAIN STREET,CASTLEROCK,BT51 4RB,RESIDENTIAL,277136,436153
MAIN STREET,CASTLEROCK,BT51 4RB,RESIDENTIAL,277136,436153
BELVEDERE PARK,CASTLEROCK,BT51 4XW,RESIDENTIAL,277137,435561
FREEHALL ROAD,CASTLEROCK,BT51 4TR,RESIDENTIAL,277137,435823
FREEHALL ROAD,CASTLEROCK,BT51 4TR,RESIDENTIAL,277141,435858
FREEHALL ROAD,CASTLEROCK,BT51 4TR,RESIDENTIAL,277142,435832
FREEHALL ROAD,CASTLEROCK,BT51 4TR,RESIDENTIAL,277142,435881
BELVEDERE PARK,CASTLEROCK,BT51 4XW,RESIDENTIAL,277144,435678
MAIN STREET,CASTLEROCK,BT51 4RF,RESIDENTIAL,277144,436223
FREEHALL ROAD,CASTLEROCK,BT51 4TR,RESIDENTIAL,277145,435899
FREEHALL ROAD,CASTLEROCK,BT51 4TR,RESIDENTIAL,277145,435921
BELVEDERE PARK,CASTLEROCK,BT51 4XW,RESIDENTIAL,277148,435636
BABINGTON TERRACE,CASTLEROCK,BT51 4RD,RESIDENTIAL,277148,436146
BELVEDERE PARK,CASTLEROCK,BT51 4XW,RESIDENTIAL,277149,435514
BELVEDERE PARK,CASTLEROCK,BT51 4XW,RESIDENTIAL,277150,435574
CASTLEWALK,CASTLEROCK,BT51 4TP,RESIDENTIAL,277151,435941
BABINGTON TERRACE,CASTLEROCK,BT51 4RD,RESIDENTIAL,277153,436144
BELVEDERE PARK,CASTLEROCK,BT51 4XW,RESIDENTIAL,277159,435669
BABINGTON TERRACE,CASTLEROCK,BT51 4RD,RESIDENTIAL,277159,436142
BELVEDERE PARK,CASTLEROCK,BT51 4XW,RESIDENTIAL,277162,435611
CASTLE PARK,CASTLEROCK,BT51 4TD,RESIDENTIAL,277163,435843
BELVEDERE PARK,CASTLEROCK,BT51 4XW,RESIDENTIAL,277164,435647
BABINGTON TERRACE,CASTLEROCK,BT51 4RD,RESIDENTIAL,277164,436139
CASTLE PARK,CASTLEROCK,BT51 4TD,RESIDENTIAL,277165,435870
BELVEDERE PARK,CASTLEROCK,BT51 4XW,RESIDENTIAL,277169,435505
BALLYHACKETT ROAD,CASTLEROCK,BT51 4SQ,RESIDENTIAL,274775,433902
DRUMAGULLY ROAD,CASTLEROCK,BT51 4SF,RESIDENTIAL,274780,434855
BALLYHACKETT ROAD,CASTLEROCK,BT51 4SQ,RESIDENTIAL,274802,434087
BISHOPS ROAD,CASTLEROCK,BT51 4SE,RESIDENTIAL,274803,435650
BALLYHACKETT ROAD,CASTLEROCK,BT51 4SQ,RESIDENTIAL,274828,434576
BALLYHACKETT ROAD,CASTLEROCK,BT51 4SQ,RESIDENTIAL,274831,434567
BALLYHACKETT ROAD,CASTLEROCK,BT51 4SQ,RESIDENTIAL,274833,434548
BALLYHACKETT ROAD,CASTLEROCK,BT51 4SQ,RESIDENTIAL,274834,434135
BALLYHACKETT ROAD,CASTLEROCK,BT51 4SQ,RESIDENTIAL,274836,434539
SEACOAST ROAD,CASTLEROCK,BT51 4SD,RESIDENTIAL,274844,436090
SEACOAST ROAD,CASTLEROCK,BT51 4SD,RESIDENTIAL,274864,436089
DRUMAGULLY ROAD,CASTLEROCK,BT51 4SF,UNKNOWN,274876,434679
SEACOAST ROAD,CASTLEROCK,BT51 4SD,RESIDENTIAL,274887,436086
BALLYHACKETT ROAD,CASTLEROCK,BT51 4SQ,RESIDENTIAL,274888,433637
SEACOAST ROAD,CASTLEROCK,BT51 4SD,RESIDENTIAL,274901,436087
SEACOAST ROAD,CASTLEROCK,BT51 4SD,RESIDENTIAL,274925,436075
SEACOAST ROAD,CASTLEROCK,BT51 4SD,RESIDENTIAL,274973,436063
SEACOAST ROAD,CASTLEROCK,BT51 4SD,RESIDENTIAL,274975,436070
SEACOAST ROAD,CASTLEROCK,BT51 4SD,RESIDENTIAL,274983,436068
SEACOAST ROAD,CASTLEROCK,BT51 4SD,RESIDENTIAL,274985,436074
SEACOAST ROAD,CASTLEROCK,BT51 4SD,RESIDENTIAL,275008,436086
BALLYHACKETT ROAD,CASTLEROCK,BT51 4SQ,RESIDENTIAL,275015,433520
DRUMAGULLY ROAD,CASTLEROCK,BT51 4SF,RESIDENTIAL,275039,435405
KNOCKNOUGHER ROAD,COLERAINE,BT51 4LA,RESIDENTIAL,275071,431471
BALLYHACKETT ROAD,CASTLEROCK,BT51 4SQ,RESIDENTIAL,275073,433454
BALLYHACKETT LANE,CASTLEROCK,BT51 4SU,RESIDENTIAL,275087,433281
MUSSENDEN ROAD,CASTLEROCK,BT51 4RP,UNKNOWN,275170,436056
BURRENMORE ROAD,CASTLEROCK,BT51 4SA,RESIDENTIAL,275128,434956
BALLYWOODOCK ROAD,CASTLEROCK,BT51 4RT,RESIDENTIAL,275130,434806
BALLYHACKETT LANE,CASTLEROCK,BT51 4SU,RESIDENTIAL,275137,433031
BALLYHACKETT LANE,CASTLEROCK,BT51 4SU,RESIDENTIAL,275140,433040
BALLYWOODOCK ROAD,CASTLEROCK,BT51 4RZ,RESIDENTIAL,275147,434774
BALLYHACKETT ROAD,CASTLEROCK,BT51 4SQ,RESIDENTIAL,275159,433549
MUSSENDEN ROAD,CASTLEROCK,BT51 4RP,MIXED,275117,436074
BALLYHACKETT ROAD,CASTLEROCK,BT51 4SQ,RESIDENTIAL,275188,433486
BALLYHACKETT LANE,CASTLEROCK,BT51 4SU,RESIDENTIAL,275194,433015
MUSSENDEN ROAD,CASTLEROCK,BT51 4RP,RESIDENTIAL,275202,436056
MUSSENDEN ROAD,CASTLEROCK,BT51 4RP,RESIDENTIAL,275233,436045
BALLYHACKETT LANE,CASTLEROCK,BT51 4SU,RESIDENTIAL,275239,433062
MUSSENDEN ROAD,CASTLEROCK,BT51 4RP,RESIDENTIAL,275243,436074
MUSSENDEN ROAD,CASTLEROCK,BT51 4RP,RESIDENTIAL,275267,436065
MUSSENDEN ROAD,CASTLEROCK,BT51 4RP,RESIDENTIAL,275273,436041
ALTIKEERAGH ROAD,COLERAINE,BT51 4SR,RESIDENTIAL,275287,433098
MUSSENDEN ROAD,CASTLEROCK,BT51 4RP,MIXED,275291,436090
MUSSENDEN ROAD,CASTLEROCK,BT51 4RP,MIXED,275291,436090
MUSSENDEN ROAD,CASTLEROCK,BT51 4RP,MIXED,275291,436090
BALLYHACKETT ROAD,CASTLEROCK,BT51 4SQ,RESIDENTIAL,275317,433691
ALTIKEERAGH ROAD,COLERAINE,BT51 4SH,RESIDENTIAL,275345,433992
ALTIKEERAGH ROAD,COLERAINE,BT51 4ST,RESIDENTIAL,275386,432191
ALTIKEERAGH ROAD,COLERAINE,BT51 4SR,RESIDENTIAL,275438,432611
ALTIKEERAGH ROAD,COLERAINE,BT51 4SR,RESIDENTIAL,275438,433104
ALTIKEERAGH ROAD,COLERAINE,BT51 4SH,RESIDENTIAL,275446,433985
ALTIKEERAGH ROAD,COLERAINE,BT51 4SR,RESIDENTIAL,275451,433064
ALTIKEERAGH ROAD,COLERAINE,BT51 4SH,RESIDENTIAL,275451,433943
ALTIKEERAGH ROAD,COLERAINE,BT51 4SH,RESIDENTIAL,275453,433800
ALTIKEERAGH LANE,CASTLEROCK,BT51 4SS,RESIDENTIAL,275462,432421
ALTIKEERAGH ROAD,COLERAINE,BT51 4SH,RESIDENTIAL,275466,433908
ALTIKEERAGH ROAD,COLERAINE,BT51 4SH,RESIDENTIAL,275469,433875
BURRENMORE ROAD,CASTLEROCK,BT51 4SA,RESIDENTIAL,275473,435369
ALTIKEERAGH ROAD,CASTLEROCK,BT51 4SR,COMMERCIAL,275491,433025
ALTIKEERAGH ROAD,COLERAINE,BT51 4SH,RESIDENTIAL,275494,433719
ALTIKEERAGH ROAD,COLERAINE,BT51 4SH,RESIDENTIAL,275496,433871
ALTIKEERAGH LANE,CASTLEROCK,BT51 4SS,RESIDENTIAL,275519,432447
ALTIKEERAGH ROAD,COLERAINE,BT51 4SH,RESIDENTIAL,275522,433839
KNOCKNOUGHER ROAD,COLERAINE,BT51 4LA,RESIDENTIAL,275536,431443
BALLYWOODOCK ROAD,CASTLEROCK,BT51 4RX,RESIDENTIAL,275539,434616
SPRINGBANK ROAD,CASTLEROCK,BT51 4SB,RESIDENTIAL,275554,435287
ALTIKEERAGH LANE,CASTLEROCK,BT51 4SS,RESIDENTIAL,275556,432441
MUSSENDEN ROAD,CASTLEROCK,BT51 4RP,UNKNOWN,275593,435854
ARTIDILLON ROAD,CASTLEROCK,BT51 4SP,RESIDENTIAL,275624,433119
ALTIKEERAGH LANE,CASTLEROCK,BT51 4SS,RESIDENTIAL,275763,431997
ALTIKEERAGH LANE,CASTLEROCK,BT51 4SS,RESIDENTIAL,275773,432050
ARTIDILLON ROAD,CASTLEROCK,BT51 4SP,RESIDENTIAL,275784,433227
ALTIKEERAGH LANE,CASTLEROCK,BT51 4SS,UNKNOWN,275799,431930
ARTIDILLON ROAD,CASTLEROCK,BT51 4SP,RESIDENTIAL,275799,433617
SPRINGBANK ROAD,CASTLEROCK,BT51 4RU,RESIDENTIAL,275812,434580
SPRINGBANK ROAD,CASTLEROCK,BT51 4RU,RESIDENTIAL,275813,434574
BALLYWOODOCK ROAD,CASTLEROCK,BT51 4RT,RESIDENTIAL,275832,434535
BALLYWOODOCK ROAD,CASTLEROCK,BT51 4RT,RESIDENTIAL,275837,434535
BALLYWOODOCK CRESCENT,CASTLEROCK,BT51 4RS,RESIDENTIAL,275855,434526
BALLYWOODOCK CRESCENT,CASTLEROCK,BT51 4RS,RESIDENTIAL,275861,434527
ARTIDILLON ROAD,CASTLEROCK,BT51 4SP,RESIDENTIAL,275863,432923
BALLYWOODOCK CRESCENT,CASTLEROCK,BT51 4RS,RESIDENTIAL,275869,434538
BALLYWOODOCK CRESCENT,CASTLEROCK,BT51 4RS,RESIDENTIAL,275871,434543
BALLYWOODOCK CRESCENT,CASTLEROCK,BT51 4RS,RESIDENTIAL,275882,434554
BALLYWOODOCK CRESCENT,CASTLEROCK,BT51 4RS,RESIDENTIAL,275888,434554
BALLYWOODOCK CRESCENT,CASTLEROCK,BT51 4RS,RESIDENTIAL,275895,434556
BALLYWOODOCK CRESCENT,CASTLEROCK,BT51 4RS,RESIDENTIAL,275901,434555
BALLYWOODOCK CRESCENT,CASTLEROCK,BT51 4RS,RESIDENTIAL,275909,434563
BALLYWOODOCK CRESCENT,CASTLEROCK,BT51 4RS,RESIDENTIAL,275913,434567
BALLYWOODOCK CRESCENT,CASTLEROCK,BT51 4RS,RESIDENTIAL,275920,434576
BALLYWOODOCK CRESCENT,CASTLEROCK,BT51 4RS,RESIDENTIAL,275926,434583
BALLYMADIGAN TERRACE,CASTLEROCK,BT51 4SN,RESIDENTIAL,275938,434412
BALLYMADIGAN TERRACE,CASTLEROCK,BT51 4SN,RESIDENTIAL,275939,434405
BALLYMADIGAN TERRACE,CASTLEROCK,BT51 4SN,RESIDENTIAL,275943,434378
BALLYMADIGAN TERRACE,CASTLEROCK,BT51 4SN,RESIDENTIAL,275945,434371
BALLYMADIGAN TERRACE,CASTLEROCK,BT51 4SN,RESIDENTIAL,275948,434352
BALLYMADIGAN TERRACE,CASTLEROCK,BT51 4SN,RESIDENTIAL,275949,434343
MUSSENDEN ROAD,CASTLEROCK,BT51 4RP,COMMERCIAL,275977,435521
ARTIDILLON ROAD,CASTLEROCK,BT51 4SP,RESIDENTIAL,275990,433424
BALLYWOODOCK ROAD,CASTLEROCK,BT51 4SL,RESIDENTIAL,275990,434442
GLEBE ROAD,CASTLEROCK,BT51 4SW,RESIDENTIAL,276001,434044
GLEBE ROAD,CASTLEROCK,BT51 4SW,RESIDENTIAL,276035,433855
GLEBE ROAD,CASTLEROCK,BT51 4SW,COMMERCIAL,276068,433770
GLEBE ROAD,CASTLEROCK,BT51 4SW,UNKNOWN,276099,433512
MUSSENDEN ROAD,CASTLEROCK,BT51 4RP,RESIDENTIAL,276118,435425
MUSSENDEN ROAD,CASTLEROCK,BT51 4RP,RESIDENTIAL,276133,435472
BALLYMADIGAN ROAD,CASTLEROCK,BT51 4RR,RESIDENTIAL,276182,434753
GLEBE ROAD,CASTLEROCK,BT51 4SW,RESIDENTIAL,276191,433420
BALLYMADIGAN ROAD,CASTLEROCK,BT51 4RR,RESIDENTIAL,276197,434749
GLEBE ROAD,CASTLEROCK,BT51 4SW,RESIDENTIAL,276206,433389
GLEBE ROAD,CASTLEROCK,BT51 4SW,RESIDENTIAL,276227,433342
KNOCKNOUGHER ROAD,COLERAINE,BT51 4JZ,RESIDENTIAL,276231,431524
KNOCKNOUGHER ROAD,COLERAINE,BT51 4JZ,RESIDENTIAL,276246,431550
BALLYWOODOCK ROAD,CASTLEROCK,BT51 4SL,RESIDENTIAL,276283,434227
BALLYWOODOCK ROAD,CASTLEROCK,BT51 4SL,RESIDENTIAL,276285,434238
MUSSENDEN ROAD,CASTLEROCK,BT51 4RP,RESIDENTIAL,276309,435370
BALLYWOODOCK ROAD,CASTLEROCK,BT51 4SL,RESIDENTIAL,276380,434322
GLEBE ROAD,CASTLEROCK,BT51 4SW,RESIDENTIAL,276416,432376
ARTIDILLON ROAD,CASTLEROCK,BT51 4SX,RESIDENTIAL,276423,433790
ARTIDILLON ROAD,CASTLEROCK,BT51 4SX,RESIDENTIAL,276485,433775
TUNNEL BRAE,CASTLEROCK,BT51 4RH,RESIDENTIAL,276487,436117
ARTIDILLON ROAD,CASTLEROCK,BT51 4SX,RESIDENTIAL,276508,433745
BALLYMADIGAN ROAD,CASTLEROCK,BT51 4RR,RESIDENTIAL,276556,434965
BALLYMADIGAN ROAD,CASTLEROCK,BT51 4RR,RESIDENTIAL,276573,434989
BALLYMADIGAN ROAD,CASTLEROCK,BT51 4RR,UNKNOWN,276583,435029
BALLYMADIGAN ROAD,CASTLEROCK,BT51 4RR,RESIDENTIAL,276601,435003
BALLYMADIGAN ROAD,CASTLEROCK,BT51 4RR,RESIDENTIAL,276607,435026
BALLYWOODOCK ROAD,CASTLEROCK,BT51 4SL,RESIDENTIAL,276610,434258
BALLYMADIGAN ROAD,CASTLEROCK,BT51 4WD,RESIDENTIAL,276642,435092
GLEBE CRESCENT,CASTLEROCK,BT51 4SY,RESIDENTIAL,276648,433901
GLEBE CRESCENT,CASTLEROCK,BT51 4SY,RESIDENTIAL,276656,433906
ARTIDILLON ROAD,CASTLEROCK,BT51 4SX,RESIDENTIAL,276664,433860
GLEBE CRESCENT,CASTLEROCK,BT51 4SY,RESIDENTIAL,276665,433918
BALLYMADIGAN ROAD,CASTLEROCK,BT51 4RR,RESIDENTIAL,276665,435046
GLEBE CRESCENT,CASTLEROCK,BT51 4SY,RESIDENTIAL,276671,433927
GLEBE CRESCENT,CASTLEROCK,BT51 4SY,RESIDENTIAL,276677,433940
GLEBE CRESCENT,CASTLEROCK,BT51 4SY,RESIDENTIAL,276681,433949
GLEBE ROAD,CASTLEROCK,BT51 4SW,RESIDENTIAL,276689,432653
GLEBE CRESCENT,CASTLEROCK,BT51 4SY,RESIDENTIAL,276694,433957
MUSSENDEN ROAD,CASTLEROCK,BT51 4RW,RESIDENTIAL,276694,435085
ARTIDILLON ROAD,CASTLEROCK,BT51 4SX,RESIDENTIAL,276696,433875
CLIFF TERRACE,CASTLEROCK,BT51 4RQ,RESIDENTIAL,276701,436113
GLEBE CRESCENT,CASTLEROCK,BT51 4SY,RESIDENTIAL,276705,433952
CLIFF TERRACE,CASTLEROCK,BT51 4RQ,RESIDENTIAL,276705,436113
CLIFF TERRACE,CASTLEROCK,BT51 4RQ,RESIDENTIAL,276709,436114
CLIFF TERRACE,CASTLEROCK,BT51 4RQ,RESIDENTIAL,276714,436114
CLIFF TERRACE,CASTLEROCK,BT51 4RQ,RESIDENTIAL,276718,436114
CARNEETY TERRACE,CASTLEROCK,BT51 4SZ,RESIDENTIAL,276720,433906
GLEBE CRESCENT,CASTLEROCK,BT51 4SY,RESIDENTIAL,276722,433955
CLIFF TERRACE,CASTLEROCK,BT51 4RQ,COMMERCIAL,276722,436114
CLIFF TERRACE,CASTLEROCK,BT51 4RQ,RESIDENTIAL,276726,436115
CARNEETY TERRACE,CASTLEROCK,BT51 4SZ,RESIDENTIAL,276730,433902
GLEBE CRESCENT,CASTLEROCK,BT51 4SY,RESIDENTIAL,276730,433959
CLIFF TERRACE,CASTLEROCK,BT51 4RQ,RESIDENTIAL,276731,436116
CLIFF TERRACE,CASTLEROCK,BT51 4RQ,RESIDENTIAL,276735,436115
CLIFF TERRACE,CASTLEROCK,BT51 4RQ,RESIDENTIAL,276739,436115
CARNEETY TERRACE,CASTLEROCK,BT51 4SZ,RESIDENTIAL,276741,433926
MUSSENDEN ROAD,CASTLEROCK,BT51 4RW,RESIDENTIAL,276741,435050
GLEBE CRESCENT,CASTLEROCK,BT51 4SY,RESIDENTIAL,276742,433968
CLIFF TERRACE,CASTLEROCK,BT51 4RQ,RESIDENTIAL,276743,436109
CARNEETY TERRACE,CASTLEROCK,BT51 4SZ,RESIDENTIAL,276746,433926
GLEBE CRESCENT,CASTLEROCK,BT51 4SY,RESIDENTIAL,276749,433975
CLIFF TERRACE,CASTLEROCK,BT51 4RQ,RESIDENTIAL,276749,436109
CARNEETY TERRACE,CASTLEROCK,BT51 4SZ,RESIDENTIAL,276763,433945
SCHOOL LANE,CASTLEROCK,BT51 4RJ,RESIDENTIAL,276763,435973
CARNEETY TERRACE,CASTLEROCK,BT51 4SZ,RESIDENTIAL,276768,433948
SCHOOL LANE,CASTLEROCK,BT51 4RJ,RESIDENTIAL,276769,435974
ARTIDILLON ROAD,CASTLEROCK,BTXX XXX,COMMERCIAL,276776,434063
MUSSENDEN ROAD,CASTLEROCK,BT51 4RW,RESIDENTIAL,276782,435040
CARNEETY TERRACE,CASTLEROCK,BT51 4SZ,RESIDENTIAL,276787,433968
CARNEETY TERRACE,CASTLEROCK,BT51 4SZ,RESIDENTIAL,276792,433968
BALLYWOODOCK ROAD,CASTLEROCK,BT51 4SL,RESIDENTIAL,276803,434268
TUNNEL BRAE,CASTLEROCK,BT51 4RH,UNKNOWN,276804,436249
ARTIDILLON ROAD,CASTLEROCK,BT51 4SX,RESIDENTIAL,276812,433983
SCHOOL LANE,CASTLEROCK,BT51 4RJ,RESIDENTIAL,276816,435978
KNOCKNOUGHER ROAD,COLERAINE,BT51 4JZ,RESIDENTIAL,276827,432080
ARTIDILLON ROAD,CASTLEROCK,BT51 4SX,RESIDENTIAL,276831,434005
DUNBOE ROAD,CASTLEROCK,BT51 4TB,RESIDENTIAL,276838,434286
STRANDVIEW COTTAGES,CASTLEROCK,BT51 4XS,RESIDENTIAL,276844,436163
BRUCE PARK,CASTLEROCK,BT51 4TQ,RESIDENTIAL,276845,435940
DUNBOE ROAD,CASTLEROCK,BT51 4TA,RESIDENTIAL,276846,433985
BRUCE PARK,CASTLEROCK,BT51 4TQ,RESIDENTIAL,276846,435967
STRANDVIEW COTTAGES,CASTLEROCK,BT51 4XS,RESIDENTIAL,276852,436156
DUNBOE ROAD,CASTLEROCK,BT51 4TA,RESIDENTIAL,276854,433960
BRUCE PARK,CASTLEROCK,BT51 4TQ,RESIDENTIAL,276855,435918
STRANDVIEW COTTAGES,CASTLEROCK,BT51 4XS,RESIDENTIAL,276861,436145
BRUCE PARK,CASTLEROCK,BT51 4TQ,RESIDENTIAL,276864,435893
STRANDVIEW COTTAGES,CASTLEROCK,BT51 4XS,RESIDENTIAL,276867,436132
BRUCE PARK,CASTLEROCK,BT51 4TQ,RESIDENTIAL,276870,435878
STRANDVIEW COTTAGES,CASTLEROCK,BT51 4XS,RESIDENTIAL,276871,436118
BRUCE PARK,CASTLEROCK,BT51 4TQ,RESIDENTIAL,276878,435859
STRANDVIEW COTTAGES,CASTLEROCK,BT51 4XS,RESIDENTIAL,276881,436109
BRUCE PARK,CASTLEROCK,BT51 4TQ,RESIDENTIAL,276882,435853
SEAPARK,CASTLEROCK,BT51 4TH,RESIDENTIAL,276882,436005
BRUCE PARK,CASTLEROCK,BT51 4TQ,RESIDENTIAL,276886,435840
DUNBOE ROAD,CASTLEROCK,BT51 4TA,RESIDENTIAL,276888,434074
BRUCE PARK,CASTLEROCK,BT51 4TQ,RESIDENTIAL,276889,435833
SEAPARK,CASTLEROCK,BT51 4TH,RESIDENTIAL,276892,435958
BRUCE PARK,CASTLEROCK,BT51 4TQ,RESIDENTIAL,276893,435807
SEAPARK,CASTLEROCK,BT51 4TH,RESIDENTIAL,276901,435941
SEAPARK,CASTLEROCK,BT51 4TH,RESIDENTIAL,276904,436042
MUSSENDEN ROAD,CASTLEROCK,BT51 4RW,RESIDENTIAL,276905,434785
BRUCE PARK,CASTLEROCK,BT51 4TQ,RESIDENTIAL,276907,435812
SEAPARK,CASTLEROCK,BT51 4TH,RESIDENTIAL,276909,436012
SEAPARK,CASTLEROCK,BT51 4TH,RESIDENTIAL,276910,435925
SEAPARK,CASTLEROCK,BT51 4TH,RESIDENTIAL,276910,435991
BRUCE PARK,CASTLEROCK,BT51 4TQ,RESIDENTIAL,276913,435815
TEMPLE PARK,CASTLEROCK,BT51 4TE,RESIDENTIAL,276917,435758
TEMPLE PARK,CASTLEROCK,BT51 4TE,RESIDENTIAL,276917,435776
WARKE PLACE,CASTLEROCK,BT51 4TF,RESIDENTIAL,276918,436162
TEMPLE PARK,CASTLEROCK,BT51 4TE,RESIDENTIAL,276919,435749
TEMPLE PARK,CASTLEROCK,BT51 4TE,RESIDENTIAL,276919,435784
NORWELL PARK,CASTLEROCK,BT51 4TS,RESIDENTIAL,276920,435863
SEAPARK,CASTLEROCK,BT51 4TH,RESIDENTIAL,276920,435911
SEAPARK,CASTLEROCK,BT51 4TH,RESIDENTIAL,276920,435973
DUNBOE ROAD,CASTLEROCK,BT51 4TA,RESIDENTIAL,276922,433951
FREEHALL ROAD,CASTLEROCK,BT51 4RL,RESIDENTIAL,276923,435568
TEMPLE PARK,CASTLEROCK,BT51 4TE,RESIDENTIAL,276924,435736
WARKE PLACE,CASTLEROCK,BT51 4TF,RESIDENTIAL,276925,436169
WARKE PLACE,CASTLEROCK,BT51 4TF,RESIDENTIAL,276926,436140
TEMPLE PARK,CASTLEROCK,BT51 4TE,RESIDENTIAL,276927,435731
SEAPARK,CASTLEROCK,BT51 4TH,RESIDENTIAL,276929,435954
NORWELL PARK,CASTLEROCK,BT51 4TS,RESIDENTIAL,276931,435824
SEAPARK,CASTLEROCK,BT51 4TH,RESIDENTIAL,276931,435893
SEAPARK,CASTLEROCK,BT51 4TH,RESIDENTIAL,276932,436055
TEMPLE PARK,CASTLEROCK,BT51 4TE,RESIDENTIAL,276933,435720
WARKE PLACE,CASTLEROCK,BT51 4TF,RESIDENTIAL,276934,436133
TEMPLE PARK,CASTLEROCK,BT51 4TE,RESIDENTIAL,276935,435714
SEAPARK,CASTLEROCK,BT51 4TH,RESIDENTIAL,276935,436022
TEMPLE PARK,CASTLEROCK,BT51 4TE,RESIDENTIAL,276937,435676
TEMPLE PARK,CASTLEROCK,BT51 4TE,RESIDENTIAL,276937,435703
TEMPLE PARK,CASTLEROCK,BT51 4TE,RESIDENTIAL,276938,435670
TEMPLE PARK,CASTLEROCK,BT51 4TE,RESIDENTIAL,276940,435699
NORWELL PARK,CASTLEROCK,BT51 4TS,RESIDENTIAL,276940,435868
TEMPLE PARK,CASTLEROCK,BT51 4TE,RESIDENTIAL,276941,435664
SEAPARK,CASTLEROCK,BT51 4TH,RESIDENTIAL,276941,436003
TEMPLE PARK,CASTLEROCK,BT51 4TE,RESIDENTIAL,276942,435694
TEMPLE PARK,CASTLEROCK,BT51 4TE,RESIDENTIAL,276943,435689
SEAPARK,CASTLEROCK,BT51 4TH,RESIDENTIAL,276945,435982
NORWELL PARK,CASTLEROCK,BT51 4TS,RESIDENTIAL,276948,435829
FREEHALL ROAD,CASTLEROCK,BT51 4RL,RESIDENTIAL,276949,435584
SEAPARK,CASTLEROCK,BT51 4TH,RESIDENTIAL,276949,435935
SEAPARK,CASTLEROCK,BT51 4TH,RESIDENTIAL,276949,436069
WARKE PLACE,CASTLEROCK,BT51 4TF,RESIDENTIAL,276953,436128
TEMPLE PARK,CASTLEROCK,BT51 4TE,RESIDENTIAL,276956,435660
FREEHALL ROAD,CASTLEROCK,BT51 4RL,RESIDENTIAL,276957,435587
WARKE PLACE,CASTLEROCK,BT51 4TF,RESIDENTIAL,276957,436157
SEAPARK,CASTLEROCK,BT51 4TH,RESIDENTIAL,276958,435961
TEMPLE PARK,CASTLEROCK,BT51 4TE,RESIDENTIAL,276959,435652
WARKE PLACE,CASTLEROCK,BT51 4TF,RESIDENTIAL,276962,436131
TEMPLE PARK,CASTLEROCK,BT51 4TE,RESIDENTIAL,276966,435709
WARKE PLACE,CASTLEROCK,BT51 4TF,RESIDENTIAL,276966,436160
FREEHALL ROAD,CASTLEROCK,BT51 4RL,RESIDENTIAL,276969,435592
NORWELL PARK,CASTLEROCK,BT51 4TS,RESIDENTIAL,276969,435832
FREEHALL PARK,CASTLEROCK,BT51 4UT,UNKNOWN,276970,435787
MUSSENDEN ROAD,CASTLEROCK,BT51 4RW,RESIDENTIAL,276971,434869
SEAPARK,CASTLEROCK,BT51 4TH,RESIDENTIAL,276971,436080
TEMPLE PARK,CASTLEROCK,BT51 4TE,RESIDENTIAL,276972,435712
SEAPARK,CASTLEROCK,BT51 4TH,RESIDENTIAL,276972,435905
SEAPARK,CASTLEROCK,BT51 4TH,RESIDENTIAL,276972,436031
SEAPARK,CASTLEROCK,BT51 4TH,RESIDENTIAL,276973,435941
SEAPARK,CASTLEROCK,BT51 4TH,RESIDENTIAL,276975,436012
FREEHALL ROAD,CASTLEROCK,BT51 4RL,RESIDENTIAL,276977,435596
TEMPLE PARK,CASTLEROCK,BT51 4TE,RESIDENTIAL,276978,435714
NORWELL PARK,CASTLEROCK,BT51 4TS,RESIDENTIAL,276978,435876
WARKE PLACE,CASTLEROCK,BT51 4TF,RESIDENTIAL,276979,436135
TEMPLE PARK,CASTLEROCK,BT51 4TE,RESIDENTIAL,276980,435656
SEAPARK,CASTLEROCK,BT51 4TH,RESIDENTIAL,276981,436102
TEMPLE PARK,CASTLEROCK,BT51 4TE,RESIDENTIAL,276982,435648
SEAPARK,CASTLEROCK,BT51 4TH,RESIDENTIAL,276983,435994
SEAPARK,CASTLEROCK,BT51 4TH,RESIDENTIAL,276985,435970
NORWELL PARK,CASTLEROCK,BT51 4TS,RESIDENTIAL,276986,435837
WARKE PLACE,CASTLEROCK,BT51 4TF,RESIDENTIAL,276988,436138
SEAPARK,CASTLEROCK,BT51 4TH,RESIDENTIAL,276990,435909
SEAPARK,CASTLEROCK,BT51 4TH,RESIDENTIAL,276991,435944
FREEHALL ROAD,CASTLEROCK,BT51 4RL,UNKNOWN,276992,435617
NORWELL PARK,CASTLEROCK,BT51 4TS,RESIDENTIAL,276994,435879
TEMPLE PARK,CASTLEROCK,BT51 4TE,RESIDENTIAL,276996,435663
SEAPARK,CASTLEROCK,BT51 4TH,RESIDENTIAL,276996,436039
FREEHALL ROAD,CASTLEROCK,BT51 4RL,RESIDENTIAL,276998,435617
FREEHALL ROAD,CASTLEROCK,BT51 4RL,RESIDENTIAL,276999,435587
SEAPARK,CASTLEROCK,BT51 4TH,RESIDENTIAL,277000,436107
TEMPLE PARK,CASTLEROCK,BT51 4TE,RESIDENTIAL,277001,435664
SEAPARK,CASTLEROCK,BT51 4TH,RESIDENTIAL,277003,436018
WARKE PLACE,CASTLEROCK,BT51 4TF,RESIDENTIAL,277004,436140
NORWELL PARK,CASTLEROCK,BT51 4TS,RESIDENTIAL,277005,435842
TEMPLE PARK,CASTLEROCK,BT51 4TE,RESIDENTIAL,277006,435665
SEAPARK,CASTLEROCK,BT51 4TH,RESIDENTIAL,277006,435981
SEAPARK,CASTLEROCK,BT51 4TH,RESIDENTIAL,277006,436004
SEAPARK,CASTLEROCK,BT51 4TH,RESIDENTIAL,277010,435913
TEMPLE PARK,CASTLEROCK,BT51 4TE,RESIDENTIAL,277011,435667
NORWELL PARK,CASTLEROCK,BT51 4TS,RESIDENTIAL,277013,435888
SEAPARK,CASTLEROCK,BT51 4TH,RESIDENTIAL,277014,435949
TEMPLE PARK,CASTLEROCK,BT51 4TE,RESIDENTIAL,277016,435668
SEAPARK,CASTLEROCK,BT51 4TH,RESIDENTIAL,277019,436070
TEMPLE PARK,CASTLEROCK,BT51 4TE,RESIDENTIAL,277020,435670
NORWELL PARK,CASTLEROCK,BT51 4TS,RESIDENTIAL,277022,435850
SEAPARK,CASTLEROCK,BT51 4TH,RESIDENTIAL,277022,436118
SEAPARK,CASTLEROCK,BT51 4TH,RESIDENTIAL,277026,436050
SEAPARK,CASTLEROCK,BT51 4TH,RESIDENTIAL,277034,436029
SEAPARK,CASTLEROCK,BT51 4TH,RESIDENTIAL,277038,436117
SEAPARK,CASTLEROCK,BT51 4TH,RESIDENTIAL,277040,436014
NORWELL PARK,CASTLEROCK,BT51 4TS,RESIDENTIAL,277042,435855
SEAPARK,CASTLEROCK,BT51 4TH,RESIDENTIAL,277043,435941
SEAPARK,CASTLEROCK,BT51 4TH,RESIDENTIAL,277045,435920
SEAPARK,CASTLEROCK,BT51 4TH,RESIDENTIAL,277046,435997
SEAPARK,CASTLEROCK,BT51 4TH,RESIDENTIAL,277047,435960
SEAPARK,CASTLEROCK,BT51 4TH,RESIDENTIAL,277048,435982
NORWELL PARK,CASTLEROCK,BT51 4TS,RESIDENTIAL,277050,435894
CASTLE PARK,CASTLEROCK,BT51 4TD,RESIDENTIAL,277170,435877
CASTLEWALK,CASTLEROCK,BT51 4TP,RESIDENTIAL,277171,435923
BELVEDERE PARK,CASTLEROCK,BT51 4XW,RESIDENTIAL,277173,435548
BELVEDERE PARK,CASTLEROCK,BT51 4XW,RESIDENTIAL,277173,435596
MAIN STREET,CASTLEROCK,BT51 4RF,RESIDENTIAL,277174,436210
CASTLE PARK,CASTLEROCK,BT51 4TD,RESIDENTIAL,277178,435887
MAIN STREET,CASTLEROCK,BT51 4RF,RESIDENTIAL,277181,436207
BELVEDERE PARK,CASTLEROCK,BT51 4XW,RESIDENTIAL,277183,435568
CASTLE PARK,CASTLEROCK,BT51 4TD,RESIDENTIAL,277183,435895
BELVEDERE PARK,CASTLEROCK,BT51 4XW,RESIDENTIAL,277190,435499
BELVEDERE PARK,CASTLEROCK,BT51 4XW,RESIDENTIAL,277194,435594
CASTLEWALK,CASTLEROCK,BT51 4TP,RESIDENTIAL,277194,435909
BELVEDERE PARK,CASTLEROCK,BT51 4XW,RESIDENTIAL,277196,435521
BELVEDERE PARK,CASTLEROCK,BT51 4XW,RESIDENTIAL,277197,435537
BELVEDERE PARK,CASTLEROCK,BT51 4XW,RESIDENTIAL,277204,435654
BELVEDERE PARK,CASTLEROCK,BT51 4XW,RESIDENTIAL,277206,435495
CASTLEWALK,CASTLEROCK,BT51 4TP,RESIDENTIAL,277206,435805
BELVEDERE PARK,CASTLEROCK,BT51 4XW,RESIDENTIAL,277208,435558
BELVEDERE PARK,CASTLEROCK,BT51 4XW,RESIDENTIAL,277214,435591
SEA ROAD,CASTLEROCK,BT51 4TW,RESIDENTIAL,277216,435021
BELVEDERE PARK,CASTLEROCK,BT51 4XW,RESIDENTIAL,277218,435515
BELVEDERE PARK,CASTLEROCK,BT51 4XW,RESIDENTIAL,277219,435657
BELVEDERE PARK,CASTLEROCK,BT51 4XW,COMMERCIAL,277223,435479
BELVEDERE PARK,CASTLEROCK,BT51 4XW,RESIDENTIAL,277224,435535
BELVEDERE PARK,CASTLEROCK,BT51 4XW,RESIDENTIAL,277228,435555
BELVEDERE PARK,CASTLEROCK,BT51 4XW,RESIDENTIAL,277230,435590
BELVEDERE PARK,CASTLEROCK,BT51 4XW,RESIDENTIAL,277240,435673
BELVEDERE PARK,CASTLEROCK,BT51 4XW,RESIDENTIAL,277241,435648
BELVEDERE PARK,CASTLEROCK,BT51 4XW,RESIDENTIAL,277242,435473
CASTLEWALK,CASTLEROCK,BT51 4TP,RESIDENTIAL,277253,435830
DUNBOE ROAD,COLERAINE,BT51 4JR,UNKNOWN,277256,433294
BELVEDERE PARK,CASTLEROCK,BT51 4XW,RESIDENTIAL,277256,435486
BELVEDERE PARK,CASTLEROCK,BT51 4XW,RESIDENTIAL,277256,435514
BELVEDERE PARK,CASTLEROCK,BT51 4XW,RESIDENTIAL,277256,435687
DUNBOE ROAD,COLERAINE,BT51 4JR,UNKNOWN,277258,433290
BELVEDERE PARK,CASTLEROCK,BT51 4XW,RESIDENTIAL,277263,435551
BELVEDERE PARK,CASTLEROCK,BT51 4XW,UNKNOWN,277266,435609
BELVEDERE PARK,CASTLEROCK,BT51 4XW,RESIDENTIAL,277267,435577
SEA ROAD,CASTLEROCK,BT51 4TW,RESIDENTIAL,277273,434902
BELVEDERE PARK,CASTLEROCK,BT51 4XW,RESIDENTIAL,277273,435637
CASTLEWALK,CASTLEROCK,BT51 4TP,RESIDENTIAL,277274,435817
BELVEDERE PARK,CASTLEROCK,BT51 4XW,RESIDENTIAL,277277,435655
BELVEDERE PARK,CASTLEROCK,BT51 4XW,RESIDENTIAL,277277,435694
BELVEDERE PARK,CASTLEROCK,BT51 4XW,RESIDENTIAL,277279,435672
CASTLEWALK,CASTLEROCK,BT51 4TP,RESIDENTIAL,277280,435769
MUSSENDEN ROAD,CASTLEROCK,BT51 4TX,RESIDENTIAL,277292,434860
SEA ROAD,CASTLEROCK,BT51 4TW,RESIDENTIAL,277296,435595
SEA ROAD,CASTLEROCK,BT51 4TW,COMMERCIAL,277298,435616
SEA ROAD,CASTLEROCK,BT51 4TW,RESIDENTIAL,277299,435633
SEA ROAD,CASTLEROCK,BT51 4TW,RESIDENTIAL,277300,435062
CASTLEWALK,CASTLEROCK,BT51 4TP,RESIDENTIAL,277305,435804
SEA ROAD,CASTLEROCK,BT51 4TW,RESIDENTIAL,277308,435083
SEA ROAD,CASTLEROCK,BT51 4TW,RESIDENTIAL,277309,435092
STABLE LANE,CASTLEROCK,BT51 4HD,RESIDENTIAL,277312,436010
MUSSENDEN ROAD,CASTLEROCK,BT51 4TX,RESIDENTIAL,277318,434816
SEA ROAD,CASTLEROCK,BT51 4TW,RESIDENTIAL,277319,435718
SEA ROAD,CASTLEROCK,BT51 4TW,RESIDENTIAL,277324,435733
SEA ROAD,CASTLEROCK,BT51 4TW,RESIDENTIAL,277329,435757
SEA ROAD,CASTLEROCK,BT51 4TW,RESIDENTIAL,277330,435448
KNOCKNOUGHER ROAD,COLERAINE,BT51 4JZ,RESIDENTIAL,277332,431992
SEA ROAD,CASTLEROCK,BT51 4TW,RESIDENTIAL,277334,435479
SEA ROAD,CASTLEROCK,BT51 4TW,RESIDENTIAL,277334,435779
SEA ROAD,CASTLEROCK,BT51 4TW,RESIDENTIAL,277335,435800
SEA ROAD,CASTLEROCK,BT51 4TW,RESIDENTIAL,277338,435418
SEA ROAD,CASTLEROCK,BT51 4TW,RESIDENTIAL,277340,435508
MUSSENDEN ROAD,ARTICLAVE,BT51 4TX,RESIDENTIAL,277341,434202
SEA ROAD,CASTLEROCK,BT51 4TW,RESIDENTIAL,277342,435826
SEA ROAD,CASTLEROCK,BT51 4TW,RESIDENTIAL,277343,435820
SEA ROAD,CASTLEROCK,BT51 4TL,UNKNOWN,277345,436021
SEA ROAD,CASTLEROCK,BT51 4TN,RESIDENTIAL,277346,435862
SEA ROAD,CASTLEROCK,BT51 4TN,RESIDENTIAL,277349,435873
SEA ROAD,CASTLEROCK,BT51 4TN,RESIDENTIAL,277349,435879
SEA ROAD,CASTLEROCK,BT51 4TN,RESIDENTIAL,277350,435885
SEA ROAD,CASTLEROCK,BT51 4TW,RESIDENTIAL,277352,435600
SEA ROAD,CASTLEROCK,BT51 4TN,RESIDENTIAL,277352,435891
SEA ROAD,CASTLEROCK,BT51 4TN,RESIDENTIAL,277352,435897
SEA ROAD,CASTLEROCK,BT51 4TN,UNKNOWN,277353,435903
SEA ROAD,CASTLEROCK,BT51 4TN,COMMERCIAL,277353,435916
SEA ROAD,CASTLEROCK,BT51 4TN,COMMERCIAL,277353,435916
SEA ROAD,CASTLEROCK,BT51 4TN,RESIDENTIAL,277353,435942
SEA ROAD,CASTLEROCK,BT51 4TN,RESIDENTIAL,277355,435927
SEA ROAD,CASTLEROCK,BT51 4TW,RESIDENTIAL,277356,435624
SEA ROAD,CASTLEROCK,BT51 4TW,RESIDENTIAL,277357,435645
SEA ROAD,CASTLEROCK,BT51 4TN,RESIDENTIAL,277357,435933
SEA ROAD,CASTLEROCK,BT51 4TN,RESIDENTIAL,277358,435948
LIFFOCK COURT,CASTLEROCK,BT51 4DQ,RESIDENTIAL,277359,435448
SEA ROAD,CASTLEROCK,BT51 4TW,RESIDENTIAL,277359,435663
LIFFOCK COURT,CASTLEROCK,BT51 4DQ,RESIDENTIAL,277360,435465
SEA ROAD,CASTLEROCK,BT51 4TW,RESIDENTIAL,277361,435680
LIFFOCK COURT,CASTLEROCK,BT51 4DQ,RESIDENTIAL,277364,435491
SEA ROAD,CASTLEROCK,BT51 4TW,RESIDENTIAL,277368,435818
LIFFOCK COURT,CASTLEROCK,BT51 4DQ,RESIDENTIAL,277369,435514
LIFFOCK COURT,CASTLEROCK,BT51 4DQ,RESIDENTIAL,277374,435534
SEA ROAD,CASTLEROCK,BT51 4TW,RESIDENTIAL,277377,435713
SEA ROAD,CASTLEROCK,BT51 4TW,RESIDENTIAL,277379,435810
LIFFOCK COURT,CASTLEROCK,BT51 4DQ,RESIDENTIAL,277381,435429
SEA ROAD,CASTLEROCK,BT51 4TW,RESIDENTIAL,277382,435790
SEA ROAD,CASTLEROCK,BT51 4TN,RESIDENTIAL,277382,435851
SEA ROAD,CASTLEROCK,BT51 4TN,RESIDENTIAL,277383,435821
SEA ROAD,CASTLEROCK,BT51 4TN,RESIDENTIAL,277384,435870
LIFFOCK CRESCENT,CASTLEROCK,BT51 4TG,RESIDENTIAL,277386,435592
LIFFOCK CRESCENT,CASTLEROCK,BT51 4TG,RESIDENTIAL,277386,435610
SEA ROAD,CASTLEROCK,BT51 4TN,RESIDENTIAL,277387,435886
LIFFOCK CRESCENT,CASTLEROCK,BT51 4TG,RESIDENTIAL,277388,435633
SEA ROAD,CASTLEROCK,BT51 4TN,UNKNOWN,277388,435819
SEA ROAD,CASTLEROCK,BT51 4TN,RESIDENTIAL,277390,435918
SEA ROAD,CASTLEROCK,BT51 4TN,COMMERCIAL,277390,435932
SCONCE ROAD,ARTICLAVE,BT51 4JU,RESIDENTIAL,277392,431828
SEA ROAD,CASTLEROCK,BT51 4TN,RESIDENTIAL,277392,435925
LIFFOCK COURT,CASTLEROCK,BT51 4DQ,RESIDENTIAL,277399,435418
LIFFOCK COURT,CASTLEROCK,BT51 4DQ,RESIDENTIAL,277399,435473
SEA ROAD,CASTLEROCK,BT51 4TL,UNKNOWN,277400,436012
SCONCE ROAD,ARTICLAVE,BT51 4JU,RESIDENTIAL,277401,431896
LIFFOCK COURT,CASTLEROCK,BT51 4DQ,RESIDENTIAL,277401,435491
SEA ROAD,CASTLEROCK,BT51 4TL,RESIDENTIAL,277401,436032
LIFFOCK CRESCENT,CASTLEROCK,BT51 4TG,RESIDENTIAL,277402,435644
SEA ROAD,CASTLEROCK,BT51 4TL,RESIDENTIAL,277402,436039
SEA ROAD,CASTLEROCK,BT51 4TL,RESIDENTIAL,277402,436039
SEA ROAD,CASTLEROCK,BT51 4RE,COMMERCIAL,277404,436056
LIFFOCK COURT,CASTLEROCK,BT51 4DQ,RESIDENTIAL,277407,435511
LIFFOCK COURT,CASTLEROCK,BT51 4DQ,RESIDENTIAL,277408,435532
SEA ROAD,CASTLEROCK,BT51 4RE,COMMERCIAL,277408,436093
SEA ROAD,CASTLEROCK,BT51 4TN,RESIDENTIAL,277409,435908
SEA ROAD,CASTLEROCK,BT51 4TN,RESIDENTIAL,277411,435900
CIRCULAR ROAD,CASTLEROCK,BT51 4XA,RESIDENTIAL,277411,435983
LIFFOCK COURT,CASTLEROCK,BT51 4DQ,RESIDENTIAL,277412,435454
MUSSENDEN ROAD,CASTLEROCK,BT51 4TX,RESIDENTIAL,277416,434754
LIFFOCK CRESCENT,CASTLEROCK,BT51 4TG,RESIDENTIAL,277419,435657
MUSSENDEN ROAD,CASTLEROCK,BT51 4TX,RESIDENTIAL,277422,434751
LIFFOCK COURT,CASTLEROCK,BT51 4DQ,RESIDENTIAL,277422,435403
LIFFOCK CRESCENT,CASTLEROCK,BT51 4TG,RESIDENTIAL,277422,435593
LIFFOCK CRESCENT,CASTLEROCK,BT51 4TG,RESIDENTIAL,277422,435615
LIFFOCK AVENUE,CASTLEROCK,BT51 4DF,RESIDENTIAL,277427,435493
LIFFOCK COURT,CASTLEROCK,BT51 4DQ,RESIDENTIAL,277429,435446
LIFFOCK PARK,CASTLEROCK,BT51 4DG,RESIDENTIAL,277429,435570
LIFFOCK CRESCENT,CASTLEROCK,BT51 4TG,RESIDENTIAL,277435,435654
LIFFOCK AVENUE,CASTLEROCK,BT51 4DF,RESIDENTIAL,277436,435468
PROMENADE,CASTLEROCK,BT51 4RE,UNKNOWN,277437,436120
LIFFOCK COURT,CASTLEROCK,BT51 4DQ,RESIDENTIAL,277440,435391
CIRCULAR ROAD,CASTLEROCK,BT51 4XA,RESIDENTIAL,277440,436023
LIFFOCK CRESCENT,CASTLEROCK,BT51 4TG,RESIDENTIAL,277441,435612
LIFFOCK COURT,CASTLEROCK,BT51 4DQ,RESIDENTIAL,277443,435437
CIRCULAR ROAD,CASTLEROCK,BT51 4TJ,RESIDENTIAL,277444,436061
LIFFOCK AVENUE,CASTLEROCK,BT51 4DF,RESIDENTIAL,277446,435511
CIRCULAR ROAD,CASTLEROCK,BT51 4XA,RESIDENTIAL,277448,435969
LIFFOCK CRESCENT,CASTLEROCK,BT51 4TG,RESIDENTIAL,277452,435649
LIFFOCK AVENUE,CASTLEROCK,BT51 4DF,RESIDENTIAL,277454,435461
LIFFOCK PARK,CASTLEROCK,BT51 4DG,RESIDENTIAL,277455,435579
CIRCULAR ROAD,CASTLEROCK,BT51 4XA,MIXED,277455,436009
LIFFOCK COURT,CASTLEROCK,BT51 4DQ,RESIDENTIAL,277457,435409
LIFFOCK CRESCENT,CASTLEROCK,BT51 4TG,RESIDENTIAL,277458,435608
LIFFOCK COURT,CASTLEROCK,BT51 4DQ,RESIDENTIAL,277462,435425
CIRCULAR ROAD,CASTLEROCK,BT51 4XA,RESIDENTIAL,277463,435962
LIFFOCK AVENUE,CASTLEROCK,BT51 4DF,RESIDENTIAL,277464,435494
LIFFOCK CRESCENT,CASTLEROCK,BT51 4TG,RESIDENTIAL,277467,435646
LIFFOCK AVENUE,CASTLEROCK,BT51 4DF,RESIDENTIAL,277469,435451
LIFFOCK AVENUE,CASTLEROCK,BT51 4DF,RESIDENTIAL,277470,435386
LIFFOCK CRESCENT,CASTLEROCK,BT51 4TG,RESIDENTIAL,277474,435602
CIRCULAR ROAD,CASTLEROCK,BT51 4XA,RESIDENTIAL,277474,435952
LIFFOCK AVENUE,CASTLEROCK,BT51 4DF,RESIDENTIAL,277477,435515
LIFFOCK AVENUE,CASTLEROCK,BT51 4DF,RESIDENTIAL,277478,435368
LIFFOCK PARK,CASTLEROCK,BT51 4DG,RESIDENTIAL,277480,435575
CIRCULAR ROAD,CASTLEROCK,BT51 4XA,RESIDENTIAL,277480,435996
LIFFOCK AVENUE,CASTLEROCK,BT51 4DF,RESIDENTIAL,277482,435402
LIFFOCK AVENUE,CASTLEROCK,BT51 4DF,RESIDENTIAL,277483,435444
SEA ROAD,CASTLEROCK,BT51 4TN,COMMERCIAL,277486,435832
LIFFOCK CRESCENT,CASTLEROCK,BT51 4TG,RESIDENTIAL,277487,435642
CIRCULAR ROAD,CASTLEROCK,BT51 4XA,RESIDENTIAL,277488,435942
LIFFOCK AVENUE,CASTLEROCK,BT51 4DF,RESIDENTIAL,277493,435355
LIFFOCK AVENUE,CASTLEROCK,BT51 4DF,RESIDENTIAL,277493,435418
LIFFOCK CRESCENT,CASTLEROCK,BT51 4TG,RESIDENTIAL,277493,435594
LIFFOCK AVENUE,CASTLEROCK,BT51 4DF,RESIDENTIAL,277494,435474
MUSSENDEN ROAD,CASTLEROCK,BT51 4TX,RESIDENTIAL,277500,434679
LIFFOCK CRESCENT,CASTLEROCK,BT51 4TG,RESIDENTIAL,277502,435611
LIFFOCK AVENUE,CASTLEROCK,BT51 4DF,RESIDENTIAL,277504,435434
LIFFOCK AVENUE,CASTLEROCK,BT51 4DF,RESIDENTIAL,277504,435494
LIFFOCK PARK,CASTLEROCK,BT51 4DG,RESIDENTIAL,277505,435565
LIFFOCK CRESCENT,CASTLEROCK,BT51 4TG,RESIDENTIAL,277507,435634
CIRCULAR ROAD,CASTLEROCK,BT51 4XA,RESIDENTIAL,277507,435936
LIFFOCK AVENUE,CASTLEROCK,BT51 4DF,RESIDENTIAL,277509,435347
CIRCULAR ROAD,CASTLEROCK,BT51 4XA,RESIDENTIAL,277509,435977
LIFFOCK AVENUE,CASTLEROCK,BT51 4DF,RESIDENTIAL,277511,435384
CIRCULAR ROAD,CASTLEROCK,BT51 4TJ,COMMERCIAL,277514,436083
CIRCULAR ROAD,CASTLEROCK,BT51 4XA,RESIDENTIAL,277515,435971
LIFFOCK PARK,CASTLEROCK,BT51 4DG,RESIDENTIAL,277516,435582
LIFFOCK AVENUE,CASTLEROCK,BT51 4DF,RESIDENTIAL,277518,435516
MUSSENDEN ROAD,CASTLEROCK,BT51 4TX,RESIDENTIAL,277519,434669
LIFFOCK AVENUE,CASTLEROCK,BT51 4DF,RESIDENTIAL,277520,435463
CIRCULAR ROAD,CASTLEROCK,BT51 4XA,RESIDENTIAL,277520,435905
LIFFOCK AVENUE,CASTLEROCK,BT51 4DF,RESIDENTIAL,277522,435337
LIFFOCK PARK,CASTLEROCK,BT51 4DG,RESIDENTIAL,277523,435601
MUSSENDEN ROAD,CASTLEROCK,BT51 4TX,RESIDENTIAL,277524,434662
LIFFOCK PARK,CASTLEROCK,BT51 4DG,RESIDENTIAL,277525,435529
CIRCULAR ROAD,CASTLEROCK,BT51 4XA,RESIDENTIAL,277527,435895
LIFFOCK AVENUE,CASTLEROCK,BT51 4DF,RESIDENTIAL,277528,435376
LIFFOCK AVENUE,CASTLEROCK,BT51 4DF,RESIDENTIAL,277528,435405
CIRCULAR ROAD,CASTLEROCK,BT51 4XA,RESIDENTIAL,277528,435955
LIFFOCK PARK,CASTLEROCK,BT51 4DG,RESIDENTIAL,277531,435617
LIFFOCK AVENUE,CASTLEROCK,BT51 4DF,RESIDENTIAL,277534,435329
LIFFOCK PARK,CASTLEROCK,BT51 4DG,RESIDENTIAL,277535,435546
LIFFOCK AVENUE,CASTLEROCK,BT51 4DF,RESIDENTIAL,277536,435490
LIFFOCK AVENUE,CASTLEROCK,BT51 4DF,RESIDENTIAL,277539,435365
LIFFOCK AVENUE,CASTLEROCK,BT51 4DF,RESIDENTIAL,277539,435419
CIRCULAR ROAD,CASTLEROCK,BT51 4XA,RESIDENTIAL,277542,435936
LIFFOCK PARK,CASTLEROCK,BT51 4DG,RESIDENTIAL,277543,435559
CIRCULAR ROAD,CASTLEROCK,BT51 4XA,RESIDENTIAL,277546,435871
LIFFOCK AVENUE,CASTLEROCK,BT51 4DF,RESIDENTIAL,277547,435315
LIFFOCK AVENUE,CASTLEROCK,BT51 4DF,RESIDENTIAL,277548,435436
LIFFOCK AVENUE,CASTLEROCK,BT51 4DF,RESIDENTIAL,277551,435360
LIFFOCK PARK,CASTLEROCK,BT51 4DG,RESIDENTIAL,277552,435577
LIFFOCK PARK,CASTLEROCK,BT51 4DG,RESIDENTIAL,277554,435609
LIFFOCK AVENUE,CASTLEROCK,BT51 4DF,RESIDENTIAL,277555,435384
LIFFOCK AVENUE,CASTLEROCK,BT51 4DF,RESIDENTIAL,277556,435455
LIFFOCK AVENUE,CASTLEROCK,BT51 4DF,RESIDENTIAL,277556,435495
CIRCULAR ROAD,CASTLEROCK,BT51 4XA,RESIDENTIAL,277561,435912
LIFFOCK PARK,CASTLEROCK,BT51 4DG,RESIDENTIAL,277562,435516
LIFFOCK PARK,CASTLEROCK,BT51 4DG,RESIDENTIAL,277562,435537
LIFFOCK AVENUE,CASTLEROCK,BT51 4DF,RESIDENTIAL,277566,435406
LIFFOCK AVENUE,CASTLEROCK,BT51 4DF,RESIDENTIAL,277569,435486
LIFFOCK AVENUE,CASTLEROCK,BT51 4DF,RESIDENTIAL,277570,435326
LIFFOCK PARK,CASTLEROCK,BT51 4DG,RESIDENTIAL,277570,435603
CIRCULAR ROAD,CASTLEROCK,BT51 4XA,RESIDENTIAL,277570,435854
LIFFOCK AVENUE,CASTLEROCK,BT51 4DF,RESIDENTIAL,277571,435349
LIFFOCK AVENUE,CASTLEROCK,BT51 4DF,RESIDENTIAL,277572,435444
LIFFOCK AVENUE,CASTLEROCK,BT51 4DF,RESIDENTIAL,277575,435372
LIFFOCK AVENUE,CASTLEROCK,BT51 4DF,RESIDENTIAL,277575,435417
BALLYWOOLEN ROAD,CASTLEROCK,BT51 4TZ,COMMERCIAL,277576,434705
LIFFOCK PARK,CASTLEROCK,BT51 4DG,RESIDENTIAL,277578,435563
LIFFOCK PARK,CASTLEROCK,BT51 4DG,RESIDENTIAL,277579,435505
LIFFOCK AVENUE,CASTLEROCK,BT51 4DF,RESIDENTIAL,277580,435476
DUNBOE ROAD,COLERAINE,BT51 4JR,RESIDENTIAL,277582,432573
DUNBOE ROAD,COLERAINE,BT51 4JR,RESIDENTIAL,277583,432458
MUSSENDEN ROAD,CASTLEROCK,BT51 4TX,RESIDENTIAL,277583,434662
CIRCULAR ROAD,CASTLEROCK,BT51 4XA,RESIDENTIAL,277583,435840
DUNBOE ROAD,COLERAINE,BT51 4JR,RESIDENTIAL,277586,432450
CIRCULAR ROAD,CASTLEROCK,BT51 4XA,RESIDENTIAL,277587,435884
MUSSENDEN ROAD,CASTLEROCK,BT51 4TX,RESIDENTIAL,277588,434658
LIFFOCK AVENUE,CASTLEROCK,BT51 4DF,RESIDENTIAL,277589,435433
LIFFOCK AVENUE,CASTLEROCK,BT51 4DF,RESIDENTIAL,277592,435469
LIFFOCK PARK,CASTLEROCK,BT51 4DG,RESIDENTIAL,277592,435497
LIFFOCK AVENUE,CASTLEROCK,BT51 4DF,RESIDENTIAL,277597,435369
CIRCULAR ROAD,CASTLEROCK,BT51 4XA,RESIDENTIAL,277600,435828
LIFFOCK PARK,CASTLEROCK,BT51 4DG,RESIDENTIAL,277601,435607
SCONCE ROAD,ARTICLAVE,BT51 4JT,RESIDENTIAL,277605,432086
CIRCULAR ROAD,CASTLEROCK,BT51 4XA,RESIDENTIAL,277605,435868
LIFFOCK PARK,CASTLEROCK,BT51 4DG,RESIDENTIAL,277606,435489
LIFFOCK AVENUE,CASTLEROCK,BT51 4DF,RESIDENTIAL,277607,435387
LIFFOCK AVENUE,CASTLEROCK,BT51 4DF,RESIDENTIAL,277608,435459
LIFFOCK PARK,CASTLEROCK,BT51 4DG,RESIDENTIAL,277608,435620
LIFFOCK AVENUE,CASTLEROCK,BT51 4DF,RESIDENTIAL,277614,435404
LIFFOCK PARK,CASTLEROCK,BT51 4DG,RESIDENTIAL,277618,435522
LIFFOCK PARK,CASTLEROCK,BT51 4DG,RESIDENTIAL,277619,435481
LIFFOCK PARK,CASTLEROCK,BT51 4DG,RESIDENTIAL,277619,435639
CIRCULAR ROAD,CASTLEROCK,BT51 4XA,RESIDENTIAL,277619,435815
LIFFOCK AVENUE,CASTLEROCK,BT51 4DF,RESIDENTIAL,277621,435415
CIRCULAR ROAD,CASTLEROCK,BT51 4XA,RESIDENTIAL,277621,435858
MUSSENDEN ROAD,ARTICLAVE,BT51 4TX,RESIDENTIAL,277622,434339
LIFFOCK AVENUE,CASTLEROCK,BT51 4DF,RESIDENTIAL,277623,435451
LIFFOCK PARK,CASTLEROCK,BT51 4DG,RESIDENTIAL,277623,435571
LIFFOCK AVENUE,CASTLEROCK,BT51 4DF,RESIDENTIAL,277627,435436
LIFFOCK PARK,CASTLEROCK,BT51 4DG,RESIDENTIAL,277631,435586
LIFFOCK PARK,CASTLEROCK,BT51 4DG,RESIDENTIAL,277632,435470
LIFFOCK PARK,CASTLEROCK,BT51 4DG,RESIDENTIAL,277633,435513
CIRCULAR ROAD,CASTLEROCK,BT51 4XA,RESIDENTIAL,277636,435803
LIFFOCK PARK,CASTLEROCK,BT51 4DG,RESIDENTIAL,277639,435599
LIFFOCK PARK,CASTLEROCK,BT51 4DG,RESIDENTIAL,277640,435540
LIFFOCK PARK,CASTLEROCK,BT51 4DG,RESIDENTIAL,277640,435640
CIRCULAR ROAD,CASTLEROCK,BT51 4XA,RESIDENTIAL,277641,435843
SCONCE ROAD,ARTICLAVE,BT51 4JT,COMMERCIAL,277645,432513
SCONCE ROAD,ARTICLAVE,BT51 4JT,COMMERCIAL,277645,432513
SCONCE ROAD,ARTICLAVE,BT51 4JT,RESIDENTIAL,277646,432536
LIFFOCK PARK,CASTLEROCK,BT51 4DG,RESIDENTIAL,277646,435537
LIFFOCK PARK,CASTLEROCK,BT51 4DG,RESIDENTIAL,277649,435510
LIFFOCK PARK,CASTLEROCK,BT51 4DG,RESIDENTIAL,277651,435534
LIFFOCK PARK,CASTLEROCK,BT51 4DG,RESIDENTIAL,277653,435475
LIFFOCK PARK,CASTLEROCK,BT51 4DG,RESIDENTIAL,277654,435630
CIRCULAR ROAD,CASTLEROCK,BT51 4XA,RESIDENTIAL,277655,435793
SCONCE ROAD,ARTICLAVE,BT51 4JT,RESIDENTIAL,277656,432473
LIFFOCK PARK,CASTLEROCK,BT51 4DG,RESIDENTIAL,277661,435573
LIFFOCK PARK,CASTLEROCK,BT51 4DG,RESIDENTIAL,277662,435492
LIFFOCK PARK,CASTLEROCK,BT51 4DG,RESIDENTIAL,277662,435528
CIRCULAR ROAD,CASTLEROCK,BT51 4XA,MIXED,277663,435842
LIFFOCK PARK,CASTLEROCK,BT51 4DG,RESIDENTIAL,277665,435578
LIFFOCK PARK,CASTLEROCK,BT51 4DG,RESIDENTIAL,277665,435618
DUNBOE ROAD,COLERAINE,BT51 4JS,RESIDENTIAL,277667,432400
LIFFOCK PARK,CASTLEROCK,BT51 4DG,RESIDENTIAL,277668,435525
LIFFOCK PARK,CASTLEROCK,BT51 4DG,RESIDENTIAL,277668,435584
LIFFOCK PARK,CASTLEROCK,BT51 4DG,RESIDENTIAL,277673,435522
CIRCULAR ROAD,CASTLEROCK,BT51 4XA,RESIDENTIAL,277675,435823
LIFFOCK PARK,CASTLEROCK,BT51 4DG,RESIDENTIAL,277676,435611
CIRCULAR ROAD,CASTLEROCK,BT51 4XA,RESIDENTIAL,277679,435787
SCONCE ROAD,ARTICLAVE,BT51 4JT,RESIDENTIAL,277681,432579
LIFFOCK PARK,CASTLEROCK,BT51 4DG,RESIDENTIAL,277681,435607
LIFFOCK PARK,CASTLEROCK,BT51 4DG,UNKNOWN,277684,435531
LIFFOCK PARK,CASTLEROCK,BT51 4DG,RESIDENTIAL,277686,435603
LIFFOCK PARK,CASTLEROCK,BT51 4DG,RESIDENTIAL,277688,435537
SCONCE ROAD,ARTICLAVE,BT51 4JT,RESIDENTIAL,277691,432597
LIFFOCK PARK,CASTLEROCK,BT51 4DG,RESIDENTIAL,277691,435598
CIRCULAR ROAD,CASTLEROCK,BT51 4XA,RESIDENTIAL,277691,435819
LIFFOCK PARK,CASTLEROCK,BT51 4DG,RESIDENTIAL,277692,435542
LIFFOCK PARK,CASTLEROCK,BT51 4DG,RESIDENTIAL,277700,435551
LIFFOCK PARK,CASTLEROCK,BT51 4DG,RESIDENTIAL,277704,435556
LIFFOCK PARK,CASTLEROCK,BT51 4DG,RESIDENTIAL,277704,435588
CIRCULAR ROAD,CASTLEROCK,BT51 4XA,RESIDENTIAL,277705,435776
LIFFOCK PARK,CASTLEROCK,BT51 4DG,RESIDENTIAL,277708,435561
ISLAY COURT,CASTLEROCK,BT51 4PZ,UNKNOWN,277708,435944
LIFFOCK PARK,CASTLEROCK,BT51 4DG,RESIDENTIAL,277709,435584
CIRCULAR ROAD,CASTLEROCK,BT51 4XA,RESIDENTIAL,277709,435809
LIFFOCK PARK,CASTLEROCK,BT51 4DG,RESIDENTIAL,277714,435580
LIFFOCK PARK,CASTLEROCK,BT51 4DG,RESIDENTIAL,277718,435576
CIRCULAR ROAD,CASTLEROCK,BT51 4XA,RESIDENTIAL,277719,435772
MUSSENDEN ROAD,ARTICLAVE,BT51 4TX,RESIDENTIAL,277727,434481
CIRCULAR ROAD,CASTLEROCK,BT51 4XA,RESIDENTIAL,277738,435806
BALLYWOOLEN ROAD,CASTLEROCK,BT51 4TZ,RESIDENTIAL,277744,434751
CIRCULAR ROAD,CASTLEROCK,BT51 4XA,RESIDENTIAL,277747,435758
CIRCULAR ROAD,CASTLEROCK,BT51 4XA,RESIDENTIAL,277750,435922
SCONCE ROAD,ARTICLAVE,BT51 4JT,RESIDENTIAL,277751,432680
BALLYWOOLEN ROAD,CASTLEROCK,BT51 4TZ,RESIDENTIAL,277752,434752
CIRCULAR ROAD,CASTLEROCK,BT51 4XA,RESIDENTIAL,277755,435819
EXORNA LANE,ARTICLAVE,BT51 4UA,RESIDENTIAL,277766,434607
SPRINGVALE LANE,CASTLEROCK,BT51 4XB,RESIDENTIAL,277769,435344
CIRCULAR ROAD,CASTLEROCK,BT51 4XA,RESIDENTIAL,277782,435818
CIRCULAR ROAD,CASTLEROCK,BT51 4XA,RESIDENTIAL,277794,435865
SCONCE ROAD,ARTICLAVE,BT51 4JT,RESIDENTIAL,277796,432588
EXORNA LANE,ARTICLAVE,BT51 4UA,RESIDENTIAL,277797,434608
EXORNA PARK,ARTICLAVE,BT51 4UX,RESIDENTIAL,277801,434099
SCONCE ROAD,ARTICLAVE,BT51 4JT,RESIDENTIAL,277802,432633
EXORNA LANE,ARTICLAVE,BT51 4UA,RESIDENTIAL,277804,434659
SCONCE ROAD,ARTICLAVE,BT51 4JT,RESIDENTIAL,277806,432703
SCONCE ROAD,ARTICLAVE,BT51 4JT,RESIDENTIAL,277812,432680
EXORNA PARK,ARTICLAVE,BT51 4UX,RESIDENTIAL,277831,434178
EXORNA PARK,ARTICLAVE,BT51 4UX,RESIDENTIAL,277843,434132
EXORNA PARK,ARTICLAVE,BT51 4UX,RESIDENTIAL,277844,434197
MUSSENDEN ROAD,ARTICLAVE,BT51 4TY,RESIDENTIAL,277852,434351
SCONCE ROAD,ARTICLAVE,BT51 4JT,RESIDENTIAL,277854,432658
MUSSENDEN ROAD,ARTICLAVE,BT51 4TY,RESIDENTIAL,277856,434332
EXORNA PARK,ARTICLAVE,BT51 4UX,RESIDENTIAL,277858,434150
EXORNA PARK,ARTICLAVE,BT51 4UX,RESIDENTIAL,277860,434210
EXORNA PARK,ARTICLAVE,BT51 4UX,RESIDENTIAL,277873,434167
SPRINGVALE LANE,CASTLEROCK,BT51 4XB,RESIDENTIAL,277873,435246
EXORNA PARK,ARTICLAVE,BT51 4UX,RESIDENTIAL,277874,434222
MUSSENDEN ROAD,ARTICLAVE,BT51 4TY,RESIDENTIAL,277883,434321
BALLYWOOLEN ROAD,CASTLEROCK,BT51 4XF,RESIDENTIAL,277886,434807
EXORNA PARK,ARTICLAVE,BT51 4UX,RESIDENTIAL,277888,434181
EXORNA PARK,ARTICLAVE,BT51 4UX,RESIDENTIAL,277895,434233
MUSSENDEN ROAD,CASTLEROCK,BT51 4TY,UNKNOWN,277896,434311
MUSSENDEN ROAD,ARTICLAVE,BT51 4TY,RESIDENTIAL,277899,434296
EXORNA PARK,ARTICLAVE,BT51 4UX,RESIDENTIAL,277903,434192
FAIRVIEW LANE,ARTICLAVE,BT51 4JX,RESIDENTIAL,277905,433633
FAIRVIEW LANE,ARTICLAVE,BT51 4JX,RESIDENTIAL,277909,433409
EXORNA PARK,ARTICLAVE,BT51 4UX,RESIDENTIAL,277911,434244
EXORNA PARK,ARTICLAVE,BT51 4UX,RESIDENTIAL,277915,434203
MUSSENDEN ROAD,ARTICLAVE,BT51 4TY,RESIDENTIAL,277922,434258
BOGTOWN TERRACE,CASTLEROCK,BT51 4XE,RESIDENTIAL,277922,434816
BOGTOWN TERRACE,CASTLEROCK,BT51 4XE,RESIDENTIAL,277929,434819
EXORNA PARK,ARTICLAVE,BT51 4UX,RESIDENTIAL,277931,434218
SCONCE ROAD,ARTICLAVE,BT51 4JT,COMMERCIAL,277947,432447
EXORNA PARK,ARTICLAVE,BT51 4UX,RESIDENTIAL,277948,434229
BOGTOWN TERRACE,CASTLEROCK,BT51 4XE,RESIDENTIAL,277956,434825
FAIRVIEW LANE,ARTICLAVE,BT51 4JX,RESIDENTIAL,277959,433469
BOGTOWN TERRACE,CASTLEROCK,BT51 4XE,RESIDENTIAL,277963,434824
MUSSENDEN ROAD,ARTICLAVE,BT51 4TY,RESIDENTIAL,277974,434197
BOGTOWN TERRACE,CASTLEROCK,BT51 4XE,RESIDENTIAL,277985,434830
BOGTOWN TERRACE,CASTLEROCK,BT51 4XE,RESIDENTIAL,277985,434830
MUSSENDEN ROAD,ARTICLAVE,BT51 4TY,RESIDENTIAL,277989,434180
BOGTOWN TERRACE,CASTLEROCK,BT51 4XE,RESIDENTIAL,277990,434832
DUNBOE COURT,ARTICLAVE,BT51 4XP,RESIDENTIAL,277999,433923
MUSSENDEN ROAD,ARTICLAVE,BT51 4TY,RESIDENTIAL,278006,434165
DUNBOE ROAD,COLERAINE,BT51 4JS,RESIDENTIAL,278004,431539
DUNBOE COURT,ARTICLAVE,BT51 4XP,RESIDENTIAL,278007,433911
BOGTOWN TERRACE,CASTLEROCK,BT51 4XE,RESIDENTIAL,278010,434845
DUNBOE GARDENS,ARTICLAVE,BT51 4XN,RESIDENTIAL,278103,434013
BOGTOWN TERRACE,CASTLEROCK,BT51 4XE,RESIDENTIAL,278018,434845
DUNBOE COURT,ARTICLAVE,BT51 4XP,RESIDENTIAL,278022,433903
DUNBOE COURT,ARTICLAVE,BT51 4XP,RESIDENTIAL,278023,433943
MUSSENDEN ROAD,ARTICLAVE,BT51 4TY,COMMERCIAL,278027,434143
DUNBOE COURT,ARTICLAVE,BT51 4XP,RESIDENTIAL,278027,433889
MUSSENDEN GRANGE,ARTICLAVE,BT51 4US,RESIDENTIAL,278027,434074
DUNBOE COURT,ARTICLAVE,BT51 4XP,RESIDENTIAL,278033,433953
MUSSENDEN GRANGE,ARTICLAVE,BT51 4US,RESIDENTIAL,278035,434042
DUNBOE COURT,ARTICLAVE,BT51 4XP,RESIDENTIAL,278041,433875
MUSSENDEN GRANGE,ARTICLAVE,BT51 4US,RESIDENTIAL,278041,434030
MUSSENDEN GRANGE,ARTICLAVE,BT51 4US,RESIDENTIAL,278044,434084
DUNBOE GARDENS,ARTICLAVE,BT51 4XN,RESIDENTIAL,278045,433961
MUSSENDEN ROAD,ARTICLAVE,BT51 4TY,RESIDENTIAL,278045,434136
BOGTOWN TERRACE,CASTLEROCK,BT51 4XE,RESIDENTIAL,278048,434855
DUNBOE GARDENS,ARTICLAVE,BT51 4XN,RESIDENTIAL,278050,433968
DUNBOE COURT,ARTICLAVE,BT51 4XP,RESIDENTIAL,278052,433893
MUSSENDEN GRANGE,ARTICLAVE,BT51 4US,RESIDENTIAL,278052,434021
DUNBOE COURT,ARTICLAVE,BT51 4XP,RESIDENTIAL,278054,433918
BOGTOWN TERRACE,CASTLEROCK,BT51 4XE,RESIDENTIAL,278055,434855
DUNBOE GARDENS,ARTICLAVE,BT51 4XN,RESIDENTIAL,278061,433914
DUNBOE GARDENS,ARTICLAVE,BT51 4XN,RESIDENTIAL,278061,433979
BOGTOWN TERRACE,CASTLEROCK,BTXX XXX,UNKNOWN,278062,434778
MUSSENDEN GRANGE,ARTICLAVE,BT51 4US,RESIDENTIAL,278066,434029
DUNBOE GARDENS,ARTICLAVE,BT51 4XN,RESIDENTIAL,278074,433993
MUSSENDEN GRANGE,ARTICLAVE,BT51 4US,RESIDENTIAL,278075,434064
DUNBOE GARDENS,ARTICLAVE,BT51 4XN,RESIDENTIAL,278076,433897
DUNBOE GARDENS,ARTICLAVE,BT51 4XN,RESIDENTIAL,278080,433998
MUSSENDEN GRANGE,ARTICLAVE,BT51 4US,RESIDENTIAL,278080,434038
DUNBOE GARDENS,ARTICLAVE,BT51 4XN,RESIDENTIAL,278087,433946
MUSSENDEN GRANGE,ARTICLAVE,BT51 4US,RESIDENTIAL,278088,434053
DUNBOE GARDENS,ARTICLAVE,BT51 4XN,RESIDENTIAL,278093,433932
MUSSENDEN ROAD,ARTICLAVE,BT51 4TY,UNKNOWN,278093,434155
DUNBOE GARDENS,ARTICLAVE,BT51 4XN,RESIDENTIAL,278095,434009
MUSSENDEN ROAD,ARTICLAVE,BT51 4TY,COMMERCIAL,278097,434131
DUNBOE GARDENS,ARTICLAVE,BT51 4XN,RESIDENTIAL,278105,433963
DUNBOE GARDENS,ARTICLAVE,BT51 4XN,RESIDENTIAL,278107,433921
DUNBOE GARDENS,ARTICLAVE,BT51 4XN,RESIDENTIAL,278111,433969
DUNBOE GARDENS,ARTICLAVE,BT51 4XN,RESIDENTIAL,278112,434026
DUNBOE GARDENS,ARTICLAVE,BT51 4XN,RESIDENTIAL,278113,433862
DUNBOE GARDENS,ARTICLAVE,BT51 4XN,RESIDENTIAL,278117,434030
DUNBOE GARDENS,ARTICLAVE,BT51 4XN,RESIDENTIAL,278120,433908
DUNBOE GARDENS,ARTICLAVE,BT51 4XN,RESIDENTIAL,278124,433904
DUNBOE GARDENS,ARTICLAVE,BT51 4XN,RESIDENTIAL,278125,433812
DUNBOE GARDENS,ARTICLAVE,BT51 4XN,RESIDENTIAL,278126,433794
DUNBOE GARDENS,ARTICLAVE,BT51 4XN,RESIDENTIAL,278127,433982
DUNBOE GARDENS,ARTICLAVE,BT51 4XN,RESIDENTIAL,278128,433788
DUNBOE GARDENS,ARTICLAVE,BT51 4XN,RESIDENTIAL,278128,433818
DUNBOE GARDENS,ARTICLAVE,BT51 4XN,RESIDENTIAL,278129,434041
DUNBOE GARDENS,ARTICLAVE,BT51 4XN,RESIDENTIAL,278130,433849
MUSSENDEN ROAD,ARTICLAVE,BT51 4TY,RESIDENTIAL,278130,434121
DUNBOE GARDENS,ARTICLAVE,BT51 4XN,RESIDENTIAL,278133,433894
DUNBOE GARDENS,ARTICLAVE,BT51 4XN,RESIDENTIAL,278136,433982
DUNBOE GARDENS,ARTICLAVE,BT51 4XN,RESIDENTIAL,278140,433776
DUNBOE GARDENS,ARTICLAVE,BT51 4XN,RESIDENTIAL,278141,433841
DUNBOE GARDENS,ARTICLAVE,BT51 4XN,RESIDENTIAL,278141,433947
DUNBOE GARDENS,ARTICLAVE,BT51 4XN,RESIDENTIAL,278143,433884
DUNBOE GARDENS,ARTICLAVE,BT51 4XN,RESIDENTIAL,278145,433965
MUSSENDEN ROAD,ARTICLAVE,BT51 4TY,RESIDENTIAL,278145,434106
DUNBOE GARDENS,ARTICLAVE,BT51 4XN,RESIDENTIAL,278146,433774
DUNBOE GARDENS,ARTICLAVE,BT51 4XN,RESIDENTIAL,278146,433937
DUNBOE GARDENS,ARTICLAVE,BT51 4XN,RESIDENTIAL,278147,433880
SCONCE ROAD,ARTICLAVE,BT51 4JT,RESIDENTIAL,278149,433338
DUNBOE GARDENS,ARTICLAVE,BT51 4XN,RESIDENTIAL,278150,433829
DUNBOE GARDENS,ARTICLAVE,BT51 4XN,RESIDENTIAL,278153,433824
DUNBOE GARDENS,ARTICLAVE,BT51 4XN,RESIDENTIAL,278153,434016
DUNBOE GARDENS,ARTICLAVE,BT51 4XN,RESIDENTIAL,278156,433922
MUSSENDEN ROAD,ARTICLAVE,BT51 4TY,RESIDENTIAL,278157,434093
DUNBOE GARDENS,ARTICLAVE,BT51 4XN,RESIDENTIAL,278159,433871
DUNBOE GARDENS,ARTICLAVE,BT51 4XN,RESIDENTIAL,278161,433915
DUNBOE GARDENS,ARTICLAVE,BT51 4XN,RESIDENTIAL,278162,433785
DUNBOE GARDENS,ARTICLAVE,BT51 4XN,RESIDENTIAL,278163,433866
DUNBOE GARDENS,ARTICLAVE,BT51 4XN,RESIDENTIAL,278164,433997
DUNBOE GARDENS,ARTICLAVE,BT51 4XN,RESIDENTIAL,278168,433788
DUNBOE GARDENS,ARTICLAVE,BT51 4XN,RESIDENTIAL,278173,433901
DUNBOE GARDENS,ARTICLAVE,BT51 4XN,RESIDENTIAL,278174,433857
DUNBOE GARDENS,ARTICLAVE,BT51 4XN,RESIDENTIAL,278175,433977
DUNBOE GARDENS,ARTICLAVE,BT51 4XN,RESIDENTIAL,278179,433853
DUNBOE GARDENS,ARTICLAVE,BT51 4XN,RESIDENTIAL,278179,433961
DUNBOE GARDENS,ARTICLAVE,BT51 4XN,RESIDENTIAL,278180,433803
DUNBOE GARDENS,ARTICLAVE,BT51 4XN,RESIDENTIAL,278181,433896
DUNBOE GARDENS,ARTICLAVE,BT51 4XN,RESIDENTIAL,278181,433946
MUSSENDEN ROAD,ARTICLAVE,BT51 4TY,RESIDENTIAL,278185,434117
DUNBOE GARDENS,ARTICLAVE,BT51 4XN,RESIDENTIAL,278186,433804
DUNBOE GARDENS,ARTICLAVE,BT51 4XN,RESIDENTIAL,278187,433839
DUNBOE GARDENS,ARTICLAVE,BT51 4XN,RESIDENTIAL,278190,433933
DUNBOE GARDENS,ARTICLAVE,BT51 4XN,RESIDENTIAL,278193,433834
MUSSENDEN ROAD,ARTICLAVE,BT51 4TY,RESIDENTIAL,278193,434056
DUNBOE GARDENS,ARTICLAVE,BT51 4XN,RESIDENTIAL,278201,433904
DUNBOE GARDENS,ARTICLAVE,BT51 4XN,RESIDENTIAL,278202,433922
ST. PAULS ROAD,ARTICLAVE,BT51 4UN,UNKNOWN,278213,433944
MUSSENDEN GARDENS,ARTICLAVE,BT51 4UZ,RESIDENTIAL,278222,434093
MUSSENDEN GARDENS,ARTICLAVE,BT51 4UZ,RESIDENTIAL,278230,434098
MUSSENDEN GARDENS,ARTICLAVE,BT51 4UZ,RESIDENTIAL,278234,434140
MUSSENDEN GARDENS,ARTICLAVE,BT51 4UZ,RESIDENTIAL,278239,434149
ST. PAULS ROAD,ARTICLAVE,BT51 4UN,COMMERCIAL,278240,434040
ST. PAULS ROAD,ARTICLAVE,BT51 4UN,COMMERCIAL,278241,433870
MUSSENDEN GARDENS,ARTICLAVE,BT51 4UZ,RESIDENTIAL,278241,434123
ST. PAULS ROAD,ARTICLAVE,BT51 4UN,RESIDENTIAL,278247,433935
ST. PAULS ROAD,ARTICLAVE,BT51 4UN,RESIDENTIAL,278249,433920
MUSSENDEN GARDENS,ARTICLAVE,BT51 4UZ,RESIDENTIAL,278250,434115
FAIRVIEW LANE,ARTICLAVE,BT51 4JX,RESIDENTIAL,278251,433665
FAIRVIEW PARK,ARTICLAVE,BT51 4UJ,RESIDENTIAL,278254,433819
MUSSENDEN GARDENS,ARTICLAVE,BT51 4UZ,RESIDENTIAL,278257,434071
FAIRVIEW PARK,ARTICLAVE,BT51 4UJ,RESIDENTIAL,278258,433815
MUSSENDEN GARDENS,ARTICLAVE,BT51 4UZ,RESIDENTIAL,278258,434153
ST. PAULS ROAD,ARTICLAVE,BT51 4UN,RESIDENTIAL,278261,433892
FAIRVIEW PARK,ARTICLAVE,BT51 4UJ,RESIDENTIAL,278263,433809
MUSSENDEN GARDENS,ARTICLAVE,BT51 4UZ,RESIDENTIAL,278264,434079
ST. PAULS ROAD,ARTICLAVE,BT51 4UN,RESIDENTIAL,278266,433918
FAIRVIEW PARK,ARTICLAVE,BT51 4UJ,RESIDENTIAL,278267,433805
MUSSENDEN GARDENS,ARTICLAVE,BT51 4UZ,RESIDENTIAL,278267,434148
FAIRVIEW PARK,ARTICLAVE,BT51 4UJ,RESIDENTIAL,278272,433839
MUSSENDEN GARDENS,ARTICLAVE,BT51 4UZ,RESIDENTIAL,278275,434091
FAIRVIEW PARK,ARTICLAVE,BT51 4UJ,RESIDENTIAL,278276,433836
MUSSENDEN GARDENS,ARTICLAVE,BT51 4UZ,RESIDENTIAL,278278,434131
ST. PAULS ROAD,ARTICLAVE,BT51 4UN,RESIDENTIAL,278279,433954
MUSSENDEN GARDENS,ARTICLAVE,BT51 4UZ,RESIDENTIAL,278279,434170
MUSSENDEN GARDENS,ARTICLAVE,BT51 4UZ,RESIDENTIAL,278282,434099
MUSSENDEN GARDENS,ARTICLAVE,BT51 4UZ,RESIDENTIAL,278284,434140
MUSSENDEN GARDENS,ARTICLAVE,BT51 4UZ,RESIDENTIAL,278285,434167
FAIRVIEW PARK,ARTICLAVE,BT51 4UJ,RESIDENTIAL,278287,433791
ST. PAULS ROAD,ARTICLAVE,BT51 4UN,RESIDENTIAL,278290,433938
FAIRVIEW PARK,ARTICLAVE,BT51 4UJ,RESIDENTIAL,278291,433794
MUSSENDEN GARDENS,ARTICLAVE,BT51 4UZ,RESIDENTIAL,278291,434163
FAIRVIEW PARK,ARTICLAVE,BT51 4UJ,RESIDENTIAL,278294,433829
ST. PAULS ROAD,ARTICLAVE,BT51 4UN,RESIDENTIAL,278295,433883
FAIRVIEW PARK,ARTICLAVE,BT51 4UJ,RESIDENTIAL,278297,433799
FAIRVIEW PARK,ARTICLAVE,BT51 4UJ,RESIDENTIAL,278298,433863
MUSSENDEN GARDENS,ARTICLAVE,BT51 4UZ,RESIDENTIAL,278299,434147
FAIRVIEW PARK,ARTICLAVE,BT51 4UJ,RESIDENTIAL,278300,433834
FAIRVIEW PARK,ARTICLAVE,BT51 4UJ,RESIDENTIAL,278301,433803
FAIRVIEW PARK,ARTICLAVE,BT51 4UJ,RESIDENTIAL,278302,433858
MUSSENDEN GARDENS,ARTICLAVE,BT51 4UZ,RESIDENTIAL,278303,434152
FAIRVIEW PARK,ARTICLAVE,BT51 4UJ,RESIDENTIAL,278305,433838
FAIRVIEW PARK,ARTICLAVE,BT51 4UJ,RESIDENTIAL,278309,433809
FAIRVIEW PARK,ARTICLAVE,BT51 4UJ,RESIDENTIAL,278313,433813
FAIRVIEW PARK,ARTICLAVE,BT51 4UJ,RESIDENTIAL,278313,433845
ROCKMOUNT GARDENS,ARTICLAVE,BT51 4UU,RESIDENTIAL,278316,433923
FAIRVIEW PARK,ARTICLAVE,BT51 4UJ,RESIDENTIAL,278318,433818
FAIRVIEW PARK,ARTICLAVE,BT51 4UJ,RESIDENTIAL,278323,433822
ROCKMOUNT GARDENS,ARTICLAVE,BT51 4UU,RESIDENTIAL,278324,433928
BALLYWOOLEN ROAD,CASTLEROCK,BT51 4XF,RESIDENTIAL,278325,434983
ROCKMOUNT GARDENS,ARTICLAVE,BT51 4UU,RESIDENTIAL,278331,433947
FAIRVIEW PARK,ARTICLAVE,BT51 4UJ,RESIDENTIAL,278336,433835
ROCKMOUNT GARDENS,ARTICLAVE,BT51 4UU,RESIDENTIAL,278338,433951
FAIRVIEW PARK,ARTICLAVE,BT51 4UJ,RESIDENTIAL,278341,433832
ROCKMOUNT GARDENS,ARTICLAVE,BT51 4UU,RESIDENTIAL,278343,433899
ROCKMOUNT GARDENS,ARTICLAVE,BT51 4UU,RESIDENTIAL,278344,433965
ROCKMOUNT GARDENS,ARTICLAVE,BT51 4UU,RESIDENTIAL,278347,433904
ROCKMOUNT GARDENS,ARTICLAVE,BT51 4UU,RESIDENTIAL,278350,433910
ROCKMOUNT GARDENS,ARTICLAVE,BT51 4UU,RESIDENTIAL,278351,433969
ROCKMOUNT GARDENS,ARTICLAVE,BT51 4UU,RESIDENTIAL,278353,433916
ROCKMOUNT GARDENS,ARTICLAVE,BT51 4UU,RESIDENTIAL,278357,433921
BALLYWOOLEN ROAD,CASTLEROCK,BT51 4XF,RESIDENTIAL,278359,434981
CHURCH TERRACE,COLERAINE,BT51 4UG,RESIDENTIAL,278360,433886
ROCKMOUNT GARDENS,ARTICLAVE,BT51 4UU,RESIDENTIAL,278360,433925
ROCKMOUNT GARDENS,ARTICLAVE,BT51 4UU,RESIDENTIAL,278364,433932
CHURCH TERRACE,COLERAINE,BT51 4UG,RESIDENTIAL,278365,433885
ROCKMOUNT GARDENS,ARTICLAVE,BT51 4UU,RESIDENTIAL,278367,433937
CHURCH TERRACE,COLERAINE,BT51 4UG,RESIDENTIAL,278372,433881
DUNBOE ROAD,COLERAINE,BT51 4JS,RESIDENTIAL,278374,431678
CHURCH TERRACE,COLERAINE,BT51 4UG,RESIDENTIAL,278377,433880
ST. PAULS ROAD,ARTICLAVE,BT51 4UW,UNKNOWN,278380,433834
ROCKMOUNT GARDENS,ARTICLAVE,BT51 4UU,RESIDENTIAL,278380,433953
ROCKMOUNT GARDENS,ARTICLAVE,BT51 4UU,RESIDENTIAL,278384,433960
SCONCE ROAD,ARTICLAVE,BT51 4UR,COMMERCIAL,278387,433812
ROCKMOUNT GARDENS,ARTICLAVE,BT51 4UU,RESIDENTIAL,278387,433965
ROCKMOUNT GARDENS,ARTICLAVE,BT51 4UU,RESIDENTIAL,278391,433970
ROCKMOUNT GARDENS,ARTICLAVE,BT51 4UU,RESIDENTIAL,278392,434010
ROCKMOUNT GARDENS,ARTICLAVE,BT51 4UU,RESIDENTIAL,278395,434016
ROCKMOUNT GARDENS,ARTICLAVE,BT51 4UU,RESIDENTIAL,278397,434022
ST. PAULS ROAD,ARTICLAVE,BT51 4UW,COMMERCIAL,278398,433857
ROCKMOUNT GARDENS,ARTICLAVE,BT51 4UU,RESIDENTIAL,278400,434029
ROCKMOUNT GARDENS,ARTICLAVE,BT51 4UU,RESIDENTIAL,278405,433975
ROCKMOUNT GARDENS,ARTICLAVE,BT51 4UU,RESIDENTIAL,278405,434037
SCONCE ROAD,ARTICLAVE,BT51 4JT,RESIDENTIAL,278408,433771
ROCKMOUNT GARDENS,ARTICLAVE,BT51 4UU,RESIDENTIAL,278412,433975
ROCKMOUNT GARDENS,ARTICLAVE,BT51 4UU,RESIDENTIAL,278412,434034
SCONCE ROAD,ARTICLAVE,BT51 4JT,RESIDENTIAL,278414,433783
ROCKMOUNT GARDENS,ARTICLAVE,BT51 4UU,RESIDENTIAL,278418,434032
ROCKMOUNT GARDENS,ARTICLAVE,BT51 4UU,RESIDENTIAL,278419,433973
WOODEND PARK,COLERAINE,BT51 4UY,RESIDENTIAL,278419,434063
ST. PAULS ROAD,ARTICLAVE,BT51 4UP,UNKNOWN,278423,433818
ROCKMOUNT GARDENS,ARTICLAVE,BT51 4UU,RESIDENTIAL,278424,434029
ROCKMOUNT GARDENS,ARTICLAVE,BT51 4UU,RESIDENTIAL,278426,433973
WOODEND PARK,COLERAINE,BT51 4UY,RESIDENTIAL,278426,434059
ST. PAULS ROAD,ARTICLAVE,BT51 4UW,UNKNOWN,278430,433886
ST. PAULS ROAD,ARTICLAVE,BT51 4UP,UNKNOWN,278431,433821
WOODEND PARK,COLERAINE,BT51 4UY,RESIDENTIAL,278431,434055
ROCKMOUNT GARDENS,ARTICLAVE,BT51 4UU,RESIDENTIAL,278433,433972
WOODEND PARK,COLERAINE,BT51 4UY,RESIDENTIAL,278437,434052
WOODEND PARK,COLERAINE,BT51 4UY,RESIDENTIAL,278437,434075
SCONCE ROAD,ARTICLAVE,BT51 4JT,RESIDENTIAL,278438,433646
ROCKMOUNT GARDENS,ARTICLAVE,BT51 4UU,RESIDENTIAL,278440,433970
WOODEND PARK,COLERAINE,BT51 4UY,RESIDENTIAL,278441,434081
ROCKMOUNT GARDENS,ARTICLAVE,BT51 4UU,RESIDENTIAL,278444,434001
WOODEND PARK,COLERAINE,BT51 4UY,RESIDENTIAL,278445,434087
ROCKMOUNT GARDENS,ARTICLAVE,BT51 4UU,RESIDENTIAL,278447,433969
ROCKMOUNT GARDENS,ARTICLAVE,BT51 4UU,RESIDENTIAL,278447,434020
COLLEEN TERRACE,COLERAINE,BT51 4UQ,RESIDENTIAL,278449,433842
WOODEND PARK,COLERAINE,BT51 4UY,RESIDENTIAL,278449,434092
ROCKMOUNT GARDENS,ARTICLAVE,BT51 4UU,RESIDENTIAL,278450,434027
ROCKMOUNT GARDENS,ARTICLAVE,BT51 4UU,RESIDENTIAL,278452,433998
COLLEEN TERRACE,COLERAINE,BT51 4UQ,RESIDENTIAL,278453,433851
COLLEEN TERRACE,COLERAINE,BT51 4UQ,RESIDENTIAL,278454,433846
COLLEEN TERRACE,COLERAINE,BT51 4UQ,RESIDENTIAL,278454,433858
ROCKMOUNT GARDENS,ARTICLAVE,BT51 4UU,RESIDENTIAL,278454,433968
ST. PAULS ROAD,ARTICLAVE,BT51 4UP,RESIDENTIAL,278455,433812
ARDINA ROAD,ARTICLAVE,BT51 4UF,RESIDENTIAL,278458,433873
ROCKMOUNT GARDENS,ARTICLAVE,BT51 4UU,RESIDENTIAL,278459,433995
WOODEND PARK,COLERAINE,BT51 4UY,RESIDENTIAL,278460,434099
WOODEND PARK,COLERAINE,BT51 4UY,RESIDENTIAL,278463,434038
ROCKMOUNT GARDENS,ARTICLAVE,BT51 4UU,RESIDENTIAL,278466,433992
ROCKMOUNT GARDENS,ARTICLAVE,BT51 4UU,RESIDENTIAL,278467,433952
ROCKMOUNT GARDENS,ARTICLAVE,BT51 4UU,RESIDENTIAL,278467,434016
WOODEND PARK,COLERAINE,BT51 4UY,RESIDENTIAL,278467,434047
WOODEND PARK,COLERAINE,BT51 4UY,RESIDENTIAL,278467,434097
ARDINA ROAD,ARTICLAVE,BT51 4UF,RESIDENTIAL,278469,433896
ROCKMOUNT GARDENS,ARTICLAVE,BT51 4UU,RESIDENTIAL,278469,433959
WOODEND PARK,COLERAINE,BT51 4UY,RESIDENTIAL,278470,434055
ROCKMOUNT GARDENS,ARTICLAVE,BT51 4UU,RESIDENTIAL,278471,433965
ROCKMOUNT GARDENS,ARTICLAVE,BT51 4UU,RESIDENTIAL,278473,433989
ROCKMOUNT GARDENS,ARTICLAVE,BT51 4UU,RESIDENTIAL,278474,433947
WOODEND PARK,COLERAINE,BT51 4UY,RESIDENTIAL,278474,434063
WOODEND PARK,COLERAINE,BT51 4UY,RESIDENTIAL,278474,434095
ROCKMOUNT GARDENS,ARTICLAVE,BT51 4UU,RESIDENTIAL,278477,434012
ARDINA ROAD,ARTICLAVE,BT51 4UF,RESIDENTIAL,278480,433923
ROCKMOUNT GARDENS,ARTICLAVE,BT51 4UU,RESIDENTIAL,278481,433944
WOODEND PARK,COLERAINE,BT51 4UY,RESIDENTIAL,278481,434093
ROCKMOUNT GARDENS,ARTICLAVE,BT51 4UU,RESIDENTIAL,278487,433942
WOODEND PARK,COLERAINE,BT51 4UY,RESIDENTIAL,278488,434091
WOODEND PARK,COLERAINE,BT51 4UY,RESIDENTIAL,278492,434030
ROCKMOUNT GARDENS,ARTICLAVE,BT51 4UU,RESIDENTIAL,278494,433982
WOODEND PARK,COLERAINE,BT51 4UY,RESIDENTIAL,278494,434089
WOODEND PARK,COLERAINE,BT51 4UY,RESIDENTIAL,278496,434039
ROCKMOUNT GARDENS,ARTICLAVE,BT51 4UU,RESIDENTIAL,278497,433988
ROCKMOUNT GARDENS,ARTICLAVE,BT51 4UU,RESIDENTIAL,278499,433994
WOODEND PARK,COLERAINE,BT51 4UY,RESIDENTIAL,278499,434047
ROCKMOUNT GARDENS,ARTICLAVE,BT51 4UU,RESIDENTIAL,278501,434000
WOODEND PARK,COLERAINE,BT51 4UY,RESIDENTIAL,278502,434055
ROCKMOUNT GARDENS,ARTICLAVE,BT51 4UU,RESIDENTIAL,278503,434005
GORTYCAVAN ROAD,COLERAINE,BT51 4JY,RESIDENTIAL,278507,432282
ST. PAULS ROAD,ARTICLAVE,BT51 4UP,RESIDENTIAL,278508,433755
WOODEND PARK,COLERAINE,BT51 4UY,RESIDENTIAL,278523,434036
WOODEND PARK,COLERAINE,BT51 4UY,RESIDENTIAL,278524,434087
ARDINA ROAD,ARTICLAVE,BT51 4UF,RESIDENTIAL,278529,434014
WOODEND PARK,COLERAINE,BT51 4UY,RESIDENTIAL,278529,434041
WOODEND PARK,COLERAINE,BT51 4UY,RESIDENTIAL,278529,434092
WOODEND PARK,COLERAINE,BT51 4UY,RESIDENTIAL,278531,434098
WOODEND PARK,COLERAINE,BT51 4UY,RESIDENTIAL,278534,434104
WOODEND PARK,COLERAINE,BT51 4UY,RESIDENTIAL,278535,434045
WOODEND PARK,COLERAINE,BT51 4UY,RESIDENTIAL,278536,434110
WOODEND PARK,COLERAINE,BT51 4UY,RESIDENTIAL,278538,434050
WOODEND PARK,COLERAINE,BT51 4UY,RESIDENTIAL,278549,434075
WOODEND PARK,COLERAINE,BT51 4UY,RESIDENTIAL,278551,434081
WOODEND PARK,COLERAINE,BT51 4UY,RESIDENTIAL,278554,434087
WOODEND PARK,COLERAINE,BT51 4UY,RESIDENTIAL,278557,434093
WOODEND PARK,COLERAINE,BT51 4UY,RESIDENTIAL,278559,434098
ARDINA TERRACE,ARTICLAVE,BT51 4XL,UNKNOWN,278671,434219
ARDINA TERRACE,ARTICLAVE,BT51 4XL,RESIDENTIAL,278676,434228
ARDINA TERRACE,ARTICLAVE,BT51 4XL,RESIDENTIAL,278683,434244
ARDINA TERRACE,ARTICLAVE,BT51 4XL,RESIDENTIAL,278688,434253
ARDINA TERRACE,ARTICLAVE,BT51 4XL,RESIDENTIAL,278696,434270
ARDINA TERRACE,ARTICLAVE,BT51 4XL,RESIDENTIAL,278700,434279
ARDINA TERRACE,ARTICLAVE,BT51 4XL,RESIDENTIAL,278707,434295
ARDINA TERRACE,ARTICLAVE,BT51 4XL,RESIDENTIAL,278712,434304
ARDINA TERRACE,ARTICLAVE,BT51 4XL,RESIDENTIAL,278720,434321
ARDINA TERRACE,ARTICLAVE,BT51 4XL,RESIDENTIAL,278724,434330
ARDINA VIEW,ARTICLAVE,BT51 4XJ,RESIDENTIAL,278735,434356
ARDINA VIEW,ARTICLAVE,BT51 4XJ,RESIDENTIAL,278740,434360
GORTYCAVAN ROAD,COLERAINE,BT51 4UL,RESIDENTIAL,278745,432823
ARDINA VIEW,ARTICLAVE,BT51 4XJ,RESIDENTIAL,278750,434385
ARDINA VIEW,ARTICLAVE,BT51 4XJ,RESIDENTIAL,278754,434388
BARMOUTH ROAD,CASTLEROCK,BT51 4XH,UNKNOWN,278764,435058
ARDINA VIEW,ARTICLAVE,BT51 4XJ,RESIDENTIAL,278765,434408
GORTYCAVAN ROAD,COLERAINE,BT51 4UL,RESIDENTIAL,278766,432792
ARDINA VIEW,ARTICLAVE,BT51 4XJ,RESIDENTIAL,278768,434411
ARDINA VIEW,ARTICLAVE,BT51 4XJ,RESIDENTIAL,278776,434431
ARDINA VIEW,ARTICLAVE,BT51 4XJ,RESIDENTIAL,278776,434438
GORTYCAVAN ROAD,COLERAINE,BT51 4LT,RESIDENTIAL,278802,431895
QUILLY ROAD,CASTLEROCK,BT51 4UD,RESIDENTIAL,278835,433819
ARDINA ROAD,ARTICLAVE,BT51 4XH,RESIDENTIAL,278839,434606
ARDINA ROAD,ARTICLAVE,BT51 4XH,RESIDENTIAL,278842,434614
BALLYWOOLEN ROAD,ARTICLAVE,BT51 4XF,UNKNOWN,278854,434939
ARDINA ROAD,ARTICLAVE,BT51 4XH,RESIDENTIAL,278857,434654
ARDINA ROAD,ARTICLAVE,BT51 4XH,RESIDENTIAL,278860,434662
ARDINA ROAD,ARTICLAVE,BT51 4XH,RESIDENTIAL,278884,434719
ARDINA ROAD,ARTICLAVE,BT51 4XH,RESIDENTIAL,278887,434727
BALLYWOOLEN ROAD,ARTICLAVE,BT51 4XF,RESIDENTIAL,278909,434912
BARMOUTH ROAD,CASTLEROCK,BT51 4XG,RESIDENTIAL,278940,435496
BARMOUTH ROAD,CASTLEROCK,BT51 4XG,RESIDENTIAL,278955,435262
BARMOUTH ROAD,CASTLEROCK,BT51 4XG,RESIDENTIAL,278962,435516
BARMOUTH ROAD,CASTLEROCK,BT51 4XG,RESIDENTIAL,278971,435512
BARMOUTH ROAD,CASTLEROCK,BT51 4XG,RESIDENTIAL,278972,435484
ARDINA ROAD,ARTICLAVE,BT51 4XH,RESIDENTIAL,278973,434256
BARMOUTH ROAD,CASTLEROCK,BT51 4XG,RESIDENTIAL,278980,435508
BARMOUTH ROAD,CASTLEROCK,BT51 4XG,RESIDENTIAL,278992,435483
BARMOUTH ROAD,CASTLEROCK,BT51 4XG,RESIDENTIAL,278998,435250
BARMOUTH ROAD,CASTLEROCK,BT51 4XG,RESIDENTIAL,278998,435506
BARMOUTH ROAD,CASTLEROCK,BT51 4XG,RESIDENTIAL,279014,435229
BARMOUTH ROAD,CASTLEROCK,BT51 4XG,RESIDENTIAL,279047,435479
GORTYCAVAN ROAD,COLERAINE,BT51 4UL,RESIDENTIAL,279059,433346
BARMOUTH ROAD,CASTLEROCK,BT51 4XG,RESIDENTIAL,279100,435478
BARMOUTH ROAD,CASTLEROCK,BT51 4XG,RESIDENTIAL,279125,435468
BARMOUTH ROAD,CASTLEROCK,BT51 4XG,RESIDENTIAL,279173,435447
GORTYCAVAN ROAD,COLERAINE,BT51 4UL,RESIDENTIAL,279212,433467
DARTRESS TERRACE,COLERAINE,BT51 4UH,RESIDENTIAL,279218,433616
DARTRESS TERRACE,COLERAINE,BT51 4UH,RESIDENTIAL,279224,433616
DARTRESS TERRACE,COLERAINE,BT51 4UH,RESIDENTIAL,279241,433608
DARTRESS TERRACE,COLERAINE,BT51 4UH,RESIDENTIAL,279247,433608
DARTRESS TERRACE,COLERAINE,BT51 4UH,RESIDENTIAL,279264,433602
DARTRESS TERRACE,COLERAINE,BT51 4UH,RESIDENTIAL,279271,433603
QUILLY ROAD,CASTLEROCK,BT51 4UD,RESIDENTIAL,279284,433593
BLAKES ROAD,COLERAINE,BT51 4UE,RESIDENTIAL,279287,433140
QUILLY ROAD,CASTLEROCK,BT51 4UD,RESIDENTIAL,279292,433591
BLAKES ROAD,COLERAINE,BT51 4UE,RESIDENTIAL,279298,433111
BLAKES ROAD,COLERAINE,BT51 4UE,RESIDENTIAL,279346,432989
QUILLY ROAD,CASTLEROCK,BT51 4UB,RESIDENTIAL,279409,433416
QUILLY ROAD,CASTLEROCK,BT51 4UB,RESIDENTIAL,279487,433431
BALLYWOOLEN ROAD,CASTLEROCK,BT51 4XQ,RESIDENTIAL,279653,434904
BLAKES ROAD,COLERAINE,BT51 4UE,RESIDENTIAL,279732,432525
QUILLY ROAD,ARTICLAVE,BT51 4UB,RESIDENTIAL,279853,433257
BLAKES ROAD,COLERAINE,BT51 4UE,RESIDENTIAL,279991,432328
QUILLY ROAD,COLERAINE,BT51 3PF,RESIDENTIAL,280124,433255
GREEN ROAD,COLERAINE,BT51 4LX,RESIDENTIAL,280164,433868
BLAKES ROAD,COLERAINE,BT51 4LU,RESIDENTIAL,280205,431672
GREEN ROAD,COLERAINE,BT51 4LX,RESIDENTIAL,280249,433804
BLAKES ROAD,COLERAINE,BT51 4LU,RESIDENTIAL,280279,431814
GREEN ROAD,COLERAINE,BT51 4LX,RESIDENTIAL,280290,433809
GREEN ROAD,COLERAINE,BT51 4LX,RESIDENTIAL,280406,432988
BLAKES ROAD,COLERAINE,BT51 4LU,RESIDENTIAL,280449,431383
BLAKES ROAD,COLERAINE,BT51 4LU,RESIDENTIAL,280454,431375
BLAKES ROAD,COLERAINE,BT51 4LU,RESIDENTIAL,280485,431341
BLAKES ROAD,COLERAINE,BT51 4LU,RESIDENTIAL,280488,431335
GREEN ROAD,COLERAINE,BT51 4LX,RESIDENTIAL,280533,431607
QUILLY ROAD,COLERAINE,BT51 3PF,RESIDENTIAL,280533,433172
GREEN ROAD,COLERAINE,BT51 4LX,RESIDENTIAL,280565,431701
QUILLY ROAD,COLERAINE,BT51 3PF,RESIDENTIAL,280612,433080
WINDYHILL ROAD,ARTIKELLY,BT51 4LP,RESIDENTIAL,280629,431261
GREEN ROAD,COLERAINE,BT51 4LX,RESIDENTIAL,280676,432192
GREEN ROAD,COLERAINE,BT51 4LX,RESIDENTIAL,280683,432298
QUILLY ROAD,COLERAINE,BT51 3PF,RESIDENTIAL,280710,433028
GREEN ROAD,COLERAINE,BT51 4LX,RESIDENTIAL,280724,432243
MASTERAGWEE ROAD,COLERAINE,BT51 3NS,RESIDENTIAL,280901,433486
MASTERAGWEE TERRACE,COLERAINE,BT51 3NT,RESIDENTIAL,281022,433202
CRANAGH ROAD,COLERAINE,BT51 3NN,RESIDENTIAL,281024,434966
MASTERAGWEE TERRACE,COLERAINE,BT51 3NT,RESIDENTIAL,281029,433205
MASTERAGWEE TERRACE,COLERAINE,BT51 3NT,RESIDENTIAL,281051,433213
MASTERAGWEE TERRACE,COLERAINE,BT51 3NT,RESIDENTIAL,281057,433216
MASTERAGWEE TERRACE,COLERAINE,BT51 3NT,RESIDENTIAL,281079,433225
WINDYHILL ROAD,ARTIKELLY,BT51 4JL,RESIDENTIAL,274545,430921
KNOCKNOUGHER ROAD,COLERAINE,BT51 4LA,UNKNOWN,275509,431070
KNOCKNOUGHER ROAD,COLERAINE,BT51 4LA,RESIDENTIAL,275518,430773
BRATWELL ROAD,COLERAINE,BT51 4LB,RESIDENTIAL,276379,430710
BRATWELL ROAD,COLERAINE,BT51 4LB,RESIDENTIAL,276467,430983
BRATWELL ROAD,COLERAINE,BT51 4LB,RESIDENTIAL,276468,430975
FORMOYLE ROAD,COLERAINE,BT51 4JP,RESIDENTIAL,276937,428474
FORMOYLE ROAD,COLERAINE,BT51 4JP,RESIDENTIAL,276993,428870
FORMOYLE ROAD,COLERAINE,BT51 4JP,RESIDENTIAL,276995,428505
FORMOYLE ROAD,COLERAINE,BT51 4JP,RESIDENTIAL,277139,428586
FORMOYLE ROAD,COLERAINE,BT51 4JP,RESIDENTIAL,277140,428477
FORMOYLE ROAD,COLERAINE,BT51 4JP,RESIDENTIAL,277145,428481
WINDYHILL ROAD,ARTIKELLY,BT51 4JL,RESIDENTIAL,277249,429457
WINDYHILL ROAD,ARTIKELLY,BT51 4JL,RESIDENTIAL,277338,429432
WINDYHILL ROAD,ARTIKELLY,BT51 4JL,RESIDENTIAL,277437,429454
WINDYHILL ROAD,ARTIKELLY,BT51 4JL,RESIDENTIAL,277529,430060
WINDYHILL ROAD,ARTIKELLY,BT51 4JL,RESIDENTIAL,277718,429432
WINDYHILL ROAD,ARTIKELLY,BT51 4JL,RESIDENTIAL,277898,430035
WINDYHILL ROAD,ARTIKELLY,BT51 4JL,RESIDENTIAL,277988,429903
WINDYHILL ROAD,ARTIKELLY,BT51 4JL,RESIDENTIAL,277996,429618
DUNBOE ROAD,COLERAINE,BT51 4JS,RESIDENTIAL,278017,430883
WINDYHILL ROAD,ARTIKELLY,BT51 4JL,RESIDENTIAL,278064,429733
WINDYHILL ROAD,ARTIKELLY,BT51 4JL,RESIDENTIAL,278068,429572
DUNBOE ROAD,COLERAINE,BT51 4JS,RESIDENTIAL,278220,431136
DUNBOE ROAD,COLERAINE,BT51 4JS,RESIDENTIAL,278256,431101
DUNBOE ROAD,COLERAINE,BT51 4JS,RESIDENTIAL,278301,430531
DUNBOE ROAD,COLERAINE,BT51 4JS,RESIDENTIAL,278323,430162
DUNBOE ROAD,COLERAINE,BT51 4JS,RESIDENTIAL,278343,430814
DUNHILL ROAD,COLERAINE,BT51 4JA,RESIDENTIAL,278427,426987
DUNBOE ROAD,COLERAINE,BT51 4JS,RESIDENTIAL,278427,430168
DUNHILL ROAD,COLERAINE,BT51 4JA,RESIDENTIAL,278473,427525
DUNHILL ROAD,COLERAINE,BT51 4JA,RESIDENTIAL,278487,427519
WINDYHILL ROAD,ARTIKELLY,BT51 4JN,RESIDENTIAL,278495,430203
DUNBOE ROAD,COLERAINE,BT51 4JS,RESIDENTIAL,278529,430948
DUNHILL ROAD,COLERAINE,BT51 4JA,RESIDENTIAL,278589,427244
SPRINGWELL CRESCENT,COLERAINE,BT51 4JQ,RESIDENTIAL,278590,427474
SPRINGWELL CRESCENT,COLERAINE,BT51 4JQ,RESIDENTIAL,278642,427503
SPRINGWELL CRESCENT,COLERAINE,BT51 4JQ,RESIDENTIAL,278658,427491
SPRINGWELL CRESCENT,COLERAINE,BT51 4JQ,RESIDENTIAL,278671,427476
SPRINGWELL CRESCENT,COLERAINE,BT51 4JQ,RESIDENTIAL,278680,427464
SPRINGWELL CRESCENT,COLERAINE,BT51 4JQ,RESIDENTIAL,278690,427454
SPRINGWELL CRESCENT,COLERAINE,BT51 4JQ,RESIDENTIAL,278701,427444
WINDYHILL ROAD,ARTIKELLY,BT51 4LW,RESIDENTIAL,278779,430905
WINDYHILL ROAD,ARTIKELLY,BT51 4JN,RESIDENTIAL,278820,430181
WINDYHILL ROAD,ARTIKELLY,BT51 4JN,RESIDENTIAL,278852,430061
WINDYHILL ROAD,ARTIKELLY,BT51 4JN,COMMERCIAL,278887,430233
WINDYHILL ROAD,ARTIKELLY,BT51 4JN,RESIDENTIAL,278950,430257
ISLE ROAD,COLERAINE,BT51 4JH,RESIDENTIAL,278972,428526
WINDYHILL ROAD,ARTIKELLY,BT51 4JN,RESIDENTIAL,278983,430199
BALLINREES LANE,COLERAINE,BT51 4JW,RESIDENTIAL,279026,429968
BALLINREES LANE,COLERAINE,BT51 4JW,RESIDENTIAL,279066,429990
GORTYCAVAN ROAD,COLERAINE,BT51 4LT,RESIDENTIAL,279197,431111
ISLE ROAD,COLERAINE,BT51 4JH,RESIDENTIAL,279241,427949
GORTYCAVAN ROAD,COLERAINE,BT51 4LT,RESIDENTIAL,279270,431155
ISLE ROAD,COLERAINE,BT51 4JH,RESIDENTIAL,279283,428153
GORTYCAVAN ROAD,COLERAINE,BT51 4LT,RESIDENTIAL,279300,431104
ISLE ROAD,COLERAINE,BT51 4JH,RESIDENTIAL,279306,427764
GORTYCAVAN ROAD,COLERAINE,BT51 4LT,RESIDENTIAL,279357,431010
GORTYCAVAN ROAD,COLERAINE,BT51 4LT,RESIDENTIAL,279402,430962
GORTYCAVAN ROAD,COLERAINE,BT51 4LT,RESIDENTIAL,279458,430915
WINDYHILL ROAD,ARTIKELLY,BT51 4JN,RESIDENTIAL,279464,430598
WINDYHILL ROAD,ARTIKELLY,BT51 4LW,RESIDENTIAL,279471,430602
BALLINREES LANE,COLERAINE,BT51 4JW,RESIDENTIAL,279501,429493
ISLE ROAD,COLERAINE,BT51 4JH,RESIDENTIAL,279523,427536
WINDYHILL ROAD,ARTIKELLY,BT51 4LW,RESIDENTIAL,279528,430595
WINDYHILL ROAD,ARTIKELLY,BT51 4LW,RESIDENTIAL,279536,430600
WINDYHILL ROAD,ARTIKELLY,BT51 4LW,RESIDENTIAL,279679,430565
SHINNY ROAD,COLERAINE,BT51 4PT,RESIDENTIAL,279687,425470
SHINNY ROAD,COLERAINE,BT51 4PT,RESIDENTIAL,279723,425558
BALTEAGH LANE,COLERAINE,BT51 4JG,RESIDENTIAL,279772,427946
WINDYHILL ROAD,ARTIKELLY,BTXX XXX,UNKNOWN,279803,430718
SHINNY ROAD,COLERAINE,BT51 4PT,RESIDENTIAL,279880,425527
SHINNY ROAD,COLERAINE,BT51 4PT,RESIDENTIAL,279954,425037
DUNHILL ROAD,COLERAINE,BT51 4JD,RESIDENTIAL,279959,427581
WINDYHILL ROAD,ARTIKELLY,BTXX XXX,UNKNOWN,279961,430126
SHINNY ROAD,COLERAINE,BT51 4PS,COMMERCIAL,279981,424971
BALTEAGH LANE,COLERAINE,BT51 4JG,RESIDENTIAL,280002,427883
WINDYHILL ROAD,ARTIKELLY,BT51 4LP,RESIDENTIAL,280015,430921
LETTERLOAN ROAD,COLERAINE,BT51 4PP,RESIDENTIAL,280078,425161
BALTEAGH LANE,COLERAINE,BT51 4JG,RESIDENTIAL,280093,427688
BALLYSTRONE ROAD,COLERAINE,BT51 4LS,RESIDENTIAL,280124,430664
LETTERLOAN ROAD,COLERAINE,BT51 4PP,RESIDENTIAL,280144,425207
DUNHILL ROAD,COLERAINE,BT51 4JD,RESIDENTIAL,280174,427710
WINDYHILL ROAD,ARTIKELLY,BT51 4LP,RESIDENTIAL,280176,430869
LETTERLOAN ROAD,COLERAINE,BT51 4PP,RESIDENTIAL,280309,424863
BALLYSTRONE ROAD,COLERAINE,BT51 4JF,RESIDENTIAL,280325,430135
BALLYSTRONE ROAD,COLERAINE,BT51 4JF,RESIDENTIAL,280327,430128
BALLYSTRONE ROAD,COLERAINE,BT51 4JF,RESIDENTIAL,280341,430253
BALLYSTRONE ROAD,COLERAINE,BT51 4LS,RESIDENTIAL,280353,430354
LETTERLOAN ROAD,COLERAINE,BT51 4PP,RESIDENTIAL,280377,425297
BALLYSTRONE ROAD,COLERAINE,BT51 4JF,RESIDENTIAL,280433,429410
BALLYSTRONE ROAD,COLERAINE,BT51 4JF,RESIDENTIAL,280442,429596
BALLYSTRONE ROAD,COLERAINE,BT51 4JF,UNKNOWN,280442,429603
WINDYHILL ROAD,ARTIKELLY,BT51 4LP,RESIDENTIAL,280469,431156
BALLYSTRONE ROAD,COLERAINE,BT51 4JF,RESIDENTIAL,280491,429157
WINDYHILL ROAD,ARTIKELLY,BT51 4LP,RESIDENTIAL,280491,431183
BALLYSTRONE ROAD,COLERAINE,BT51 4JF,RESIDENTIAL,280504,429487
DUNHILL ROAD,COLERAINE,BT51 4JD,RESIDENTIAL,280530,427743
BALLYSTRONE ROAD,COLERAINE,BT51 4JF,RESIDENTIAL,280598,428944
DUNHILL ROAD,COLERAINE,BT51 4JD,RESIDENTIAL,280612,427820
DUNHILL ROAD,COLERAINE,BT51 4JD,RESIDENTIAL,280616,427822
DUNHILL ROAD,COLERAINE,BT51 4JD,RESIDENTIAL,280618,427779
RINGRASH ROAD,COLERAINE,BT51 4LL,RESIDENTIAL,280671,431173
BALLYSTRONE ROAD,COLERAINE,BT51 4JF,RESIDENTIAL,280673,428169
DUNHILL ROAD,COLERAINE,BT51 4JD,RESIDENTIAL,280697,427719
BALLYSTRONE ROAD,COLERAINE,BT51 4JF,RESIDENTIAL,280724,428807
BALLYSTRONE ROAD,COLERAINE,BT51 4JF,UNKNOWN,280726,428757
BALLYSTRONE ROAD,COLERAINE,BT51 4JF,RESIDENTIAL,280747,428696
LETTERLOAN ROAD,COLERAINE,BT51 4PP,COMMERCIAL,280763,425866
RINGRASH ROAD,COLERAINE,BT51 4LL,RESIDENTIAL,280764,431084
LETTERLOAN ROAD,COLERAINE,BT51 4PP,RESIDENTIAL,280765,425899
LETTERLOAN ROAD,COLERAINE,BT51 4PP,RESIDENTIAL,280765,425936
RINGRASH ROAD,COLERAINE,BT51 4LL,RESIDENTIAL,280773,430978
DUNHILL ROAD,COLERAINE,BT51 4JD,RESIDENTIAL,280778,427832
KILTINNY PARK,COLERAINE,BT51 4JE,RESIDENTIAL,280783,427767
LETTERLOAN ROAD,COLERAINE,BT51 4PP,RESIDENTIAL,280802,426041
KILTINNY PARK,COLERAINE,BT51 4JE,RESIDENTIAL,280833,427825
KILTINNY PARK,COLERAINE,BT51 4JE,RESIDENTIAL,280837,427761
RINGRASH ROAD,COLERAINE,BT51 4LL,RESIDENTIAL,280850,430783
RINGRASH ROAD,COLERAINE,BT51 4LJ,RESIDENTIAL,280858,429936
KILTINNY PARK,COLERAINE,BT51 4JE,RESIDENTIAL,280861,427436
KILTINNY PARK,COLERAINE,BT51 4JE,RESIDENTIAL,280879,427822
KILTINNY PARK,COLERAINE,BT51 4JE,RESIDENTIAL,280884,427788
RINGRASH ROAD,COLERAINE,BT51 4LL,RESIDENTIAL,280909,430733
RINGRASH ROAD,COLERAINE,BT51 4LL,RESIDENTIAL,280944,430794
KILTINNY PARK,COLERAINE,BT51 4JE,RESIDENTIAL,280962,427627
RINGRASH ROAD,COLERAINE,BT51 4LJ,RESIDENTIAL,281022,430680
CAM ROAD,COLERAINE,BT51 4PX,RESIDENTIAL,278230,424260
CAM ROAD,COLERAINE,BT51 4PX,RESIDENTIAL,278486,424275
CAM ROAD,COLERAINE,BT51 4PX,UNKNOWN,278734,424301
CAM ROAD,COLERAINE,BT51 4PX,RESIDENTIAL,278908,424301
CAM LANE,COLERAINE,BT51 4PU,RESIDENTIAL,279319,424053
CAM LANE,COLERAINE,BT51 4PU,RESIDENTIAL,280148,424028
CAM ROAD,COLERAINE,BT51 4PU,UNKNOWN,280279,424038
SHINNY ROAD,COLERAINE,BT51 4PS,RESIDENTIAL,280310,424098
CASHEL ROAD,COLERAINE,BT51 4PR,RESIDENTIAL,280696,424366
LIFFOCK PARK,CASTLEROCK,BT51 4DG,RESIDENTIAL,277460,435539
LIFFOCK PARK,CASTLEROCK,BT51 4DG,RESIDENTIAL,277486,435533
LIFFOCK PARK,CASTLEROCK,BT51 4DG,RESIDENTIAL,277624,435562
LIFFOCK PARK,CASTLEROCK,BT51 4DG,RESIDENTIAL,277602,435532
LIFFOCK PARK,CASTLEROCK,BT51 4DG,RESIDENTIAL,277610,435545
STABLE LANE,CASTLEROCK,BT51 4HD,RESIDENTIAL,277312,436010
STABLE LANE,CASTLEROCK,BT51 4HD,UNKNOWN,277312,436010
STABLE LANE,CASTLEROCK,BT51 4HD,RESIDENTIAL,277312,436010
DUNHILL ROAD,COLERAINE,BT51 4JG,RESIDENTIAL,280164,427671
DUNHILL ROAD,COLERAINE,BT51 4JD,COMMERCIAL,280096,427616
DUNHILL ROAD,COLERAINE,BT51 4JD,RESIDENTIAL,280453,427736
BALTEAGH LANE,COLERAINE,BT51 4JG,RESIDENTIAL,280007,427831
ISLE ROAD,COLERAINE,BT51 4JH,RESIDENTIAL,279265,427986
WINDYHILL ROAD,ARTIKELLY,BT51 4JL,RESIDENTIAL,277592,429627
DUNBOE ROAD,COLERAINE,BT51 4JR,RESIDENTIAL,277306,433017
DUNBOE ROAD,COLERAINE,BT51 4JR,UNKNOWN,277306,433017
DUNBOE ROAD,COLERAINE,BT51 4JS,RESIDENTIAL,278272,430916
DUNBOE ROAD,COLERAINE,BT51 4JS,RESIDENTIAL,278272,430916
DUNBOE ROAD,COLERAINE,BT51 4JS,RESIDENTIAL,278272,430916
DUNBOE ROAD,COLERAINE,BT51 4JS,RESIDENTIAL,278272,430916
SCONCE ROAD,ARTICLAVE,BT51 4JT,RESIDENTIAL,278356,433715
BALLINREES LANE,COLERAINE,BT51 4JW,RESIDENTIAL,279337,429689
BALLINREES LANE,COLERAINE,BT51 4JW,RESIDENTIAL,279337,429689
GORTYCAVAN ROAD,COLERAINE,BT51 4JY,RESIDENTIAL,278507,432282
GORTYCAVAN ROAD,COLERAINE,BT51 4JY,RESIDENTIAL,278507,432282
KNOCKNOUGHER ROAD,COLERAINE,BT51 4JZ,RESIDENTIAL,276325,431497
KNOCKNOUGHER ROAD,COLERAINE,BT51 4JZ,RESIDENTIAL,276679,431768
KNOCKNOUGHER ROAD,COLERAINE,BT51 4LA,RESIDENTIAL,275429,431117
KNOCKNOUGHER ROAD,COLERAINE,BT51 4LA,UNKNOWN,275429,431117
KNOCKNOUGHER ROAD,COLERAINE,BT51 4LA,UNKNOWN,275429,431117
BRATWELL ROAD,COLERAINE,BT51 4LB,RESIDENTIAL,276438,430889
BRATWELL ROAD,COLERAINE,BT51 4LB,RESIDENTIAL,276438,430889
BRATWELL ROAD,COLERAINE,BT51 4LB,UNKNOWN,276438,430889
SEACOURT MEWS,CASTLEROCK,BT51 4LG,RESIDENTIAL,277425,435885
SEACOURT MEWS,CASTLEROCK,BT51 4LG,RESIDENTIAL,277404,435886
SEACOURT MEWS,CASTLEROCK,BT51 4LG,RESIDENTIAL,277430,435881
SEACOURT MEWS,CASTLEROCK,BT51 4LG,RESIDENTIAL,277412,435871
SEACOURT MEWS,CASTLEROCK,BT51 4LG,RESIDENTIAL,277440,435873
SEACOURT MEWS,CASTLEROCK,BT51 4LG,RESIDENTIAL,277417,435866
SEACOURT MEWS,CASTLEROCK,BT51 4LG,RESIDENTIAL,277444,435867
SEACOURT MEWS,CASTLEROCK,BT51 4LG,RESIDENTIAL,277427,435853
SEACOURT MEWS,CASTLEROCK,BT51 4LG,RESIDENTIAL,277438,435850
SEACOURT MEWS,CASTLEROCK,BT51 4LG,RESIDENTIAL,277443,435848
WINDYHILL ROAD,ARTIKELLY,BT51 4LP,RESIDENTIAL,280356,431078
GORTYCAVAN ROAD,COLERAINE,BT51 4LT,RESIDENTIAL,279331,431043
GORTYCAVAN ROAD,COLERAINE,BT51 4LT,RESIDENTIAL,279331,431043
GREEN ROAD,COLERAINE,BT51 4LX,RESIDENTIAL,280477,432723
GREEN ROAD,COLERAINE,BT51 4LX,RESIDENTIAL,280477,432723
MUSSENDEN VIEW,ARTICLAVE,BT51 4NZ,RESIDENTIAL,278294,434075
MUSSENDEN VIEW,ARTICLAVE,BT51 4NZ,RESIDENTIAL,278309,434110
MUSSENDEN VIEW,ARTICLAVE,BT51 4NZ,RESIDENTIAL,278308,434096
MUSSENDEN VIEW,ARTICLAVE,BT51 4NZ,RESIDENTIAL,278305,434061
MUSSENDEN VIEW,ARTICLAVE,BT51 4NZ,RESIDENTIAL,278312,434061
MUSSENDEN VIEW,ARTICLAVE,BT51 4NZ,RESIDENTIAL,278330,434072
LETTERLOAN ROAD,COLERAINE,BT51 4PP,RESIDENTIAL,280246,425231
SHINNY ROAD,COLERAINE,BT51 4PS,RESIDENTIAL,280216,424517
SHINNY ROAD,COLERAINE,BT51 4PS,RESIDENTIAL,280216,424517
SHINNY ROAD,COLERAINE,BT51 4PS,RESIDENTIAL,280216,424517
SHINNY ROAD,COLERAINE,BT51 4PS,RESIDENTIAL,280216,424517
SHINNY ROAD,COLERAINE,BT51 4PS,RESIDENTIAL,280216,424517
SHINNY ROAD,COLERAINE,BT51 4PS,RESIDENTIAL,280216,424517
SHINNY ROAD,COLERAINE,BT51 4PS,RESIDENTIAL,280356,424483
SHINNY ROAD,COLERAINE,BT51 4PS,RESIDENTIAL,280216,424517
CAM LANE,COLERAINE,BT51 4PU,UNKNOWN,280175,424038
CAM LANE,COLERAINE,BT51 4PU,RESIDENTIAL,279319,424053
CAM ROAD,COLERAINE,BT51 4PX,RESIDENTIAL,279355,424425
ISLAY COURT,CASTLEROCK,BT51 4PZ,UNKNOWN,277655,435960
ISLAY COURT,CASTLEROCK,BT51 4PZ,RESIDENTIAL,277677,435906
ISLAY COURT,CASTLEROCK,BT51 4PZ,RESIDENTIAL,277712,435885
INNIS COURT,CASTLEROCK,BT51 4QA,RESIDENTIAL,277471,436151
SOLITUDE PARK,CASTLEROCK,BT51 4RG,UNKNOWN,276725,436172
SOLITUDE PARK,CASTLEROCK,BT51 4RG,RESIDENTIAL,276725,436172
TUNNEL BRAE,CASTLEROCK,BT51 4RH,UNKNOWN,276731,436275
FREEHALL ROAD,CASTLEROCK,BT51 4RL,RESIDENTIAL,277009,435625
FREEHALL ROAD,CASTLEROCK,BT51 4RL,RESIDENTIAL,276944,435638
FREEHALL ROAD,CASTLEROCK,BT51 4RL,RESIDENTIAL,277009,435625
FREEHALL ROAD,CASTLEROCK,BT51 4RL,RESIDENTIAL,277009,435625
FREEHALL ROAD,CASTLEROCK,BT51 4RL,RESIDENTIAL,277009,435625
MUSSENDEN ROAD,CASTLEROCK,BT51 4RP,RESIDENTIAL,275142,436064
MUSSENDEN ROAD,CASTLEROCK,BT51 4RP,RESIDENTIAL,275136,436067
MUSSENDEN ROAD,CASTLEROCK,BT51 4RP,RESIDENTIAL,275130,436070
MUSSENDEN ROAD,CASTLEROCK,BT51 4RP,RESIDENTIAL,275123,436071
BALLYMADIGAN ROAD,CASTLEROCK,BT51 4RR,RESIDENTIAL,276512,434961
BALLYMADIGAN ROAD,CASTLEROCK,BT51 4RR,UNKNOWN,276512,434961
MUSSENDEN ROAD,CASTLEROCK,BT51 4RW,RESIDENTIAL,276819,434966
BALLYWOODOCK ROAD,CASTLEROCK,BT51 4RX,UNKNOWN,275596,434728
BURRENMORE ROAD,CASTLEROCK,BT51 4SA,RESIDENTIAL,275301,435163
BURRENMORE ROAD,CASTLEROCK,BT51 4SA,RESIDENTIAL,275301,435163
BURRENMORE ROAD,CASTLEROCK,BT51 4SG,RESIDENTIAL,274447,434239
ALTIKEERAGH ROAD,COLERAINE,BT51 4SH,RESIDENTIAL,275413,434016
ALTIKEERAGH ROAD,COLERAINE,BT51 4SH,RESIDENTIAL,275468,433884
BALLYWOODOCK ROAD,CASTLEROCK,BT51 4SL,RESIDENTIAL,276774,434261
BALLYHACKETT ROAD,CASTLEROCK,BT51 4SQ,RESIDENTIAL,274883,434001
BALLYHACKETT ROAD,CASTLEROCK,BT51 4SQ,RESIDENTIAL,274883,434001
ALTIKEERAGH ROAD,COLERAINE,BT51 4SR,RESIDENTIAL,275500,433259
ALTIKEERAGH ROAD,COLERAINE,BT51 4SR,RESIDENTIAL,275434,433027
ALTIKEERAGH LANE,CASTLEROCK,BT51 4SS,UNKNOWN,275689,432155
ALTIKEERAGH LANE,CASTLEROCK,BT51 4SS,RESIDENTIAL,275664,432170
ALTIKEERAGH LANE,CASTLEROCK,BT51 4SS,RESIDENTIAL,275664,432170
ALTIKEERAGH ROAD,COLERAINE,BT51 4ST,RESIDENTIAL,275386,432191
BALLYHACKETT LANE,CASTLEROCK,BT51 4SU,RESIDENTIAL,275056,433066
GLEBE ROAD,CASTLEROCK,BT51 4SW,RESIDENTIAL,276263,433251
GLEBE ROAD,CASTLEROCK,BT51 4SW,RESIDENTIAL,276634,432640
GLEBE ROAD,CASTLEROCK,BT51 4SW,RESIDENTIAL,276522,432875
GLEBE ROAD,CASTLEROCK,BT51 4SW,RESIDENTIAL,276521,432719
LIFFOCK CRESCENT,CASTLEROCK,BT51 4TG,RESIDENTIAL,277392,435566
LIFFOCK CRESCENT,CASTLEROCK,BT51 4TG,RESIDENTIAL,277444,435623
SEA ROAD,CASTLEROCK,BT51 4TL,COMMERCIAL,277363,436008
SEA ROAD,CASTLEROCK,BT51 4TL,RESIDENTIAL,277405,436018
SEA ROAD,CASTLEROCK,BT51 4TL,RESIDENTIAL,277405,436018
SEA ROAD,CASTLEROCK,BT51 4TL,RESIDENTIAL,277401,436032
SEA ROAD,CASTLEROCK,BT51 4TN,COMMERCIAL,277353,435916
SEA ROAD,CASTLEROCK,BT51 4TN,RESIDENTIAL,277369,435904
SEA ROAD,CASTLEROCK,BT51 4TW,UNKNOWN,277300,435657
SEA ROAD,CASTLEROCK,BT51 4TW,RESIDENTIAL,277373,435832
SEA ROAD,CASTLEROCK,BT51 4TW,RESIDENTIAL,277295,435573
SEA ROAD,CASTLEROCK,BT51 4TW,RESIDENTIAL,277292,435544
SEA ROAD,CASTLEROCK,BT51 4TW,RESIDENTIAL,277373,435832
MUSSENDEN ROAD,ARTICLAVE,BT51 4TX,COMMERCIAL,277735,434539
MUSSENDEN ROAD,ARTICLAVE,BT51 4TY,RESIDENTIAL,277918,434288
EXORNA LANE,ARTICLAVE,BT51 4UA,RESIDENTIAL,277804,434659
ARDINA ROAD,ARTICLAVE,BT51 4UF,COMMERCIAL,278497,434010
ST. PAULS ROAD,ARTICLAVE,BT51 4UN,UNKNOWN,278262,433914
ST. PAULS ROAD,ARTICLAVE,BT51 4UP,RESIDENTIAL,278457,433802
ST. PAULS ROAD,ARTICLAVE,BT51 4UP,COMMERCIAL,278457,433802
ST. PAULS ROAD,ARTICLAVE,BT51 4UP,RESIDENTIAL,278457,433802
MUSSENDEN GRANGE,ARTICLAVE,BT51 4US,RESIDENTIAL,277973,434068
MUSSENDEN GRANGE,ARTICLAVE,BT51 4US,RESIDENTIAL,278097,434082
MUSSENDEN GRANGE,ARTICLAVE,BT51 4US,RESIDENTIAL,278097,434082
MUSSENDEN GRANGE,ARTICLAVE,BT51 4US,RESIDENTIAL,278057,434092
MUSSENDEN GRANGE,ARTICLAVE,BT51 4US,UNKNOWN,278031,434062
MUSSENDEN GRANGE,ARTICLAVE,BT51 4US,RESIDENTIAL,278073,434107
MUSSENDEN GRANGE,ARTICLAVE,BT51 4US,RESIDENTIAL,277958,434070
FREEHALL PARK,CASTLEROCK,BT51 4UT,RESIDENTIAL,277035,435731
FREEHALL PARK,CASTLEROCK,BT51 4UT,RESIDENTIAL,277031,435725
FREEHALL PARK,CASTLEROCK,BT51 4UT,RESIDENTIAL,277031,435712
FREEHALL PARK,CASTLEROCK,BT51 4UT,RESIDENTIAL,277035,435708
FREEHALL PARK,CASTLEROCK,BT51 4UT,RESIDENTIAL,276991,435721
FREEHALL PARK,CASTLEROCK,BT51 4UT,RESIDENTIAL,276993,435728
FREEHALL PARK,CASTLEROCK,BT51 4UT,RESIDENTIAL,276994,435734
FREEHALL PARK,CASTLEROCK,BT51 4UT,RESIDENTIAL,276997,435741
FREEHALL PARK,CASTLEROCK,BT51 4UT,RESIDENTIAL,276998,435748
FREEHALL PARK,CASTLEROCK,BT51 4UT,RESIDENTIAL,277004,435766
FREEHALL PARK,CASTLEROCK,BT51 4UT,RESIDENTIAL,276998,435769
FREEHALL PARK,CASTLEROCK,BT51 4UT,RESIDENTIAL,276992,435773
FREEHALL PARK,CASTLEROCK,BT51 4UT,RESIDENTIAL,276987,435777
FREEHALL PARK,CASTLEROCK,BT51 4UT,RESIDENTIAL,276981,435780
FREEHALL PARK,CASTLEROCK,BT51 4UT,RESIDENTIAL,276975,435784
FREEHALL PARK,CASTLEROCK,BT51 4UT,RESIDENTIAL,277021,435778
FREEHALL PARK,CASTLEROCK,BT51 4UT,RESIDENTIAL,276973,435797
FREEHALL PARK,CASTLEROCK,BT51 4UT,RESIDENTIAL,276977,435802
FREEHALL PARK,CASTLEROCK,BT51 4UT,RESIDENTIAL,276981,435808
FREEHALL PARK,CASTLEROCK,BT51 4UT,RESIDENTIAL,276987,435814
FREEHALL PARK,CASTLEROCK,BT51 4UT,RESIDENTIAL,276994,435811
FREEHALL PARK,CASTLEROCK,BT51 4UT,RESIDENTIAL,276999,435807
FREEHALL PARK,CASTLEROCK,BT51 4UT,RESIDENTIAL,277005,435804
FREEHALL PARK,CASTLEROCK,BT51 4UT,RESIDENTIAL,277011,435799
FREEHALL PARK,CASTLEROCK,BT51 4UT,RESIDENTIAL,277021,435783
FREEHALL PARK,CASTLEROCK,BT51 4UT,RESIDENTIAL,277025,435788
FREEHALL PARK,CASTLEROCK,BT51 4UT,RESIDENTIAL,277029,435794
FREEHALL PARK,CASTLEROCK,BT51 4UT,RESIDENTIAL,277031,435799
FREEHALL PARK,CASTLEROCK,BT51 4UT,RESIDENTIAL,277050,435832
FREEHALL PARK,CASTLEROCK,BT51 4UT,RESIDENTIAL,277054,435828
FREEHALL PARK,CASTLEROCK,BT51 4UT,RESIDENTIAL,277060,435824
FREEHALL PARK,CASTLEROCK,BT51 4UT,RESIDENTIAL,277065,435820
FREEHALL PARK,CASTLEROCK,BT51 4UT,RESIDENTIAL,277072,435813
FREEHALL PARK,CASTLEROCK,BT51 4UT,RESIDENTIAL,277068,435807
FREEHALL PARK,CASTLEROCK,BT51 4UT,RESIDENTIAL,277065,435801
FREEHALL PARK,CASTLEROCK,BT51 4UT,RESIDENTIAL,277060,435795
FREEHALL PARK,CASTLEROCK,BT51 4UT,RESIDENTIAL,277049,435779
FREEHALL PARK,CASTLEROCK,BT51 4UT,RESIDENTIAL,277054,435775
FREEHALL PARK,CASTLEROCK,BT51 4UT,RESIDENTIAL,277060,435768
FREEHALL PARK,CASTLEROCK,BT51 4UT,RESIDENTIAL,277057,435762
FREEHALL PARK,CASTLEROCK,BT51 4UT,RESIDENTIAL,277053,435757
FREEHALL PARK,CASTLEROCK,BT51 4UT,RESIDENTIAL,277049,435751
FREEHALL PARK,CASTLEROCK,BT51 4UT,RESIDENTIAL,277044,435743
FREEHALL PARK,CASTLEROCK,BT51 4UT,RESIDENTIAL,277039,435736
EXORNA PARK,ARTICLAVE,BT51 4UX,RESIDENTIAL,277878,434193
EXORNA PARK,ARTICLAVE,BT51 4UX,RESIDENTIAL,277792,434132
EXORNA PARK,ARTICLAVE,BT51 4UX,RESIDENTIAL,277878,434193
MUSSENDEN GARDENS,ARTICLAVE,BT51 4UZ,RESIDENTIAL,278264,434173
MUSSENDEN GARDENS,ARTICLAVE,BT51 4UZ,RESIDENTIAL,278252,434180
MUSSENDEN GARDENS,ARTICLAVE,BT51 4UZ,RESIDENTIAL,278258,434177
CIRCULAR ROAD,CASTLEROCK,BT51 4XA,RESIDENTIAL,277600,435879
CIRCULAR ROAD,CASTLEROCK,BT51 4XA,RESIDENTIAL,277600,435879
CIRCULAR ROAD,CASTLEROCK,BT51 4XA,RESIDENTIAL,277600,435879
CIRCULAR ROAD,CASTLEROCK,BT51 4XA,RESIDENTIAL,277600,435879
CIRCULAR ROAD,CASTLEROCK,BT51 4XA,COMMERCIAL,277600,435879
CIRCULAR ROAD,CASTLEROCK,BT51 4XA,RESIDENTIAL,277726,435931
BELVEDERE AVENUE,CASTLEROCK,BT51 4XD,UNKNOWN,277082,435598
BELVEDERE AVENUE,CASTLEROCK,BT51 4XD,RESIDENTIAL,277041,435598
BELVEDERE AVENUE,CASTLEROCK,BT51 4XD,RESIDENTIAL,277112,435572
BELVEDERE AVENUE,CASTLEROCK,BT51 4XD,RESIDENTIAL,277087,435561
BELVEDERE AVENUE,CASTLEROCK,BT51 4XD,RESIDENTIAL,277069,435566
BELVEDERE AVENUE,CASTLEROCK,BT51 4XD,RESIDENTIAL,277061,435503
BELVEDERE AVENUE,CASTLEROCK,BT51 4XD,RESIDENTIAL,277107,435495
BELVEDERE AVENUE,CASTLEROCK,BT51 4XD,RESIDENTIAL,277026,435527
BELVEDERE AVENUE,CASTLEROCK,BT51 4XD,RESIDENTIAL,277077,435534
BALLYWOOLEN ROAD,CASTLEROCK,BT51 4XF,RESIDENTIAL,278370,434938
BARMOUTH ROAD,CASTLEROCK,BT51 4XG,UNKNOWN,278946,435366
DUNBOE GARDENS,ARTICLAVE,BT51 4XN,RESIDENTIAL,278206,433826
DUNBOE GARDENS,ARTICLAVE,BT51 4XN,RESIDENTIAL,278210,433822
DUNBOE GARDENS,ARTICLAVE,BT51 4XN,RESIDENTIAL,278239,433792
DUNBOE GARDENS,ARTICLAVE,BT51 4XN,RESIDENTIAL,278239,433751
DUNBOE GARDENS,ARTICLAVE,BT51 4XN,RESIDENTIAL,278251,433777
DUNBOE COURT,ARTICLAVE,BT51 4XP,RESIDENTIAL,278013,433933
BALLYWOOLEN ROAD,CASTLEROCK,BT51 4XQ,RESIDENTIAL,279653,434904
BALLYWOOLEN ROAD,CASTLEROCK,BT51 4XQ,RESIDENTIAL,279653,434904
BALLYWOOLEN ROAD,CASTLEROCK,BT51 4XQ,UNKNOWN,279653,434904
THE FAIRWAYS,CASTLEROCK,BT51 4XR,RESIDENTIAL,277143,435750
THE FAIRWAYS,CASTLEROCK,BT51 4XR,RESIDENTIAL,277162,435789
THE FAIRWAYS,CASTLEROCK,BT51 4XR,RESIDENTIAL,277199,435782
THE FAIRWAYS,CASTLEROCK,BT51 4XR,RESIDENTIAL,277228,435759
THE FAIRWAYS,CASTLEROCK,BT51 4XR,RESIDENTIAL,277264,435731
THE FAIRWAYS,CASTLEROCK,BT51 4XR,RESIDENTIAL,277242,435705
THE FAIRWAYS,CASTLEROCK,BT51 4XR,RESIDENTIAL,277217,435728
THE FAIRWAYS,CASTLEROCK,BT51 4XR,RESIDENTIAL,277191,435750
THE FAIRWAYS,CASTLEROCK,BT51 4XR,RESIDENTIAL,277167,435733
THE FAIRWAYS,CASTLEROCK,BT51 4XR,RESIDENTIAL,277191,435715
THE FAIRWAYS,CASTLEROCK,BT51 4XR,RESIDENTIAL,277221,435698
THE FAIRWAYS,CASTLEROCK,BT51 4XR,RESIDENTIAL,277194,435671
THE FAIRWAYS,CASTLEROCK,BT51 4XR,RESIDENTIAL,277169,435691
THE FAIRWAYS,CASTLEROCK,BT51 4XR,RESIDENTIAL,277146,435711
THE FAIRWAYS,CASTLEROCK,BT51 4XR,RESIDENTIAL,277131,435758
THE FAIRWAYS,CASTLEROCK,BT51 4XR,RESIDENTIAL,277157,435700
THE FAIRWAYS,CASTLEROCK,BT51 4XR,RESIDENTIAL,277154,435774
THE FAIRWAYS,CASTLEROCK,BT51 4XR,RESIDENTIAL,277186,435793
THE FAIRWAYS,CASTLEROCK,BT51 4XR,RESIDENTIAL,277213,435770
THE FAIRWAYS,CASTLEROCK,BT51 4XR,RESIDENTIAL,277242,435748
THE FAIRWAYS,CASTLEROCK,BT51 4XR,RESIDENTIAL,277258,435715
THE FAIRWAYS,CASTLEROCK,BT51 4XR,RESIDENTIAL,277227,435718
THE FAIRWAYS,CASTLEROCK,BT51 4XR,RESIDENTIAL,277203,435741
THE FAIRWAYS,CASTLEROCK,BT51 4XR,RESIDENTIAL,277180,435758
THE FAIRWAYS,CASTLEROCK,BT51 4XR,RESIDENTIAL,277178,435723
THE FAIRWAYS,CASTLEROCK,BT51 4XR,RESIDENTIAL,277205,435708
THE FAIRWAYS,CASTLEROCK,BT51 4XR,RESIDENTIAL,277211,435678
THE FAIRWAYS,CASTLEROCK,BT51 4XR,RESIDENTIAL,277178,435683
STRANDVIEW COTTAGES,CASTLEROCK,BT51 4XS,UNKNOWN,276889,436098
STRANDVIEW COTTAGES,CASTLEROCK,BT51 4XS,RESIDENTIAL,276907,436089
DUNBOE CRESCENT,ARTICLAVE,BT51 4XT,RESIDENTIAL,278082,433867
DUNBOE CRESCENT,ARTICLAVE,BT51 4XT,RESIDENTIAL,278089,433886
DUNBOE CRESCENT,ARTICLAVE,BT51 4XT,RESIDENTIAL,278106,433843
DUNBOE CRESCENT,ARTICLAVE,BT51 4XT,RESIDENTIAL,278103,433837
DUNBOE CRESCENT,ARTICLAVE,BT51 4XT,RESIDENTIAL,278094,433826
DUNBOE CRESCENT,ARTICLAVE,BT51 4XT,RESIDENTIAL,278090,433822
DUNBOE CRESCENT,ARTICLAVE,BT51 4XT,RESIDENTIAL,278080,433861
DUNBOE CRESCENT,ARTICLAVE,BT51 4XT,RESIDENTIAL,278062,433852
BELVEDERE PARK,CASTLEROCK,BT51 4XW,RESIDENTIAL,277191,435637
BELVEDERE PARK,CASTLEROCK,BT51 4XW,RESIDENTIAL,277196,435618
BELVEDERE PARK,CASTLEROCK,BT51 4XW,RESIDENTIAL,277219,435617
BELVEDERE PARK,CASTLEROCK,BT51 4XW,RESIDENTIAL,277237,435615
BELVEDERE PARK,CASTLEROCK,BT51 4XW,UNKNOWN,277197,435590
MUSSENDEN GROVE,ARTICLAVE,BT51 4XX,RESIDENTIAL,277990,433958
MUSSENDEN GROVE,ARTICLAVE,BT51 4XX,RESIDENTIAL,277976,434038
MUSSENDEN GROVE,ARTICLAVE,BT51 4XX,RESIDENTIAL,277985,434004
MUSSENDEN GROVE,ARTICLAVE,BT51 4XX,RESIDENTIAL,277968,433990
MUSSENDEN GROVE,ARTICLAVE,BT51 4XX,RESIDENTIAL,277967,433971
MUSSENDEN GROVE,ARTICLAVE,BT51 4XX,RESIDENTIAL,278002,433967
MUSSENDEN GROVE,ARTICLAVE,BT51 4XX,RESIDENTIAL,277980,434019
MUSSENDEN GROVE,ARTICLAVE,BT51 4XX,RESIDENTIAL,278010,433978
MUSSENDEN CRESCENT,ARTICLAVE,BT51 4XY,RESIDENTIAL,277997,434067
MUSSENDEN CRESCENT,ARTICLAVE,BT51 4XY,RESIDENTIAL,277994,434081
MUSSENDEN CRESCENT,ARTICLAVE,BT51 4XY,RESIDENTIAL,277986,434093
MUSSENDEN CRESCENT,ARTICLAVE,BT51 4XY,RESIDENTIAL,277976,434101
MUSSENDEN CRESCENT,ARTICLAVE,BT51 4XY,RESIDENTIAL,277952,434132
MUSSENDEN CRESCENT,ARTICLAVE,BT51 4XY,RESIDENTIAL,277894,434138
MUSSENDEN CRESCENT,ARTICLAVE,BT51 4XY,RESIDENTIAL,277966,434110
MUSSENDEN CRESCENT,ARTICLAVE,BT51 4XY,RESIDENTIAL,277934,434166
MUSSENDEN CRESCENT,ARTICLAVE,BT51 4XY,RESIDENTIAL,277943,434175
MUSSENDEN CRESCENT,ARTICLAVE,BT51 4XY,RESIDENTIAL,277991,434139
MUSSENDEN CRESCENT,ARTICLAVE,BT51 4XY,RESIDENTIAL,277983,434150
MUSSENDEN CRESCENT,ARTICLAVE,BT51 4XY,UNKNOWN,277952,434132
MUSSENDEN CRESCENT,ARTICLAVE,BT51 4XY,RESIDENTIAL,277953,434134
MUSSENDEN CRESCENT,ARTICLAVE,BT51 4XY,RESIDENTIAL,277973,434164
MUSSENDEN CRESCENT,ARTICLAVE,BT51 4XY,RESIDENTIAL,277957,434174
MUSSENDEN CRESCENT,ARTICLAVE,BT51 4XY,RESIDENTIAL,277931,434103
MUSSENDEN CRESCENT,ARTICLAVE,BT51 4XY,RESIDENTIAL,277923,434154
MUSSENDEN CRESCENT,ARTICLAVE,BT51 4XY,RESIDENTIAL,277904,434124
MUSSENDEN CRESCENT,ARTICLAVE,BT51 4XY,RESIDENTIAL,277996,434128
MUSSENDEN CRESCENT,ARTICLAVE,BT51 4XY,RESIDENTIAL,277959,434123
MUSSENDEN CRESCENT,ARTICLAVE,BT51 4XY,RESIDENTIAL,277946,434109
MUSSENDEN CRESCENT,ARTICLAVE,BT51 4XY,RESIDENTIAL,277908,434151
MAIN STREET,CASTLEROCK,BT51 4RA,UNKNOWN,277378,436068
ALTIKEERAGH ROAD,COLERAINE,BT51 4SH,RESIDENTIAL,275468,433884
ALTIKEERAGH ROAD,COLERAINE,UNKNOWN,RESIDENTIAL,275386,432191
ARDINA ROAD,ARTICLAVE,BTXX XXX,COMMERCIAL,278893,434667
ARDINA ROAD,ARTICLAVE,BT51 4XH,RESIDENTIAL,278867,434663
ARDINA ROAD,ARTICLAVE,BTXX XXX,COMMERCIAL,278548,434342
ARTIDILLON ROAD,CASTLEROCK,BT51 4SP,RESIDENTIAL,275812,433262
BABINGTON TERRACE,CASTLEROCK,BT51 4RD,RESIDENTIAL,277164,436139
BABINGTON TERRACE,CASTLEROCK,BT51 4RD,RESIDENTIAL,277164,436139
BABINGTON TERRACE,CASTLEROCK,BT51 4RD,RESIDENTIAL,277164,436139
BALLYHACKETT ROAD,CASTLEROCK,BTXX XXX,COMMERCIAL,274832,434558
BALLYMADIGAN ROAD,CASTLEROCK,BT51 4RR,RESIDENTIAL,276512,434961
BALLYWOODOCK ROAD,CASTLEROCK,BT51 4RX,RESIDENTIAL,275596,434728
BALLYWOODOCK ROAD,CASTLEROCK,BT51 4RT,RESIDENTIAL,275640,434640
BELVEDERE AVENUE,CASTLEROCK,BT51 4XD,RESIDENTIAL,277034,435576
BELVEDERE AVENUE,CASTLEROCK,BT51 4XD,RESIDENTIAL,277063,435537
BELVEDERE AVENUE,CASTLEROCK,BT51 4XD,RESIDENTIAL,277037,435504
BELVEDERE AVENUE,CASTLEROCK,BT51 4XD,RESIDENTIAL,277091,435493
CASTLEWALK,CASTLEROCK,BT51 4TP,COMMERCIAL,277310,435895
CHURCH PASS,CASTLEROCK,BTXX XXX,COMMERCIAL,275925,434492
DUNBOE GARDENS,ARTICLAVE,BT51 4XN,RESIDENTIAL,278251,433771
DUNBOE ROAD,CASTLEROCK,BT51 4TB,RESIDENTIAL,276985,434462
FREEHALL ROAD,CASTLEROCK,BT51 4TR,COMMERCIAL,277198,436048
GLEBE ROAD,CASTLEROCK,BT51 4SW,RESIDENTIAL,276298,433219
GLEBE ROAD,CASTLEROCK,BT51 4SW,RESIDENTIAL,276298,433219
GLEBE ROAD,COLERAINE,BT51 4LD,RESIDENTIAL,276580,432556
LIFFOCK PARK,CASTLEROCK,BT51 4DG,RESIDENTIAL,277616,435559
MUSSENDEN ROAD,ARTICLAVE,BT51 4TY,COMMERCIAL,278018,434194
MUSSENDEN GRANGE,ARTICLAVE,BT51 4US,RESIDENTIAL,278031,434062
SCHOOL LANE,CASTLEROCK,BT51 4RJ,COMMERCIAL,276783,435975
PROMENADE,CASTLEROCK,BT51 4RE,COMMERCIAL,277425,436157
SEA ROAD,CASTLEROCK,BT51 4TN,COMMERCIAL,277353,435916
SEA ROAD,CASTLEROCK,BT51 4TN,RESIDENTIAL,277369,435904
SEA ROAD,CASTLEROCK,BT51 4TN,RESIDENTIAL,277369,435904
SEA ROAD,CASTLEROCK,BT51 4TW,RESIDENTIAL,277222,434902
SEACOAST ROAD,CASTLEROCK,BT51 4SD,RESIDENTIAL,274451,436032
SEACOAST ROAD,CASTLEROCK,BT51 4SD,RESIDENTIAL,274451,436032
SEACOAST ROAD,CASTLEROCK,BT51 4SD,RESIDENTIAL,274451,436032
SEACOAST ROAD,CASTLEROCK,BT51 4SD,COMMERCIAL,274451,436032
SOLITUDE PARK,CASTLEROCK,BT51 4RG,RESIDENTIAL,276725,436172
SOLITUDE PARK,CASTLEROCK,BT51 4RG,RESIDENTIAL,276725,436172
SOLITUDE PARK,CASTLEROCK,BT51 4RG,COMMERCIAL,276725,436172
SOLITUDE PARK,CASTLEROCK,BT51 4RG,RESIDENTIAL,276725,436172
ST. PAULS ROAD,ARTICLAVE,BT51 4UW,COMMERCIAL,278385,433912
ST. PAULS ROAD,ARTICLAVE,BT51 4UW,COMMERCIAL,278385,433912
ST. PAULS ROAD,ARTICLAVE,BT51 4UP,COMMERCIAL,278469,433804
MAIN STREET,CASTLEROCK,BT51 4RF,RESIDENTIAL,277126,436230
MAIN STREET,CASTLEROCK,BT51 4RF,RESIDENTIAL,277349,436112
ISLAY COURT,CASTLEROCK,BT51 4PZ,RESIDENTIAL,277616,435943
MAIN STREET,CASTLEROCK,BT51 4RA,UNKNOWN,277230,436104
BALLYSTRONE ROAD,COLERAINE,BT51 4JF,COMMERCIAL,280521,429319
BALLYSTRONE ROAD,COLERAINE,BT51 4JF,RESIDENTIAL,280521,429319
BALLYSTRONE ROAD,COLERAINE,BT51 4JF,COMMERCIAL,280521,429319
BALLYWOOLEN ROAD,CASTLEROCK,BT51 4XQ,RESIDENTIAL,280120,434949
DUNHILL ROAD,COLERAINE,BT51 4JA,COMMERCIAL,278494,427319
DUNHILL ROAD,COLERAINE,BT51 4JA,COMMERCIAL,278494,427319
FORMOYLE ROAD,COLERAINE,BT51 4JP,RESIDENTIAL,277069,428565
FORMOYLE ROAD,COLERAINE,BT51 4JP,COMMERCIAL,277135,428560
GREEN ROAD,COLERAINE,BT51 4LX,COMMERCIAL,280477,432723
ISLE ROAD,COLERAINE,BT51 4JH,RESIDENTIAL,279265,427986
SCONCE ROAD,ARTICLAVE,BT51 4JU,RESIDENTIAL,276803,431084
SCONCE ROAD,ARTICLAVE,BT51 4UR,RESIDENTIAL,276874,430664
SCONCE ROAD,ARTICLAVE,BT51 4UR,RESIDENTIAL,278387,433812
SCONCE ROAD,ARTICLAVE,BT51 4UR,RESIDENTIAL,278387,433812
CAM LANE,COLERAINE,BT51 4PU,RESIDENTIAL,279848,424042
CAM ROAD,COLERAINE,BT51 4PX,COMMERCIAL,278033,424065
CAM ROAD,COLERAINE,BT51 4PX,RESIDENTIAL,278033,424065
SHINNY ROAD,COLERAINE,BT51 4PT,RESIDENTIAL,279811,425398
SHINNY ROAD,COLERAINE,BT51 4PT,RESIDENTIAL,279811,425398
SHINNY ROAD,COLERAINE,BT51 4PT,RESIDENTIAL,279811,425398
SHINNY ROAD,COLERAINE,BT51 4PT,RESIDENTIAL,279811,425398
GORTREE PARK,CASTLEROCK,BT51 4RN,RESIDENTIAL,277057,435694
GORTREE PARK,CASTLEROCK,BT51 4RN,RESIDENTIAL,277057,435694
GORTREE PARK,CASTLEROCK,BT51 4RN,RESIDENTIAL,277062,435701
GORTREE PARK,CASTLEROCK,BT51 4RN,RESIDENTIAL,277062,435701
GORTREE PARK,CASTLEROCK,BT51 4TT,RESIDENTIAL,277099,435792
GORTREE PARK,CASTLEROCK,BT51 4TT,RESIDENTIAL,277099,435792
GORTREE PARK,CASTLEROCK,BT51 4TT,RESIDENTIAL,277100,435801
GORTREE PARK,CASTLEROCK,BT51 4TT,RESIDENTIAL,277100,435801
SEA ROAD,CASTLEROCK,BT51 4TW,COMMERCIAL,277300,435657
SEA ROAD,CASTLEROCK,BT51 4TW,UNKNOWN,277300,435657
MAIN STREET,CASTLEROCK,BT51 4RA,RESIDENTIAL,277051,436178
MAIN STREET,CASTLEROCK,BT51 4RA,UNKNOWN,277058,436233
MAIN STREET,CASTLEROCK,BT51 4RA,UNKNOWN,277058,436233
MAIN STREET,CASTLEROCK,BT51 4RA,UNKNOWN,277058,436233
MAIN STREET,CASTLEROCK,BT51 4RA,UNKNOWN,277058,436233
MAIN STREET,CASTLEROCK,BT51 4RA,UNKNOWN,277058,436233
MAIN STREET,CASTLEROCK,BT51 4RA,UNKNOWN,277058,436233
MAIN STREET,CASTLEROCK,BT51 4RA,UNKNOWN,277058,436233
MAIN STREET,CASTLEROCK,BT51 4RA,UNKNOWN,277058,436233
MAIN STREET,CASTLEROCK,BT51 4RA,UNKNOWN,277058,436233
MAIN STREET,CASTLEROCK,BT51 4RA,UNKNOWN,277058,436233
MAIN STREET,CASTLEROCK,BT51 4RA,UNKNOWN,277058,436233
MAIN STREET,CASTLEROCK,BT51 4RA,UNKNOWN,277058,436233
MAIN STREET,CASTLEROCK,BT51 4RA,UNKNOWN,277058,436233
MAIN STREET,CASTLEROCK,BT51 4RA,UNKNOWN,277058,436233
MAIN STREET,CASTLEROCK,BT51 4RA,UNKNOWN,277058,436233
MAIN STREET,CASTLEROCK,BT51 4RA,UNKNOWN,277058,436233
MAIN STREET,CASTLEROCK,BT51 4RA,RESIDENTIAL,277059,436176
MAIN STREET,CASTLEROCK,BT51 4RA,RESIDENTIAL,277075,436221
MAIN STREET,CASTLEROCK,BT51 4RA,RESIDENTIAL,277076,436168
MAIN STREET,CASTLEROCK,BT51 4RA,RESIDENTIAL,277086,436162
MAIN STREET,CASTLEROCK,BT51 4RA,RESIDENTIAL,277087,436209
MAIN STREET,CASTLEROCK,BT51 4RA,RESIDENTIAL,277101,436162
MAIN STREET,CASTLEROCK,BT51 4RA,RESIDENTIAL,277110,436158
MAIN STREET,CASTLEROCK,BT51 4RA,RESIDENTIAL,277139,436200
MAIN STREET,CASTLEROCK,BT51 4RA,RESIDENTIAL,277169,436184
MAIN STREET,CASTLEROCK,BTXX XXX,UNKNOWN,276799,436301
MAIN STREET,CASTLEROCK,BT51 4RA,RESIDENTIAL,276863,436239
OCEAN VIEW,CASTLEROCK,BTXX XXX,UNKNOWN,276832,436271
OCEAN VIEW,CASTLEROCK,BTXX XXX,UNKNOWN,276832,436271
MAIN STREET,CASTLEROCK,BT51 4RA,RESIDENTIAL,276876,436237
MAIN STREET,CASTLEROCK,BT51 4RA,RESIDENTIAL,276884,436175
MAIN STREET,CASTLEROCK,BT51 4RA,RESIDENTIAL,276894,436234
MAIN STREET,CASTLEROCK,BT51 4RA,RESIDENTIAL,276900,436145
MAIN STREET,CASTLEROCK,BT51 4RA,RESIDENTIAL,276933,436220
MAIN STREET,CASTLEROCK,BT51 4RA,RESIDENTIAL,276943,436261
MAIN STREET,CASTLEROCK,BT51 4RA,RESIDENTIAL,276987,436249
MAIN STREET,CASTLEROCK,BT51 4RA,UNKNOWN,277004,436189
MAIN STREET,CASTLEROCK,BT51 4RA,RESIDENTIAL,277005,436250
MAIN STREET,CASTLEROCK,BT51 4RA,RESIDENTIAL,277028,436192
MAIN STREET,CASTLEROCK,BT51 4RA,RESIDENTIAL,277037,436188
MAIN STREET,CASTLEROCK,BT51 4RA,RESIDENTIAL,277175,436131
MAIN STREET,CASTLEROCK,BT51 4RA,RESIDENTIAL,277180,436128
MAIN STREET,CASTLEROCK,BT51 4RA,RESIDENTIAL,277192,436121
MAIN STREET,CASTLEROCK,BT51 4RA,RESIDENTIAL,277198,436190
MAIN STREET,CASTLEROCK,BT51 4RA,RESIDENTIAL,277206,436114
MAIN STREET,CASTLEROCK,BT51 4RA,RESIDENTIAL,277214,436111
MAIN STREET,CASTLEROCK,BT51 4RA,RESIDENTIAL,277230,436104
MAIN STREET,CASTLEROCK,BT51 4RA,RESIDENTIAL,277237,436100
MAIN STREET,CASTLEROCK,BT51 4RA,RESIDENTIAL,277251,436095
MAIN STREET,CASTLEROCK,BT51 4RA,RESIDENTIAL,277257,436092
MAIN STREET,CASTLEROCK,BT51 4RA,RESIDENTIAL,277268,436135
MAIN STREET,CASTLEROCK,BT51 4RA,RESIDENTIAL,277276,436087
MAIN STREET,CASTLEROCK,BT51 4RA,RESIDENTIAL,277288,436130
MAIN STREET,CASTLEROCK,BT51 4RA,RESIDENTIAL,277292,436062
MAIN STREET,CASTLEROCK,BT51 4RA,RESIDENTIAL,277293,436082
MAIN STREET,CASTLEROCK,BT51 4RA,COMMERCIAL,277296,436073
MAIN STREET,CASTLEROCK,BT51 4RA,RESIDENTIAL,277297,436131
MAIN STREET,CASTLEROCK,BT51 4RA,RESIDENTIAL,277316,436068
MAIN STREET,CASTLEROCK,BT51 4RA,COMMERCIAL,277316,436121
MAIN STREET,CASTLEROCK,BT51 4RA,RESIDENTIAL,277342,436114
MAIN STREET,CASTLEROCK,BT51 4RA,RESIDENTIAL,277346,436050
MAIN STREET,CASTLEROCK,BT51 4RA,RESIDENTIAL,277375,436076
MAIN STREET,CASTLEROCK,BT51 4RA,RESIDENTIAL,277378,436068
MAIN STREET,CASTLEROCK,BT51 4RA,COMMERCIAL,277384,436068
MAIN STREET,CASTLEROCK,BT51 4RA,RESIDENTIAL,277372,436038
MAIN STREET,CASTLEROCK,BT51 4RA,RESIDENTIAL,277372,436038
MAIN STREET,CASTLEROCK,BT51 4RA,RESIDENTIAL,277372,436038
MAIN STREET,CASTLEROCK,BT51 4RA,RESIDENTIAL,277372,436038
MAIN STREET,CASTLEROCK,BT51 4RA,RESIDENTIAL,277372,436038
MAIN STREET,CASTLEROCK,BT51 4RA,RESIDENTIAL,277372,436038
MAIN STREET,CASTLEROCK,BT51 4RA,RESIDENTIAL,277372,436038
MAIN STREET,CASTLEROCK,BT51 4RA,RESIDENTIAL,277372,436038
MAIN STREET,CASTLEROCK,BT51 4RA,RESIDENTIAL,277372,436038
MAIN STREET,CASTLEROCK,BT51 4RA,RESIDENTIAL,277372,436038
MAIN STREET,CASTLEROCK,BT51 4RA,COMMERCIAL,276967,436206
MAIN STREET,CASTLEROCK,BT51 4RA,COMMERCIAL,277320,436067
MAIN STREET,CASTLEROCK,BT51 4RA,RESIDENTIAL,277296,436073
MAIN STREET,CASTLEROCK,BT51 4RA,RESIDENTIAL,277131,436161
MAIN STREET,CASTLEROCK,BT51 4RA,RESIDENTIAL,277131,436161
MAIN STREET,CASTLEROCK,BT51 4RA,RESIDENTIAL,277131,436161
MAIN STREET,CASTLEROCK,BT51 4RA,RESIDENTIAL,277131,436161
MAIN STREET,CASTLEROCK,BT51 4RA,RESIDENTIAL,277131,436161
MAIN STREET,CASTLEROCK,BT51 4RA,RESIDENTIAL,277131,436161
MAIN STREET,CASTLEROCK,BT51 4RA,UNKNOWN,277124,436164
MAIN STREET,CASTLEROCK,BT51 4RA,UNKNOWN,277320,436067
MAIN STREET,CASTLEROCK,BT51 4RA,UNKNOWN,277124,436164
MAIN STREET,CASTLEROCK,BT51 4RA,RESIDENTIAL,277228,436157
MAIN STREET,CASTLEROCK,BT51 4RA,RESIDENTIAL,277228,436157
MAIN STREET,CASTLEROCK,BT51 4RA,RESIDENTIAL,277366,436074
MAIN STREET,CASTLEROCK,BT51 4RA,COMMERCIAL,277366,436074
ALTIKEERAGH ROAD,COLERAINE,BT51 4SR,RESIDENTIAL,275434,433027
ALTIKEERAGH ROAD,COLERAINE,BT51 4ST,RESIDENTIAL,275386,432191
BALLYHACKETT LANE,CASTLEROCK,BT51 4SU,UNKNOWN,275056,433066
BALLYHACKETT LANE,CASTLEROCK,BT51 4SU,UNKNOWN,275056,433066
BALLYHACKETT LANE,CASTLEROCK,BT51 4SU,UNKNOWN,275056,433066
BELVEDERE AVENUE,CASTLEROCK,BT51 4XD,RESIDENTIAL,277061,435605
BELVEDERE AVENUE,CASTLEROCK,BT51 4XD,RESIDENTIAL,277033,435562
BELVEDERE AVENUE,CASTLEROCK,BT51 4XD,RESIDENTIAL,277028,435546
BELVEDERE AVENUE,CASTLEROCK,BT51 4XD,RESIDENTIAL,277097,435528
BELVEDERE AVENUE,CASTLEROCK,BT51 4XD,UNKNOWN,277068,435550
BELVEDERE AVENUE,CASTLEROCK,BT51 4XD,UNKNOWN,277068,435550
BELVEDERE AVENUE,CASTLEROCK,BT51 4XD,UNKNOWN,277068,435550
BELVEDERE AVENUE,CASTLEROCK,BT51 4XD,UNKNOWN,277068,435550
BELVEDERE AVENUE,CASTLEROCK,BT51 4XD,UNKNOWN,277068,435550
BELVEDERE AVENUE,CASTLEROCK,BT51 4XD,UNKNOWN,277068,435550
BELVEDERE AVENUE,CASTLEROCK,BT51 4XD,UNKNOWN,277068,435550
BELVEDERE AVENUE,CASTLEROCK,BT51 4XD,UNKNOWN,277068,435550
BELVEDERE AVENUE,CASTLEROCK,BT51 4XD,UNKNOWN,277068,435550
DUNBOE GARDENS,ARTICLAVE,BT51 4XN,RESIDENTIAL,278209,433774
DUNBOE GARDENS,ARTICLAVE,BT51 4XN,RESIDENTIAL,278213,433779
DUNBOE GARDENS,ARTICLAVE,BT51 4XN,RESIDENTIAL,278244,433756
DUNBOE GARDENS,ARTICLAVE,BT51 4XN,RESIDENTIAL,278229,433743
DUNBOE GARDENS,ARTICLAVE,BT51 4XN,RESIDENTIAL,278223,433739
DUNBOE GARDENS,ARTICLAVE,BT51 4XN,RESIDENTIAL,278192,433771
DUNBOE GARDENS,ARTICLAVE,BT51 4XN,RESIDENTIAL,278188,433766
DUNBOE GARDENS,ARTICLAVE,BT51 4XN,RESIDENTIAL,278175,433755
DUNBOE GARDENS,ARTICLAVE,BT51 4XN,RESIDENTIAL,278190,433733
DUNBOE GARDENS,ARTICLAVE,BT51 4XN,RESIDENTIAL,278212,433728
DUNBOE GARDENS,ARTICLAVE,BT51 4XN,RESIDENTIAL,278205,433728
FORMOYLE ROAD,COLERAINE,BT51 4JF,RESIDENTIAL,280521,429319
GLEBE ROAD,CASTLEROCK,BT51 4SW,RESIDENTIAL,276619,433124
INNIS COURT,CASTLEROCK,BT51 4QA,RESIDENTIAL,277471,436151
INNIS COURT,CASTLEROCK,BT51 4QA,RESIDENTIAL,277477,436149
INNIS COURT,CASTLEROCK,BT51 4QA,RESIDENTIAL,277471,436151
INNIS COURT,CASTLEROCK,BT51 4QA,RESIDENTIAL,277477,436149
INNIS COURT,CASTLEROCK,BT51 4QA,RESIDENTIAL,277477,436149
INNIS COURT,CASTLEROCK,BT51 4QA,RESIDENTIAL,277471,436151
INNIS COURT,CASTLEROCK,BT51 4QA,RESIDENTIAL,277471,436151
INNIS COURT,CASTLEROCK,BT51 4QA,RESIDENTIAL,277477,436149
INNIS COURT,CASTLEROCK,BT51 4QA,RESIDENTIAL,277477,436149
INNIS COURT,CASTLEROCK,BT51 4QA,RESIDENTIAL,277472,436122
INNIS COURT,CASTLEROCK,BT51 4QA,RESIDENTIAL,277471,436114
INNIS COURT,CASTLEROCK,BT51 4QA,RESIDENTIAL,277472,436122
INNIS COURT,CASTLEROCK,BT51 4QA,RESIDENTIAL,277472,436122
INNIS COURT,CASTLEROCK,BT51 4QA,RESIDENTIAL,277471,436114
INNIS COURT,CASTLEROCK,BT51 4QA,RESIDENTIAL,277471,436114
INNIS COURT,CASTLEROCK,BT51 4QA,RESIDENTIAL,277472,436122
INNIS COURT,CASTLEROCK,BT51 4QA,RESIDENTIAL,277472,436122
INNIS COURT,CASTLEROCK,BT51 4QA,RESIDENTIAL,277471,436114
INNIS COURT,CASTLEROCK,BT51 4QA,RESIDENTIAL,277471,436114
MUSSENDEN GRANGE,ARTICLAVE,BT51 4US,RESIDENTIAL,277940,434069
MUSSENDEN GRANGE,ARTICLAVE,BT51 4US,RESIDENTIAL,277927,434065
MUSSENDEN GRANGE,ARTICLAVE,BT51 4US,RESIDENTIAL,278031,434062
MUSSENDEN GRANGE,ARTICLAVE,BT51 4US,RESIDENTIAL,277952,434035
MUSSENDEN GRANGE,ARTICLAVE,BT51 4US,RESIDENTIAL,277907,434018
MUSSENDEN GRANGE,ARTICLAVE,BT51 4US,RESIDENTIAL,277937,434036
MUSSENDEN GRANGE,ARTICLAVE,BT51 4US,UNKNOWN,278031,434062
MUSSENDEN GRANGE,ARTICLAVE,BT51 4US,RESIDENTIAL,277941,434017
MUSSENDEN GRANGE,ARTICLAVE,BT51 4US,RESIDENTIAL,277943,434002
MUSSENDEN GRANGE,ARTICLAVE,BT51 4US,UNKNOWN,278031,434062
MUSSENDEN GRANGE,ARTICLAVE,BT51 4US,UNKNOWN,277944,433988
MUSSENDEN GRANGE,ARTICLAVE,BT51 4US,UNKNOWN,278031,434062
MUSSENDEN GRANGE,ARTICLAVE,BT51 4US,RESIDENTIAL,277940,433974
ISLAY COURT,CASTLEROCK,BT51 4PZ,RESIDENTIAL,277692,435895
KNOCKNOUGHER ROAD,COLERAINE,BT51 4LA,RESIDENTIAL,275429,431117
MUSSENDEN VIEW,ARTICLAVE,BT51 4NZ,RESIDENTIAL,278330,434080
MUSSENDEN VIEW,ARTICLAVE,BT51 4NZ,RESIDENTIAL,278339,434094
MUSSENDEN VIEW,ARTICLAVE,BT51 4NZ,RESIDENTIAL,278352,434176
MUSSENDEN VIEW,ARTICLAVE,BT51 4NZ,RESIDENTIAL,278366,434167
MUSSENDEN VIEW,ARTICLAVE,BT51 4NZ,RESIDENTIAL,278382,434151
MUSSENDEN VIEW,ARTICLAVE,BT51 4NZ,RESIDENTIAL,278377,434155
MUSSENDEN VIEW,ARTICLAVE,BT51 4NZ,RESIDENTIAL,278360,434123
MUSSENDEN VIEW,ARTICLAVE,BT51 4NZ,RESIDENTIAL,278346,434176
MUSSENDEN VIEW,ARTICLAVE,BT51 4NZ,RESIDENTIAL,278331,434134
MUSSENDEN CRESCENT,ARTICLAVE,BT51 4XY,UNKNOWN,277916,434116
MUSSENDEN GROVE,ARTICLAVE,BT51 4XX,UNKNOWN,278008,434031
MUSSENDEN GROVE,ARTICLAVE,BT51 4XX,RESIDENTIAL,278024,434005
MUSSENDEN GROVE,ARTICLAVE,BT51 4XX,RESIDENTIAL,278022,433988
MUSSENDEN GROVE,ARTICLAVE,BT51 4XX,RESIDENTIAL,277973,433959
MUSSENDEN CRESCENT,ARTICLAVE,BT51 4XY,UNKNOWN,277952,434132
MUSSENDEN CRESCENT,ARTICLAVE,BT51 4XY,UNKNOWN,277952,434132
MUSSENDEN CRESCENT,ARTICLAVE,BT51 4XY,UNKNOWN,277952,434132
MUSSENDEN GROVE,ARTICLAVE,BT51 4XX,UNKNOWN,277992,433992
ALTIKEERAGH ROAD,COLERAINE,BT51 4SR,RESIDENTIAL,275434,433027
ALTIKEERAGH ROAD,COLERAINE,BT51 4SR,RESIDENTIAL,275434,433027
ALTIKEERAGH ROAD,COLERAINE,BT51 4SR,UNKNOWN,275434,433027
BALLYHACKETT LANE,CASTLEROCK,BT51 4SU,RESIDENTIAL,275056,433066
SCHOOL LANE,CASTLEROCK,BT51 4RJ,UNKNOWN,276783,435975
SCHOOL LANE,CASTLEROCK,BT51 4RJ,RESIDENTIAL,276796,435956
SCHOOL LANE,CASTLEROCK,BT51 4RJ,UNKNOWN,276783,435975
EXORNA LANE,ARTICLAVE,BT51 4UA,COMMERCIAL,277804,434659
BLAKES ROAD,COLERAINE,BT51 4UE,UNKNOWN,279531,432819
BLAKES ROAD,COLERAINE,BT51 4UE,UNKNOWN,279531,432819
BLAKES ROAD,COLERAINE,BT51 4UE,UNKNOWN,279531,432819
GORTYCAVAN ROAD,COLERAINE,BT51 4JY,RESIDENTIAL,278507,432282
GORTYCAVAN ROAD,COLERAINE,BT51 4JY,RESIDENTIAL,278507,432282
KNOCKNOUGHER ROAD,COLERAINE,BT51 4JZ,RESIDENTIAL,276679,431768
SCONCE ROAD,ARTICLAVE,BT51 4JT,RESIDENTIAL,277914,432857
SCONCE ROAD,ARTICLAVE,BT51 4JT,UNKNOWN,277914,432857
ISLAY COURT,CASTLEROCK,BT51 4PZ,RESIDENTIAL,277615,435918
DUNBOE GARDENS,ARTICLAVE,BT51 4XN,RESIDENTIAL,278219,433810
DUNBOE GARDENS,ARTICLAVE,BT51 4XN,RESIDENTIAL,278235,433797
DUNBOE GARDENS,ARTICLAVE,BT51 4XN,RESIDENTIAL,278224,433805
DUNBOE GARDENS,ARTICLAVE,BT51 4XN,RESIDENTIAL,278185,433736
DUNBOE GARDENS,ARTICLAVE,BT51 4XN,RESIDENTIAL,278175,433749
MUSSENDEN VIEW,ARTICLAVE,BT51 4NZ,UNKNOWN,278368,434084
MUSSENDEN VIEW,ARTICLAVE,BT51 4NZ,RESIDENTIAL,278341,434149
PROMENADE,CASTLEROCK,BT51 4RE,COMMERCIAL,277419,436107
PROMENADE,CASTLEROCK,BT51 4RE,COMMERCIAL,277419,436107
PROMENADE,CASTLEROCK,BT51 4RE,COMMERCIAL,277419,436107
PROMENADE,CASTLEROCK,BT51 4RE,COMMERCIAL,277419,436107
PROMENADE,CASTLEROCK,BT51 4RE,COMMERCIAL,277419,436107
PROMENADE,CASTLEROCK,BT51 4RE,COMMERCIAL,277419,436107
PROMENADE,CASTLEROCK,BT51 4RE,COMMERCIAL,277419,436107
PROMENADE,CASTLEROCK,BT51 4RE,COMMERCIAL,277419,436107
SEA ROAD,CASTLEROCK,BT51 4RE,UNKNOWN,277419,436107
ISLAY COURT,CASTLEROCK,BT51 4PZ,UNKNOWN,277658,435915
WINDYHILL ROAD,ARTIKELLY,BT51 4JN,COMMERCIAL,278822,430232
WINDYHILL ROAD,ARTIKELLY,BT51 4JN,COMMERCIAL,278822,430232
BALLINREES LANE,COLERAINE,BT51 4JW,RESIDENTIAL,279337,429689
DUNBOE ROAD,COLERAINE,BT51 4JS,RESIDENTIAL,278272,430916
DUNBOE ROAD,COLERAINE,BT51 4JS,RESIDENTIAL,278272,430916
ISLE ROAD,COLERAINE,BT51 4JH,RESIDENTIAL,279265,427986
ISLE ROAD,COLERAINE,BT51 4JH,UNKNOWN,279265,427986
BURRENMORE ROAD,CASTLEROCK,BT51 4SG,UNKNOWN,274447,434239
MAIN STREET,CASTLEROCK,BT51 4RA,RESIDENTIAL,277346,436050
MAIN STREET,CASTLEROCK,BT51 4RA,RESIDENTIAL,277320,436067
MAIN STREET,CASTLEROCK,BT51 4RA,RESIDENTIAL,277375,436076
MAIN STREET,CASTLEROCK,BT51 4RA,RESIDENTIAL,277366,436074
BALLYSTRONE ROAD,COLERAINE,BT51 4JF,UNKNOWN,280521,429319
SCONCE ROAD,ARTICLAVE,BT51 4JT,RESIDENTIAL,277914,432857
BALLYHACKETT ROAD,CASTLEROCK,BT51 4SQ,UNKNOWN,274883,434001
BALLYHACKETT ROAD,CASTLEROCK,BT51 4SQ,UNKNOWN,274883,434001
BALLYHACKETT ROAD,CASTLEROCK,BT51 4SQ,UNKNOWN,274883,434001
BARMOUTH ROAD,CASTLEROCK,BT51 4XG,RESIDENTIAL,279003,435417
BARMOUTH ROAD,CASTLEROCK,BT51 4XG,RESIDENTIAL,279003,435417
SHINNY ROAD,COLERAINE,BT51 4PS,RESIDENTIAL,280216,424517
SHINNY ROAD,COLERAINE,BT51 4PS,RESIDENTIAL,280216,424517
CAM ROAD,COLERAINE,BT51 4PX,RESIDENTIAL,278033,424065
GLEBE ROAD,COLERAINE,BT51 4SW,RESIDENTIAL,276298,433219
DUNHILL ROAD,COLERAINE,BT51 4JA,COMMERCIAL,278494,427319
MUSSENDEN GARDENS,ARTICLAVE,BT51 4UZ,UNKNOWN,278269,434219
MUSSENDEN GARDENS,ARTICLAVE,BT51 4UZ,UNKNOWN,278275,434216
MUSSENDEN GARDENS,ARTICLAVE,BT51 4UZ,UNKNOWN,278280,434211
MUSSENDEN GARDENS,ARTICLAVE,BT51 4UZ,UNKNOWN,278287,434209
MUSSENDEN GARDENS,ARTICLAVE,BT51 4UZ,UNKNOWN,278297,434203
MUSSENDEN GARDENS,ARTICLAVE,BT51 4UZ,UNKNOWN,278302,434200
MUSSENDEN GARDENS,ARTICLAVE,BT51 4UZ,UNKNOWN,278313,434194
MUSSENDEN GARDENS,ARTICLAVE,BT51 4UZ,UNKNOWN,278318,434191
MUSSENDEN GARDENS,ARTICLAVE,BT51 4UZ,UNKNOWN,278324,434188
MUSSENDEN GARDENS,ARTICLAVE,BT51 4UZ,UNKNOWN,278330,434184
MUSSENDEN VIEW,ARTICLAVE,BT51 4NZ,RESIDENTIAL,278384,434114
MUSSENDEN VIEW,ARTICLAVE,BT51 4NZ,UNKNOWN,278387,434062
MUSSENDEN VIEW,ARTICLAVE,BT51 4NZ,UNKNOWN,278390,434068
MUSSENDEN VIEW,ARTICLAVE,BT51 4NZ,UNKNOWN,278393,434126
MUSSENDEN VIEW,ARTICLAVE,BT51 4NZ,UNKNOWN,278398,434080
MUSSENDEN VIEW,ARTICLAVE,BT51 4NZ,UNKNOWN,278398,434140
MUSSENDEN VIEW,ARTICLAVE,BT51 4NZ,UNKNOWN,278402,434085
MUSSENDEN VIEW,ARTICLAVE,BT51 4NZ,UNKNOWN,278402,434145
MUSSENDEN VIEW,ARTICLAVE,BT51 4NZ,UNKNOWN,278411,434097
MUSSENDEN VIEW,ARTICLAVE,BT51 4NZ,UNKNOWN,278414,434102
MUSSENDEN VIEW,ARTICLAVE,BT51 4NZ,UNKNOWN,278424,434114
MUSSENDEN VIEW,ARTICLAVE,BT51 4NZ,UNKNOWN,278427,434120
INNIS COURT,CASTLEROCK,BT51 4QA,RESIDENTIAL,277471,436114
INNIS COURT,CASTLEROCK,BT51 4QA,RESIDENTIAL,277471,436151
INNIS COURT,CASTLEROCK,BT51 4QA,RESIDENTIAL,277472,436122
INNIS COURT,CASTLEROCK,BT51 4QA,RESIDENTIAL,277477,436149
SEACOURT MEWS,CASTLEROCK,BT51 4LG,UNKNOWN,277388,435900
MUSSENDEN ROAD,ARTICLAVE,BT51 4TY,RESIDENTIAL,278104,434127
MUSSENDEN ROAD,ARTICLAVE,BT51 4TY,UNKNOWN,278105,434071
MUSSENDEN ROAD,ARTICLAVE,BT51 4TY,RESIDENTIAL,278107,434122
MUSSENDEN ROAD,ARTICLAVE,BT51 4TY,RESIDENTIAL,278112,434118
MUSSENDEN ROAD,ARTICLAVE,BT51 4TY,UNKNOWN,278115,434060
MUSSENDEN ROAD,ARTICLAVE,BT51 4TY,RESIDENTIAL,278159,434137
MUSSENDEN ROAD,ARTICLAVE,BT51 4TY,UNKNOWN,278218,434163
MUSSENDEN CLOSE,ARTICLAVE,BT51 4XZ,UNKNOWN,277909,434078
MUSSENDEN CLOSE,ARTICLAVE,BT51 4XZ,UNKNOWN,277896,434088
MUSSENDEN CLOSE,ARTICLAVE,BT51 4XZ,UNKNOWN,277888,434097
MUSSENDEN CLOSE,ARTICLAVE,BT51 4XZ,UNKNOWN,277876,434110
MUSSENDEN CLOSE,ARTICLAVE,BT51 4XZ,UNKNOWN,277857,434104
MUSSENDEN CLOSE,ARTICLAVE,BT51 4XZ,UNKNOWN,277896,434048
MUSSENDEN CLOSE,ARTICLAVE,BT51 4XZ,UNKNOWN,277884,434057
MUSSENDEN CLOSE,ARTICLAVE,BT51 4XZ,UNKNOWN,277872,434063
MUSSENDEN CLOSE,ARTICLAVE,BT51 4XZ,UNKNOWN,277858,434068
MUSSENDEN CLOSE,ARTICLAVE,BT51 4XZ,UNKNOWN,277848,434079
MUSSENDEN CLOSE,ARTICLAVE,BT51 4XZ,UNKNOWN,277845,434093
MUSSENDEN VIEW,ARTICLAVE,BT51 4NZ,UNKNOWN,278338,434017
MUSSENDEN VIEW,ARTICLAVE,BT51 4NZ,UNKNOWN,278333,434023
MUSSENDEN VIEW,ARTICLAVE,BT51 4NZ,UNKNOWN,278326,434037
MUSSENDEN VIEW,ARTICLAVE,BT51 4NZ,UNKNOWN,278327,434042
MUSSENDEN VIEW,ARTICLAVE,BT51 4NZ,UNKNOWN,278341,434053
MUSSENDEN VIEW,ARTICLAVE,BT51 4NZ,UNKNOWN,278353,434059
MUSSENDEN VIEW,ARTICLAVE,BT51 4NZ,UNKNOWN,278356,434064
MUSSENDEN VIEW,ARTICLAVE,BT51 4NZ,UNKNOWN,278365,434079
MUSSENDEN VIEW,ARTICLAVE,BT51 4NZ,UNKNOWN,278358,434013
MUSSENDEN VIEW,ARTICLAVE,BT51 4NZ,UNKNOWN,278367,434031
MUSSENDEN VIEW,ARTICLAVE,BT51 4NZ,UNKNOWN,278376,434045
MUSSENDEN VIEW,ARTICLAVE,BT51 4NZ,UNKNOWN,278379,434050
MUSSENDEN VIEW,ARTICLAVE,BT51 4NZ,UNKNOWN,278437,434130
BALLYSTRONE ROAD,COLERAINE,BT51 4JF,UNKNOWN,280632,428445
OCEAN VIEW,CASTLEROCK,BTXX XXX,UNKNOWN,276866,436270
OCEAN VIEW,CASTLEROCK,BTXX XXX,UNKNOWN,276860,436274
OCEAN VIEW,CASTLEROCK,BTXX XXX,UNKNOWN,276855,436277
OCEAN VIEW,CASTLEROCK,BTXX XXX,UNKNOWN,276848,436281
OCEAN VIEW,CASTLEROCK,BTXX XXX,UNKNOWN,276860,436277
OCEAN VIEW,CASTLEROCK,BTXX XXX,UNKNOWN,276866,436273
OCEAN VIEW,CASTLEROCK,BTXX XXX,UNKNOWN,276850,436284
OCEAN VIEW,CASTLEROCK,BTXX XXX,UNKNOWN,276844,436284
OCEAN VIEW,CASTLEROCK,BTXX XXX,UNKNOWN,276839,436287
OCEAN VIEW,CASTLEROCK,BTXX XXX,UNKNOWN,276839,436287
OCEAN VIEW,CASTLEROCK,BTXX XXX,UNKNOWN,276835,436291
OCEAN VIEW,CASTLEROCK,BTXX XXX,UNKNOWN,276835,436291
OCEAN VIEW,CASTLEROCK,BTXX XXX,UNKNOWN,276833,436276
OCEAN VIEW,CASTLEROCK,BTXX XXX,UNKNOWN,276837,436277
MUSSENDEN VIEW,ARTICLAVE,BT51 4NZ,UNKNOWN,278326,434042
MILL LANE,CASTLEROCK,BT51 4WD,UNKNOWN,275950,434526
MILL LANE,CASTLEROCK,BT51 4WD,UNKNOWN,275971,434517
MILL LANE,CASTLEROCK,BT51 4WD,UNKNOWN,275961,434504
ST. PAULS ROAD,ARTICLAVE,BT51 4UW,UNKNOWN,278392,433884
ISLAY COURT,CASTLEROCK,BT51 4PZ,UNKNOWN,277735,435872
ISLAY COURT,CASTLEROCK,BT51 4PZ,UNKNOWN,277751,435855
